{
"type": "FeatureCollection",
"name": "daechi4_population",
"crs": { "type": "name", "properties": { "name": "urn:ogc:def:crs:OGC:1.3:CRS84" } },
"features": [
{ "type": "Feature", "properties": { "GRID_CD": "다사601449", "BASE_DATE": "20250630", "ADM_CD": "11230630", "ADM_NM": "대치4동", "BASE_YEAR": 2024, "STAT_CODE": "to_in_001", "STAT_VAL": 5.0 }, "geometry": { "type": "MultiPolygon", "coordinates": [ [ [ [ 127.048577983416365, 37.502505665427904 ], [ 127.048572556561439, 37.503407003596962 ], [ 127.049703921632485, 37.50341132175339 ], [ 127.04970933488778, 37.502509983444575 ], [ 127.048577983416365, 37.502505665427904 ] ] ] ] } },
{ "type": "Feature", "properties": { "GRID_CD": "다사601450", "BASE_DATE": "20250630", "ADM_CD": "11230630", "ADM_NM": "대치4동", "BASE_YEAR": 2024, "STAT_CODE": "to_in_001", "STAT_VAL": 53.0 }, "geometry": { "type": "MultiPolygon", "coordinates": [ [ [ [ 127.048572556561439, 37.503407003596962 ], [ 127.048567129464757, 37.504308341627443 ], [ 127.049698508136061, 37.504312659923649 ], [ 127.049703921632485, 37.50341132175339 ], [ 127.048572556561439, 37.503407003596962 ] ] ] ] } },
{ "type": "Feature", "properties": { "GRID_CD": "다사601451", "BASE_DATE": "20250630", "ADM_CD": "11230630", "ADM_NM": "대치4동", "BASE_YEAR": 2024, "STAT_CODE": "to_in_001", "STAT_VAL": 0.0 }, "geometry": { "type": "MultiPolygon", "coordinates": [ [ [ [ 127.048567129464757, 37.504308341627443 ], [ 127.048561702126349, 37.505209679519396 ], [ 127.049693094398492, 37.505213997955373 ], [ 127.049698508136061, 37.504312659923649 ], [ 127.048567129464757, 37.504308341627443 ] ] ] ] } },
{ "type": "Feature", "properties": { "GRID_CD": "다사602446", "BASE_DATE": "20250630", "ADM_CD": "11230630", "ADM_NM": "대치4동", "BASE_YEAR": 2024, "STAT_CODE": "to_in_001", "STAT_VAL": 507.0 }, "geometry": { "type": "MultiPolygon", "coordinates": [ [ [ [ 127.049725573207084, 37.499805967686889 ], [ 127.049720160675079, 37.500707306411321 ], [ 127.050851485190151, 37.500711613314444 ], [ 127.050856884124315, 37.49981027445061 ], [ 127.049725573207084, 37.499805967686889 ] ] ] ] } },
{ "type": "Feature", "properties": { "GRID_CD": "다사602447", "BASE_DATE": "20250630", "ADM_CD": "11230630", "ADM_NM": "대치4동", "BASE_YEAR": 2024, "STAT_CODE": "to_in_001", "STAT_VAL": 525.0 }, "geometry": { "type": "MultiPolygon", "coordinates": [ [ [ [ 127.049720160675079, 37.500707306411321 ], [ 127.049714747901987, 37.501608644997226 ], [ 127.050846086015483, 37.50161295203975 ], [ 127.050851485190151, 37.500711613314444 ], [ 127.049720160675079, 37.500707306411321 ] ] ] ] } },
{ "type": "Feature", "properties": { "GRID_CD": "다사602448", "BASE_DATE": "20250630", "ADM_CD": "11230630", "ADM_NM": "대치4동", "BASE_YEAR": 2024, "STAT_CODE": "to_in_001", "STAT_VAL": 78.0 }, "geometry": { "type": "MultiPolygon", "coordinates": [ [ [ [ 127.049714747901987, 37.501608644997226 ], [ 127.04970933488778, 37.502509983444575 ], [ 127.050840686600338, 37.502514290626522 ], [ 127.050846086015483, 37.50161295203975 ], [ 127.049714747901987, 37.501608644997226 ] ] ] ] } },
{ "type": "Feature", "properties": { "GRID_CD": "다사602449", "BASE_DATE": "20250630", "ADM_CD": "11230630", "ADM_NM": "대치4동", "BASE_YEAR": 2024, "STAT_CODE": "to_in_001", "STAT_VAL": 65.0 }, "geometry": { "type": "MultiPolygon", "coordinates": [ [ [ [ 127.04970933488778, 37.502509983444575 ], [ 127.049703921632485, 37.50341132175339 ], [ 127.050835286944661, 37.503415629074745 ], [ 127.050840686600338, 37.502514290626522 ], [ 127.04970933488778, 37.502509983444575 ] ] ] ] } },
{ "type": "Feature", "properties": { "GRID_CD": "다사602450", "BASE_DATE": "20250630", "ADM_CD": "11230630", "ADM_NM": "대치4동", "BASE_YEAR": 2024, "STAT_CODE": "to_in_001", "STAT_VAL": 0.0 }, "geometry": { "type": "MultiPolygon", "coordinates": [ [ [ [ 127.049703921632485, 37.50341132175339 ], [ 127.049698508136061, 37.504312659923649 ], [ 127.050829887048494, 37.504316967384433 ], [ 127.050835286944661, 37.503415629074745 ], [ 127.049703921632485, 37.50341132175339 ] ] ] ] } },
{ "type": "Feature", "properties": { "GRID_CD": "다사602451", "BASE_DATE": "20250630", "ADM_CD": "11230630", "ADM_NM": "대치4동", "BASE_YEAR": 2024, "STAT_CODE": "to_in_001", "STAT_VAL": 5.0 }, "geometry": { "type": "MultiPolygon", "coordinates": [ [ [ [ 127.049698508136061, 37.504312659923649 ], [ 127.049693094398492, 37.505213997955373 ], [ 127.050824486911793, 37.505218305555573 ], [ 127.050829887048494, 37.504316967384433 ], [ 127.049698508136061, 37.504312659923649 ] ] ] ] } },
{ "type": "Feature", "properties": { "GRID_CD": "다사603444", "BASE_DATE": "20250630", "ADM_CD": "11230630", "ADM_NM": "대치4동", "BASE_YEAR": 2024, "STAT_CODE": "to_in_001", "STAT_VAL": 324.0 }, "geometry": { "type": "MultiPolygon", "coordinates": [ [ [ [ 127.050867681271285, 37.498007596307318 ], [ 127.050862282818031, 37.498908935448227 ], [ 127.051993580378493, 37.498913231239207 ], [ 127.051998965235114, 37.498011891959244 ], [ 127.050867681271285, 37.498007596307318 ] ] ] ] } },
{ "type": "Feature", "properties": { "GRID_CD": "다사603445", "BASE_DATE": "20250630", "ADM_CD": "11230630", "ADM_NM": "대치4동", "BASE_YEAR": 2024, "STAT_CODE": "to_in_001", "STAT_VAL": 282.0 }, "geometry": { "type": "MultiPolygon", "coordinates": [ [ [ [ 127.050862282818031, 37.498908935448227 ], [ 127.050856884124315, 37.49981027445061 ], [ 127.051988195282021, 37.499814570380636 ], [ 127.051993580378493, 37.498913231239207 ], [ 127.050862282818031, 37.498908935448227 ] ] ] ] } },
{ "type": "Feature", "properties": { "GRID_CD": "다사603446", "BASE_DATE": "20250630", "ADM_CD": "11230630", "ADM_NM": "대치4동", "BASE_YEAR": 2024, "STAT_CODE": "to_in_001", "STAT_VAL": 73.0 }, "geometry": { "type": "MultiPolygon", "coordinates": [ [ [ [ 127.050856884124315, 37.49981027445061 ], [ 127.050851485190151, 37.500711613314444 ], [ 127.051982809945684, 37.500715909383544 ], [ 127.051988195282021, 37.499814570380636 ], [ 127.050856884124315, 37.49981027445061 ] ] ] ] } },
{ "type": "Feature", "properties": { "GRID_CD": "다사603447", "BASE_DATE": "20250630", "ADM_CD": "11230630", "ADM_NM": "대치4동", "BASE_YEAR": 2024, "STAT_CODE": "to_in_001", "STAT_VAL": 343.0 }, "geometry": { "type": "MultiPolygon", "coordinates": [ [ [ [ 127.050851485190151, 37.500711613314444 ], [ 127.050846086015483, 37.50161295203975 ], [ 127.051977424369468, 37.501617248247889 ], [ 127.051982809945684, 37.500715909383544 ], [ 127.050851485190151, 37.500711613314444 ] ] ] ] } },
{ "type": "Feature", "properties": { "GRID_CD": "다사603448", "BASE_DATE": "20250630", "ADM_CD": "11230630", "ADM_NM": "대치4동", "BASE_YEAR": 2024, "STAT_CODE": "to_in_001", "STAT_VAL": 363.0 }, "geometry": { "type": "MultiPolygon", "coordinates": [ [ [ [ 127.050846086015483, 37.50161295203975 ], [ 127.050840686600338, 37.502514290626522 ], [ 127.051972038553387, 37.502518586973729 ], [ 127.051977424369468, 37.501617248247889 ], [ 127.050846086015483, 37.50161295203975 ] ] ] ] } },
{ "type": "Feature", "properties": { "GRID_CD": "다사603449", "BASE_DATE": "20250630", "ADM_CD": "11230630", "ADM_NM": "대치4동", "BASE_YEAR": 2024, "STAT_CODE": "to_in_001", "STAT_VAL": 116.0 }, "geometry": { "type": "MultiPolygon", "coordinates": [ [ [ [ 127.050840686600338, 37.502514290626522 ], [ 127.050835286944661, 37.503415629074745 ], [ 127.051966652497356, 37.503419925561019 ], [ 127.051972038553387, 37.502518586973729 ], [ 127.050840686600338, 37.502514290626522 ] ] ] ] } },
{ "type": "Feature", "properties": { "GRID_CD": "다사603450", "BASE_DATE": "20250630", "ADM_CD": "11230630", "ADM_NM": "대치4동", "BASE_YEAR": 2024, "STAT_CODE": "to_in_001", "STAT_VAL": 210.0 }, "geometry": { "type": "MultiPolygon", "coordinates": [ [ [ [ 127.050835286944661, 37.503415629074745 ], [ 127.050829887048494, 37.504316967384433 ], [ 127.051961266201445, 37.504321264009775 ], [ 127.051966652497356, 37.503419925561019 ], [ 127.050835286944661, 37.503415629074745 ] ] ] ] } },
{ "type": "Feature", "properties": { "GRID_CD": "다사603451", "BASE_DATE": "20250630", "ADM_CD": "11230630", "ADM_NM": "대치4동", "BASE_YEAR": 2024, "STAT_CODE": "to_in_001", "STAT_VAL": 188.0 }, "geometry": { "type": "MultiPolygon", "coordinates": [ [ [ [ 127.050829887048494, 37.504316967384433 ], [ 127.050824486911793, 37.505218305555573 ], [ 127.051955879665613, 37.505222602319989 ], [ 127.051961266201445, 37.504321264009775 ], [ 127.050829887048494, 37.504316967384433 ] ] ] ] } },
{ "type": "Feature", "properties": { "GRID_CD": "다사603452", "BASE_DATE": "20250630", "ADM_CD": "11230630", "ADM_NM": "대치4동", "BASE_YEAR": 2024, "STAT_CODE": "to_in_001", "STAT_VAL": 393.0 }, "geometry": { "type": "MultiPolygon", "coordinates": [ [ [ [ 127.050824486911793, 37.505218305555573 ], [ 127.050819086534545, 37.506119643588178 ], [ 127.05195049288983, 37.506123940491662 ], [ 127.051955879665613, 37.505222602319989 ], [ 127.050824486911793, 37.505218305555573 ] ] ] ] } },
{ "type": "Feature", "properties": { "GRID_CD": "다사604442", "BASE_DATE": "20250630", "ADM_CD": "11230630", "ADM_NM": "대치4동", "BASE_YEAR": 2024, "STAT_CODE": "to_in_001", "STAT_VAL": 13.0 }, "geometry": { "type": "MultiPolygon", "coordinates": [ [ [ [ 127.052009734228818, 37.496209212983722 ], [ 127.05200434985187, 37.497110552540754 ], [ 127.053135620459543, 37.497114837220984 ], [ 127.053140991241051, 37.496213497525275 ], [ 127.052009734228818, 37.496209212983722 ] ] ] ] } },
{ "type": "Feature", "properties": { "GRID_CD": "다사604443", "BASE_DATE": "20250630", "ADM_CD": "11230630", "ADM_NM": "대치4동", "BASE_YEAR": 2024, "STAT_CODE": "to_in_001", "STAT_VAL": 13.0 }, "geometry": { "type": "MultiPolygon", "coordinates": [ [ [ [ 127.05200434985187, 37.497110552540754 ], [ 127.051998965235114, 37.498011891959244 ], [ 127.053130249438809, 37.498016176778187 ], [ 127.053135620459543, 37.497114837220984 ], [ 127.05200434985187, 37.497110552540754 ] ] ] ] } },
{ "type": "Feature", "properties": { "GRID_CD": "다사604444", "BASE_DATE": "20250630", "ADM_CD": "11230630", "ADM_NM": "대치4동", "BASE_YEAR": 2024, "STAT_CODE": "to_in_001", "STAT_VAL": 256.0 }, "geometry": { "type": "MultiPolygon", "coordinates": [ [ [ [ 127.051998965235114, 37.498011891959244 ], [ 127.051993580378493, 37.498913231239207 ], [ 127.053124878178835, 37.498917516196848 ], [ 127.053130249438809, 37.498016176778187 ], [ 127.051998965235114, 37.498011891959244 ] ] ] ] } },
{ "type": "Feature", "properties": { "GRID_CD": "다사604445", "BASE_DATE": "20250630", "ADM_CD": "11230630", "ADM_NM": "대치4동", "BASE_YEAR": 2024, "STAT_CODE": "to_in_001", "STAT_VAL": 457.0 }, "geometry": { "type": "MultiPolygon", "coordinates": [ [ [ [ 127.051993580378493, 37.498913231239207 ], [ 127.051988195282021, 37.499814570380636 ], [ 127.053119506679622, 37.499818855476974 ], [ 127.053124878178835, 37.498917516196848 ], [ 127.051993580378493, 37.498913231239207 ] ] ] ] } },
{ "type": "Feature", "properties": { "GRID_CD": "다사604446", "BASE_DATE": "20250630", "ADM_CD": "11230630", "ADM_NM": "대치4동", "BASE_YEAR": 2024, "STAT_CODE": "to_in_001", "STAT_VAL": 236.0 }, "geometry": { "type": "MultiPolygon", "coordinates": [ [ [ [ 127.051988195282021, 37.499814570380636 ], [ 127.051982809945684, 37.500715909383544 ], [ 127.053114134941126, 37.50072019461858 ], [ 127.053119506679622, 37.499818855476974 ], [ 127.051988195282021, 37.499814570380636 ] ] ] ] } },
{ "type": "Feature", "properties": { "GRID_CD": "다사604447", "BASE_DATE": "20250630", "ADM_CD": "11230630", "ADM_NM": "대치4동", "BASE_YEAR": 2024, "STAT_CODE": "to_in_001", "STAT_VAL": 54.0 }, "geometry": { "type": "MultiPolygon", "coordinates": [ [ [ [ 127.051982809945684, 37.500715909383544 ], [ 127.051977424369468, 37.501617248247889 ], [ 127.053108762963348, 37.501621533621645 ], [ 127.053114134941126, 37.50072019461858 ], [ 127.051982809945684, 37.500715909383544 ] ] ] ] } },
{ "type": "Feature", "properties": { "GRID_CD": "다사604448", "BASE_DATE": "20250630", "ADM_CD": "11230630", "ADM_NM": "대치4동", "BASE_YEAR": 2024, "STAT_CODE": "to_in_001", "STAT_VAL": 250.0 }, "geometry": { "type": "MultiPolygon", "coordinates": [ [ [ [ 127.051977424369468, 37.501617248247889 ], [ 127.051972038553387, 37.502518586973729 ], [ 127.05310339074633, 37.502522872486189 ], [ 127.053108762963348, 37.501621533621645 ], [ 127.051977424369468, 37.501617248247889 ] ] ] ] } },
{ "type": "Feature", "properties": { "GRID_CD": "다사604449", "BASE_DATE": "20250630", "ADM_CD": "11230630", "ADM_NM": "대치4동", "BASE_YEAR": 2024, "STAT_CODE": "to_in_001", "STAT_VAL": 420.0 }, "geometry": { "type": "MultiPolygon", "coordinates": [ [ [ [ 127.051972038553387, 37.502518586973729 ], [ 127.051966652497356, 37.503419925561019 ], [ 127.053098018289973, 37.503424211212199 ], [ 127.05310339074633, 37.502522872486189 ], [ 127.051972038553387, 37.502518586973729 ] ] ] ] } },
{ "type": "Feature", "properties": { "GRID_CD": "다사604450", "BASE_DATE": "20250630", "ADM_CD": "11230630", "ADM_NM": "대치4동", "BASE_YEAR": 2024, "STAT_CODE": "to_in_001", "STAT_VAL": 325.0 }, "geometry": { "type": "MultiPolygon", "coordinates": [ [ [ [ 127.051966652497356, 37.503419925561019 ], [ 127.051961266201445, 37.504321264009775 ], [ 127.053092645594333, 37.504325549799667 ], [ 127.053098018289973, 37.503424211212199 ], [ 127.051966652497356, 37.503419925561019 ] ] ] ] } },
{ "type": "Feature", "properties": { "GRID_CD": "다사604451", "BASE_DATE": "20250630", "ADM_CD": "11230630", "ADM_NM": "대치4동", "BASE_YEAR": 2024, "STAT_CODE": "to_in_001", "STAT_VAL": 8.0 }, "geometry": { "type": "MultiPolygon", "coordinates": [ [ [ [ 127.051961266201445, 37.504321264009775 ], [ 127.051955879665613, 37.505222602319989 ], [ 127.053087272659369, 37.5052268882486 ], [ 127.053092645594333, 37.504325549799667 ], [ 127.051961266201445, 37.504321264009775 ] ] ] ] } },
{ "type": "Feature", "properties": { "GRID_CD": "다사604452", "BASE_DATE": "20250630", "ADM_CD": "11230630", "ADM_NM": "대치4동", "BASE_YEAR": 2024, "STAT_CODE": "to_in_001", "STAT_VAL": 58.0 }, "geometry": { "type": "MultiPolygon", "coordinates": [ [ [ [ 127.051955879665613, 37.505222602319989 ], [ 127.05195049288983, 37.506123940491662 ], [ 127.053081899485093, 37.506128226559007 ], [ 127.053087272659369, 37.5052268882486 ], [ 127.051955879665613, 37.505222602319989 ] ] ] ] } },
{ "type": "Feature", "properties": { "GRID_CD": "다사605442", "BASE_DATE": "20250630", "ADM_CD": "11230630", "ADM_NM": "대치4동", "BASE_YEAR": null, "STAT_CODE": null, "STAT_VAL": 0.0 }, "geometry": { "type": "MultiPolygon", "coordinates": [ [ [ [ 127.053140991241051, 37.496213497525275 ], [ 127.053135620459543, 37.497114837220984 ], [ 127.05426689130644, 37.497119111068592 ], [ 127.054272248492495, 37.496217771234534 ], [ 127.053140991241051, 37.496213497525275 ] ] ] ] } },
{ "type": "Feature", "properties": { "GRID_CD": "다사605443", "BASE_DATE": "20250630", "ADM_CD": "11230630", "ADM_NM": "대치4동", "BASE_YEAR": 2024, "STAT_CODE": "to_in_001", "STAT_VAL": 38.0 }, "geometry": { "type": "MultiPolygon", "coordinates": [ [ [ [ 127.053135620459543, 37.497114837220984 ], [ 127.053130249438809, 37.498016176778187 ], [ 127.054261533881743, 37.498020450764137 ], [ 127.05426689130644, 37.497119111068592 ], [ 127.053135620459543, 37.497114837220984 ] ] ] ] } },
{ "type": "Feature", "properties": { "GRID_CD": "다사605444", "BASE_DATE": "20250630", "ADM_CD": "11230630", "ADM_NM": "대치4동", "BASE_YEAR": 2024, "STAT_CODE": "to_in_001", "STAT_VAL": 95.0 }, "geometry": { "type": "MultiPolygon", "coordinates": [ [ [ [ 127.053130249438809, 37.498016176778187 ], [ 127.053124878178835, 37.498917516196848 ], [ 127.054256176218402, 37.498921790321141 ], [ 127.054261533881743, 37.498020450764137 ], [ 127.053130249438809, 37.498016176778187 ] ] ] ] } },
{ "type": "Feature", "properties": { "GRID_CD": "다사605445", "BASE_DATE": "20250630", "ADM_CD": "11230630", "ADM_NM": "대치4동", "BASE_YEAR": 2024, "STAT_CODE": "to_in_001", "STAT_VAL": 206.0 }, "geometry": { "type": "MultiPolygon", "coordinates": [ [ [ [ 127.053124878178835, 37.498917516196848 ], [ 127.053119506679622, 37.499818855476974 ], [ 127.054250818316433, 37.499823129739617 ], [ 127.054256176218402, 37.498921790321141 ], [ 127.053124878178835, 37.498917516196848 ] ] ] ] } },
{ "type": "Feature", "properties": { "GRID_CD": "다사605446", "BASE_DATE": "20250630", "ADM_CD": "11230630", "ADM_NM": "대치4동", "BASE_YEAR": 2024, "STAT_CODE": "to_in_001", "STAT_VAL": 492.0 }, "geometry": { "type": "MultiPolygon", "coordinates": [ [ [ [ 127.053119506679622, 37.499818855476974 ], [ 127.053114134941126, 37.50072019461858 ], [ 127.054245460175807, 37.500724469019573 ], [ 127.054250818316433, 37.499823129739617 ], [ 127.053119506679622, 37.499818855476974 ] ] ] ] } },
{ "type": "Feature", "properties": { "GRID_CD": "다사605447", "BASE_DATE": "20250630", "ADM_CD": "11230630", "ADM_NM": "대치4동", "BASE_YEAR": 2024, "STAT_CODE": "to_in_001", "STAT_VAL": 178.0 }, "geometry": { "type": "MultiPolygon", "coordinates": [ [ [ [ 127.053114134941126, 37.50072019461858 ], [ 127.053108762963348, 37.501621533621645 ], [ 127.054240101796509, 37.501625808161002 ], [ 127.054245460175807, 37.500724469019573 ], [ 127.053114134941126, 37.50072019461858 ] ] ] ] } },
{ "type": "Feature", "properties": { "GRID_CD": "다사605448", "BASE_DATE": "20250630", "ADM_CD": "11230630", "ADM_NM": "대치4동", "BASE_YEAR": 2024, "STAT_CODE": "to_in_001", "STAT_VAL": 264.0 }, "geometry": { "type": "MultiPolygon", "coordinates": [ [ [ [ 127.053108762963348, 37.501621533621645 ], [ 127.05310339074633, 37.502522872486189 ], [ 127.05423474317854, 37.502527147163903 ], [ 127.054240101796509, 37.501625808161002 ], [ 127.053108762963348, 37.501621533621645 ] ] ] ] } },
{ "type": "Feature", "properties": { "GRID_CD": "다사605449", "BASE_DATE": "20250630", "ADM_CD": "11230630", "ADM_NM": "대치4동", "BASE_YEAR": 2024, "STAT_CODE": "to_in_001", "STAT_VAL": 380.0 }, "geometry": { "type": "MultiPolygon", "coordinates": [ [ [ [ 127.05310339074633, 37.502522872486189 ], [ 127.053098018289973, 37.503424211212199 ], [ 127.054229384321886, 37.50342848602827 ], [ 127.05423474317854, 37.502527147163903 ], [ 127.05310339074633, 37.502522872486189 ] ] ] ] } },
{ "type": "Feature", "properties": { "GRID_CD": "다사605450", "BASE_DATE": "20250630", "ADM_CD": "11230630", "ADM_NM": "대치4동", "BASE_YEAR": 2024, "STAT_CODE": "to_in_001", "STAT_VAL": 197.0 }, "geometry": { "type": "MultiPolygon", "coordinates": [ [ [ [ 127.053098018289973, 37.503424211212199 ], [ 127.053092645594333, 37.504325549799667 ], [ 127.054224025226532, 37.504329824754116 ], [ 127.054229384321886, 37.50342848602827 ], [ 127.053098018289973, 37.503424211212199 ] ] ] ] } },
{ "type": "Feature", "properties": { "GRID_CD": "다사605451", "BASE_DATE": "20250630", "ADM_CD": "11230630", "ADM_NM": "대치4동", "BASE_YEAR": 2024, "STAT_CODE": "to_in_001", "STAT_VAL": 455.0 }, "geometry": { "type": "MultiPolygon", "coordinates": [ [ [ [ 127.053092645594333, 37.504325549799667 ], [ 127.053087272659369, 37.5052268882486 ], [ 127.054218665892478, 37.505231163341421 ], [ 127.054224025226532, 37.504329824754116 ], [ 127.053092645594333, 37.504325549799667 ] ] ] ] } },
{ "type": "Feature", "properties": { "GRID_CD": "다사605452", "BASE_DATE": "20250630", "ADM_CD": "11230630", "ADM_NM": "대치4동", "BASE_YEAR": 2024, "STAT_CODE": "to_in_001", "STAT_VAL": 539.0 }, "geometry": { "type": "MultiPolygon", "coordinates": [ [ [ [ 127.053087272659369, 37.5052268882486 ], [ 127.053081899485093, 37.506128226559007 ], [ 127.054213306319681, 37.506132501790191 ], [ 127.054218665892478, 37.505231163341421 ], [ 127.053087272659369, 37.5052268882486 ] ] ] ] } },
{ "type": "Feature", "properties": { "GRID_CD": "다사606442", "BASE_DATE": "20250630", "ADM_CD": "11230630", "ADM_NM": "대치4동", "BASE_YEAR": 2024, "STAT_CODE": "to_in_001", "STAT_VAL": 235.0 }, "geometry": { "type": "MultiPolygon", "coordinates": [ [ [ [ 127.054272248492495, 37.496217771234534 ], [ 127.05426689130644, 37.497119111068592 ], [ 127.055398162391924, 37.497123374083536 ], [ 127.055403505982568, 37.49622203411149 ], [ 127.054272248492495, 37.496217771234534 ] ] ] ] } },
{ "type": "Feature", "properties": { "GRID_CD": "다사606443", "BASE_DATE": "20250630", "ADM_CD": "11230630", "ADM_NM": "대치4동", "BASE_YEAR": 2024, "STAT_CODE": "to_in_001", "STAT_VAL": 115.0 }, "geometry": { "type": "MultiPolygon", "coordinates": [ [ [ [ 127.05426689130644, 37.497119111068592 ], [ 127.054261533881743, 37.498020450764137 ], [ 127.055392818563291, 37.498024713917069 ], [ 127.055398162391924, 37.497123374083536 ], [ 127.05426689130644, 37.497119111068592 ] ] ] ] } },
{ "type": "Feature", "properties": { "GRID_CD": "다사606444", "BASE_DATE": "20250630", "ADM_CD": "11230630", "ADM_NM": "대치4동", "BASE_YEAR": 2024, "STAT_CODE": "to_in_001", "STAT_VAL": 155.0 }, "geometry": { "type": "MultiPolygon", "coordinates": [ [ [ [ 127.054261533881743, 37.498020450764137 ], [ 127.054256176218402, 37.498921790321141 ], [ 127.055387474496641, 37.498926053612074 ], [ 127.055392818563291, 37.498024713917069 ], [ 127.054261533881743, 37.498020450764137 ] ] ] ] } },
{ "type": "Feature", "properties": { "GRID_CD": "다사606445", "BASE_DATE": "20250630", "ADM_CD": "11230630", "ADM_NM": "대치4동", "BASE_YEAR": 2024, "STAT_CODE": "to_in_001", "STAT_VAL": 54.0 }, "geometry": { "type": "MultiPolygon", "coordinates": [ [ [ [ 127.054256176218402, 37.498921790321141 ], [ 127.054250818316433, 37.499823129739617 ], [ 127.05538213019193, 37.499827393168552 ], [ 127.055387474496641, 37.498926053612074 ], [ 127.054256176218402, 37.498921790321141 ] ] ] ] } },
{ "type": "Feature", "properties": { "GRID_CD": "다사606446", "BASE_DATE": "20250630", "ADM_CD": "11230630", "ADM_NM": "대치4동", "BASE_YEAR": 2024, "STAT_CODE": "to_in_001", "STAT_VAL": 583.0 }, "geometry": { "type": "MultiPolygon", "coordinates": [ [ [ [ 127.054250818316433, 37.499823129739617 ], [ 127.054245460175807, 37.500724469019573 ], [ 127.055376785649187, 37.500728732586516 ], [ 127.05538213019193, 37.499827393168552 ], [ 127.054250818316433, 37.499823129739617 ] ] ] ] } },
{ "type": "Feature", "properties": { "GRID_CD": "다사606447", "BASE_DATE": "20250630", "ADM_CD": "11230630", "ADM_NM": "대치4동", "BASE_YEAR": 2024, "STAT_CODE": "to_in_001", "STAT_VAL": 507.0 }, "geometry": { "type": "MultiPolygon", "coordinates": [ [ [ [ 127.054245460175807, 37.500724469019573 ], [ 127.054240101796509, 37.501625808161002 ], [ 127.05537144086837, 37.501630071865954 ], [ 127.055376785649187, 37.500728732586516 ], [ 127.054245460175807, 37.500724469019573 ] ] ] ] } },
{ "type": "Feature", "properties": { "GRID_CD": "다사606448", "BASE_DATE": "20250630", "ADM_CD": "11230630", "ADM_NM": "대치4동", "BASE_YEAR": 2024, "STAT_CODE": "to_in_001", "STAT_VAL": 228.0 }, "geometry": { "type": "MultiPolygon", "coordinates": [ [ [ [ 127.054240101796509, 37.501625808161002 ], [ 127.05423474317854, 37.502527147163903 ], [ 127.055366095849479, 37.502531411006856 ], [ 127.05537144086837, 37.501630071865954 ], [ 127.054240101796509, 37.501625808161002 ] ] ] ] } },
{ "type": "Feature", "properties": { "GRID_CD": "다사606449", "BASE_DATE": "20250630", "ADM_CD": "11230630", "ADM_NM": "대치4동", "BASE_YEAR": 2024, "STAT_CODE": "to_in_001", "STAT_VAL": 425.0 }, "geometry": { "type": "MultiPolygon", "coordinates": [ [ [ [ 127.05423474317854, 37.502527147163903 ], [ 127.054229384321886, 37.50342848602827 ], [ 127.055360750592513, 37.503432750009239 ], [ 127.055366095849479, 37.502531411006856 ], [ 127.05423474317854, 37.502527147163903 ] ] ] ] } },
{ "type": "Feature", "properties": { "GRID_CD": "다사606450", "BASE_DATE": "20250630", "ADM_CD": "11230630", "ADM_NM": "대치4동", "BASE_YEAR": 2024, "STAT_CODE": "to_in_001", "STAT_VAL": 242.0 }, "geometry": { "type": "MultiPolygon", "coordinates": [ [ [ [ 127.054229384321886, 37.50342848602827 ], [ 127.054224025226532, 37.504329824754116 ], [ 127.055355405097444, 37.504334088873094 ], [ 127.055360750592513, 37.503432750009239 ], [ 127.054229384321886, 37.50342848602827 ] ] ] ] } },
{ "type": "Feature", "properties": { "GRID_CD": "다사606451", "BASE_DATE": "20250630", "ADM_CD": "11230630", "ADM_NM": "대치4동", "BASE_YEAR": 2024, "STAT_CODE": "to_in_001", "STAT_VAL": 165.0 }, "geometry": { "type": "MultiPolygon", "coordinates": [ [ [ [ 127.054224025226532, 37.504329824754116 ], [ 127.054218665892478, 37.505231163341421 ], [ 127.055350059364287, 37.505235427598421 ], [ 127.055355405097444, 37.504334088873094 ], [ 127.054224025226532, 37.504329824754116 ] ] ] ] } },
{ "type": "Feature", "properties": { "GRID_CD": "다사606452", "BASE_DATE": "20250630", "ADM_CD": "11230630", "ADM_NM": "대치4동", "BASE_YEAR": 2024, "STAT_CODE": "to_in_001", "STAT_VAL": 119.0 }, "geometry": { "type": "MultiPolygon", "coordinates": [ [ [ [ 127.054218665892478, 37.505231163341421 ], [ 127.054213306319681, 37.506132501790191 ], [ 127.055344713392998, 37.506136766185222 ], [ 127.055350059364287, 37.505235427598421 ], [ 127.054218665892478, 37.505231163341421 ] ] ] ] } },
{ "type": "Feature", "properties": { "GRID_CD": "다사606453", "BASE_DATE": "20250630", "ADM_CD": "11230630", "ADM_NM": "대치4동", "BASE_YEAR": 2024, "STAT_CODE": "to_in_001", "STAT_VAL": 5.0 }, "geometry": { "type": "MultiPolygon", "coordinates": [ [ [ [ 127.054213306319681, 37.506132501790191 ], [ 127.054207946508143, 37.507033840100441 ], [ 127.055339367183592, 37.50703810463348 ], [ 127.055344713392998, 37.506136766185222 ], [ 127.054213306319681, 37.506132501790191 ] ] ] ] } },
{ "type": "Feature", "properties": { "GRID_CD": "다사607443", "BASE_DATE": "20250630", "ADM_CD": "11230630", "ADM_NM": "대치4동", "BASE_YEAR": 2024, "STAT_CODE": "to_in_001", "STAT_VAL": 346.0 }, "geometry": { "type": "MultiPolygon", "coordinates": [ [ [ [ 127.055398162391924, 37.497123374083536 ], [ 127.055392818563291, 37.498024713917069 ], [ 127.056524103482886, 37.498028966237001 ], [ 127.056529433715454, 37.497127626265815 ], [ 127.055398162391924, 37.497123374083536 ] ] ] ] } },
{ "type": "Feature", "properties": { "GRID_CD": "다사607444", "BASE_DATE": "20250630", "ADM_CD": "11230630", "ADM_NM": "대치4동", "BASE_YEAR": 2024, "STAT_CODE": "to_in_001", "STAT_VAL": 553.0 }, "geometry": { "type": "MultiPolygon", "coordinates": [ [ [ [ 127.055392818563291, 37.498024713917069 ], [ 127.055387474496641, 37.498926053612074 ], [ 127.056518773012883, 37.498930306069653 ], [ 127.056524103482886, 37.498028966237001 ], [ 127.055392818563291, 37.498024713917069 ] ] ] ] } },
{ "type": "Feature", "properties": { "GRID_CD": "다사607445", "BASE_DATE": "20250630", "ADM_CD": "11230630", "ADM_NM": "대치4동", "BASE_YEAR": 2024, "STAT_CODE": "to_in_001", "STAT_VAL": 548.0 }, "geometry": { "type": "MultiPolygon", "coordinates": [ [ [ [ 127.055387474496641, 37.498926053612074 ], [ 127.05538213019193, 37.499827393168552 ], [ 127.056513442305473, 37.499831645763784 ], [ 127.056518773012883, 37.498930306069653 ], [ 127.055387474496641, 37.498926053612074 ] ] ] ] } },
{ "type": "Feature", "properties": { "GRID_CD": "다사607446", "BASE_DATE": "20250630", "ADM_CD": "11230630", "ADM_NM": "대치4동", "BASE_YEAR": 2024, "STAT_CODE": "to_in_001", "STAT_VAL": 570.0 }, "geometry": { "type": "MultiPolygon", "coordinates": [ [ [ [ 127.05538213019193, 37.499827393168552 ], [ 127.055376785649187, 37.500728732586516 ], [ 127.0565081113606, 37.500732985319388 ], [ 127.056513442305473, 37.499831645763784 ], [ 127.05538213019193, 37.499827393168552 ] ] ] ] } },
{ "type": "Feature", "properties": { "GRID_CD": "다사607447", "BASE_DATE": "20250630", "ADM_CD": "11230630", "ADM_NM": "대치4동", "BASE_YEAR": 2024, "STAT_CODE": "to_in_001", "STAT_VAL": 345.0 }, "geometry": { "type": "MultiPolygon", "coordinates": [ [ [ [ 127.055376785649187, 37.500728732586516 ], [ 127.05537144086837, 37.501630071865954 ], [ 127.056502780178278, 37.501634324736486 ], [ 127.0565081113606, 37.500732985319388 ], [ 127.055376785649187, 37.500728732586516 ] ] ] ] } },
{ "type": "Feature", "properties": { "GRID_CD": "다사607448", "BASE_DATE": "20250630", "ADM_CD": "11230630", "ADM_NM": "대치4동", "BASE_YEAR": 2024, "STAT_CODE": "to_in_001", "STAT_VAL": 98.0 }, "geometry": { "type": "MultiPolygon", "coordinates": [ [ [ [ 127.05537144086837, 37.501630071865954 ], [ 127.055366095849479, 37.502531411006856 ], [ 127.056497448758478, 37.502535664015035 ], [ 127.056502780178278, 37.501634324736486 ], [ 127.05537144086837, 37.501630071865954 ] ] ] ] } },
{ "type": "Feature", "properties": { "GRID_CD": "다사607449", "BASE_DATE": "20250630", "ADM_CD": "11230630", "ADM_NM": "대치4동", "BASE_YEAR": 2024, "STAT_CODE": "to_in_001", "STAT_VAL": 386.0 }, "geometry": { "type": "MultiPolygon", "coordinates": [ [ [ [ 127.055366095849479, 37.502531411006856 ], [ 127.055360750592513, 37.503432750009239 ], [ 127.056492117101214, 37.503437003155099 ], [ 127.056497448758478, 37.502535664015035 ], [ 127.055366095849479, 37.502531411006856 ] ] ] ] } },
{ "type": "Feature", "properties": { "GRID_CD": "다사607450", "BASE_DATE": "20250630", "ADM_CD": "11230630", "ADM_NM": "대치4동", "BASE_YEAR": 2024, "STAT_CODE": "to_in_001", "STAT_VAL": 187.0 }, "geometry": { "type": "MultiPolygon", "coordinates": [ [ [ [ 127.055360750592513, 37.503432750009239 ], [ 127.055355405097444, 37.504334088873094 ], [ 127.056486785206474, 37.504338342156622 ], [ 127.056492117101214, 37.503437003155099 ], [ 127.055360750592513, 37.503432750009239 ] ] ] ] } },
{ "type": "Feature", "properties": { "GRID_CD": "다사607451", "BASE_DATE": "20250630", "ADM_CD": "11230630", "ADM_NM": "대치4동", "BASE_YEAR": 2024, "STAT_CODE": "to_in_001", "STAT_VAL": 89.0 }, "geometry": { "type": "MultiPolygon", "coordinates": [ [ [ [ 127.055355405097444, 37.504334088873094 ], [ 127.055350059364287, 37.505235427598421 ], [ 127.056481453074198, 37.505239681019617 ], [ 127.056486785206474, 37.504338342156622 ], [ 127.055355405097444, 37.504334088873094 ] ] ] ] } },
{ "type": "Feature", "properties": { "GRID_CD": "다사607452", "BASE_DATE": "20250630", "ADM_CD": "11230630", "ADM_NM": "대치4동", "BASE_YEAR": 2024, "STAT_CODE": "to_in_001", "STAT_VAL": 8.0 }, "geometry": { "type": "MultiPolygon", "coordinates": [ [ [ [ 127.055350059364287, 37.505235427598421 ], [ 127.055344713392998, 37.506136766185222 ], [ 127.056476120704431, 37.506141019744071 ], [ 127.056481453074198, 37.505239681019617 ], [ 127.055350059364287, 37.505235427598421 ] ] ] ] } },
{ "type": "Feature", "properties": { "GRID_CD": "다사607453", "BASE_DATE": "20250630", "ADM_CD": "11230630", "ADM_NM": "대치4동", "BASE_YEAR": 2024, "STAT_CODE": "to_in_001", "STAT_VAL": 5.0 }, "geometry": { "type": "MultiPolygon", "coordinates": [ [ [ [ 127.055344713392998, 37.506136766185222 ], [ 127.055339367183592, 37.50703810463348 ], [ 127.056470788097144, 37.507042358330018 ], [ 127.056476120704431, 37.506141019744071 ], [ 127.055344713392998, 37.506136766185222 ] ] ] ] } },
{ "type": "Feature", "properties": { "GRID_CD": "다사608443", "BASE_DATE": "20250630", "ADM_CD": "11230630", "ADM_NM": "대치4동", "BASE_YEAR": 2024, "STAT_CODE": "to_in_001", "STAT_VAL": 78.0 }, "geometry": { "type": "MultiPolygon", "coordinates": [ [ [ [ 127.056529433715454, 37.497127626265815 ], [ 127.056524103482886, 37.498028966237001 ], [ 127.057655388639887, 37.498033207723914 ], [ 127.05766070527639, 37.497131867615437 ], [ 127.056529433715454, 37.497127626265815 ] ] ] ] } },
{ "type": "Feature", "properties": { "GRID_CD": "다사608444", "BASE_DATE": "20250630", "ADM_CD": "11230630", "ADM_NM": "대치4동", "BASE_YEAR": 2024, "STAT_CODE": "to_in_001", "STAT_VAL": 380.0 }, "geometry": { "type": "MultiPolygon", "coordinates": [ [ [ [ 127.056524103482886, 37.498028966237001 ], [ 127.056518773012883, 37.498930306069653 ], [ 127.057650071766574, 37.498934547693864 ], [ 127.057655388639887, 37.498033207723914 ], [ 127.056524103482886, 37.498028966237001 ] ] ] ] } },
{ "type": "Feature", "properties": { "GRID_CD": "다사608445", "BASE_DATE": "20250630", "ADM_CD": "11230630", "ADM_NM": "대치4동", "BASE_YEAR": 2024, "STAT_CODE": "to_in_001", "STAT_VAL": 571.0 }, "geometry": { "type": "MultiPolygon", "coordinates": [ [ [ [ 127.056518773012883, 37.498930306069653 ], [ 127.056513442305473, 37.499831645763784 ], [ 127.057644754656451, 37.499835887525279 ], [ 127.057650071766574, 37.498934547693864 ], [ 127.056518773012883, 37.498930306069653 ] ] ] ] } },
{ "type": "Feature", "properties": { "GRID_CD": "다사608446", "BASE_DATE": "20250630", "ADM_CD": "11230630", "ADM_NM": "대치4동", "BASE_YEAR": 2024, "STAT_CODE": "to_in_001", "STAT_VAL": 625.0 }, "geometry": { "type": "MultiPolygon", "coordinates": [ [ [ [ 127.056513442305473, 37.499831645763784 ], [ 127.0565081113606, 37.500732985319388 ], [ 127.05763943730949, 37.500737227218195 ], [ 127.057644754656451, 37.499835887525279 ], [ 127.056513442305473, 37.499831645763784 ] ] ] ] } },
{ "type": "Feature", "properties": { "GRID_CD": "다사608447", "BASE_DATE": "20250630", "ADM_CD": "11230630", "ADM_NM": "대치4동", "BASE_YEAR": 2024, "STAT_CODE": "to_in_001", "STAT_VAL": 494.0 }, "geometry": { "type": "MultiPolygon", "coordinates": [ [ [ [ 127.0565081113606, 37.500732985319388 ], [ 127.056502780178278, 37.501634324736486 ], [ 127.057634119725662, 37.501638566772591 ], [ 127.05763943730949, 37.500737227218195 ], [ 127.0565081113606, 37.500732985319388 ] ] ] ] } },
{ "type": "Feature", "properties": { "GRID_CD": "다사608448", "BASE_DATE": "20250630", "ADM_CD": "11230630", "ADM_NM": "대치4동", "BASE_YEAR": 2024, "STAT_CODE": "to_in_001", "STAT_VAL": 174.0 }, "geometry": { "type": "MultiPolygon", "coordinates": [ [ [ [ 127.056502780178278, 37.501634324736486 ], [ 127.056497448758478, 37.502535664015035 ], [ 127.057628801904983, 37.502539906188467 ], [ 127.057634119725662, 37.501638566772591 ], [ 127.056502780178278, 37.501634324736486 ] ] ] ] } },
{ "type": "Feature", "properties": { "GRID_CD": "다사608449", "BASE_DATE": "20250630", "ADM_CD": "11230630", "ADM_NM": "대치4동", "BASE_YEAR": 2024, "STAT_CODE": "to_in_001", "STAT_VAL": 116.0 }, "geometry": { "type": "MultiPolygon", "coordinates": [ [ [ [ 127.056497448758478, 37.502535664015035 ], [ 127.056492117101214, 37.503437003155099 ], [ 127.057623483847422, 37.503441245465837 ], [ 127.057628801904983, 37.502539906188467 ], [ 127.056497448758478, 37.502535664015035 ] ] ] ] } },
{ "type": "Feature", "properties": { "GRID_CD": "다사608450", "BASE_DATE": "20250630", "ADM_CD": "11230630", "ADM_NM": "대치4동", "BASE_YEAR": 2024, "STAT_CODE": "to_in_001", "STAT_VAL": 862.0 }, "geometry": { "type": "MultiPolygon", "coordinates": [ [ [ [ 127.056492117101214, 37.503437003155099 ], [ 127.056486785206474, 37.504338342156622 ], [ 127.057618165552995, 37.504342584604657 ], [ 127.057623483847422, 37.503441245465837 ], [ 127.056492117101214, 37.503437003155099 ] ] ] ] } },
{ "type": "Feature", "properties": { "GRID_CD": "다사608451", "BASE_DATE": "20250630", "ADM_CD": "11230630", "ADM_NM": "대치4동", "BASE_YEAR": 2024, "STAT_CODE": "to_in_001", "STAT_VAL": 352.0 }, "geometry": { "type": "MultiPolygon", "coordinates": [ [ [ [ 127.056486785206474, 37.504338342156622 ], [ 127.056481453074198, 37.505239681019617 ], [ 127.057612847021645, 37.505243923604972 ], [ 127.057618165552995, 37.504342584604657 ], [ 127.056486785206474, 37.504338342156622 ] ] ] ] } },
{ "type": "Feature", "properties": { "GRID_CD": "다사608452", "BASE_DATE": "20250630", "ADM_CD": "11230630", "ADM_NM": "대치4동", "BASE_YEAR": 2024, "STAT_CODE": "to_in_001", "STAT_VAL": 13.0 }, "geometry": { "type": "MultiPolygon", "coordinates": [ [ [ [ 127.056481453074198, 37.505239681019617 ], [ 127.056476120704431, 37.506141019744071 ], [ 127.057607528253399, 37.506145262466767 ], [ 127.057612847021645, 37.505243923604972 ], [ 127.056481453074198, 37.505239681019617 ] ] ] ] } },
{ "type": "Feature", "properties": { "GRID_CD": "다사608453", "BASE_DATE": "20250630", "ADM_CD": "11230630", "ADM_NM": "대치4동", "BASE_YEAR": null, "STAT_CODE": null, "STAT_VAL": 0.0 }, "geometry": { "type": "MultiPolygon", "coordinates": [ [ [ [ 127.056476120704431, 37.506141019744071 ], [ 127.056470788097144, 37.507042358330018 ], [ 127.057602209248259, 37.507046601190027 ], [ 127.057607528253399, 37.506145262466767 ], [ 127.056476120704431, 37.506141019744071 ] ] ] ] } },
{ "type": "Feature", "properties": { "GRID_CD": "다사609443", "BASE_DATE": "20250630", "ADM_CD": "11230630", "ADM_NM": "대치4동", "BASE_YEAR": 2024, "STAT_CODE": "to_in_001", "STAT_VAL": 58.0 }, "geometry": { "type": "MultiPolygon", "coordinates": [ [ [ [ 127.05766070527639, 37.497131867615437 ], [ 127.057655388639887, 37.498033207723914 ], [ 127.058786674033726, 37.498037438377793 ], [ 127.058791977074122, 37.497136098132387 ], [ 127.05766070527639, 37.497131867615437 ] ] ] ] } },
{ "type": "Feature", "properties": { "GRID_CD": "다사609444", "BASE_DATE": "20250630", "ADM_CD": "11230630", "ADM_NM": "대치4동", "BASE_YEAR": 2024, "STAT_CODE": "to_in_001", "STAT_VAL": 28.0 }, "geometry": { "type": "MultiPolygon", "coordinates": [ [ [ [ 127.057655388639887, 37.498033207723914 ], [ 127.057650071766574, 37.498934547693864 ], [ 127.058781370757103, 37.498938778484693 ], [ 127.058786674033726, 37.498037438377793 ], [ 127.057655388639887, 37.498033207723914 ] ] ] ] } },
{ "type": "Feature", "properties": { "GRID_CD": "다사609445", "BASE_DATE": "20250630", "ADM_CD": "11230630", "ADM_NM": "대치4동", "BASE_YEAR": 2024, "STAT_CODE": "to_in_001", "STAT_VAL": 202.0 }, "geometry": { "type": "MultiPolygon", "coordinates": [ [ [ [ 127.057650071766574, 37.498934547693864 ], [ 127.057644754656451, 37.499835887525279 ], [ 127.058776067244281, 37.499840118453058 ], [ 127.058781370757103, 37.498938778484693 ], [ 127.057650071766574, 37.498934547693864 ] ] ] ] } },
{ "type": "Feature", "properties": { "GRID_CD": "다사609446", "BASE_DATE": "20250630", "ADM_CD": "11230630", "ADM_NM": "대치4동", "BASE_YEAR": 2024, "STAT_CODE": "to_in_001", "STAT_VAL": 429.0 }, "geometry": { "type": "MultiPolygon", "coordinates": [ [ [ [ 127.057644754656451, 37.499835887525279 ], [ 127.05763943730949, 37.500737227218195 ], [ 127.058770763495204, 37.500741458282931 ], [ 127.058776067244281, 37.499840118453058 ], [ 127.057644754656451, 37.499835887525279 ] ] ] ] } },
{ "type": "Feature", "properties": { "GRID_CD": "다사609447", "BASE_DATE": "20250630", "ADM_CD": "11230630", "ADM_NM": "대치4동", "BASE_YEAR": 2024, "STAT_CODE": "to_in_001", "STAT_VAL": 516.0 }, "geometry": { "type": "MultiPolygon", "coordinates": [ [ [ [ 127.05763943730949, 37.500737227218195 ], [ 127.057634119725662, 37.501638566772591 ], [ 127.058765459509885, 37.501642797974277 ], [ 127.058770763495204, 37.500741458282931 ], [ 127.05763943730949, 37.500737227218195 ] ] ] ] } },
{ "type": "Feature", "properties": { "GRID_CD": "다사609448", "BASE_DATE": "20250630", "ADM_CD": "11230630", "ADM_NM": "대치4동", "BASE_YEAR": 2024, "STAT_CODE": "to_in_001", "STAT_VAL": 193.0 }, "geometry": { "type": "MultiPolygon", "coordinates": [ [ [ [ 127.057634119725662, 37.501638566772591 ], [ 127.057628801904983, 37.502539906188467 ], [ 127.05876015528834, 37.502544137527103 ], [ 127.058765459509885, 37.501642797974277 ], [ 127.057634119725662, 37.501638566772591 ] ] ] ] } },
{ "type": "Feature", "properties": { "GRID_CD": "다사609449", "BASE_DATE": "20250630", "ADM_CD": "11230630", "ADM_NM": "대치4동", "BASE_YEAR": 2024, "STAT_CODE": "to_in_001", "STAT_VAL": 58.0 }, "geometry": { "type": "MultiPolygon", "coordinates": [ [ [ [ 127.057628801904983, 37.502539906188467 ], [ 127.057623483847422, 37.503441245465837 ], [ 127.05875485083051, 37.503445476941422 ], [ 127.05876015528834, 37.502544137527103 ], [ 127.057628801904983, 37.502539906188467 ] ] ] ] } },
{ "type": "Feature", "properties": { "GRID_CD": "다사609450", "BASE_DATE": "20250630", "ADM_CD": "11230630", "ADM_NM": "대치4동", "BASE_YEAR": 2024, "STAT_CODE": "to_in_001", "STAT_VAL": 33.0 }, "geometry": { "type": "MultiPolygon", "coordinates": [ [ [ [ 127.057623483847422, 37.503441245465837 ], [ 127.057618165552995, 37.504342584604657 ], [ 127.058749546136397, 37.504346816217236 ], [ 127.05875485083051, 37.503445476941422 ], [ 127.057623483847422, 37.503441245465837 ] ] ] ] } },
{ "type": "Feature", "properties": { "GRID_CD": "다사609451", "BASE_DATE": "20250630", "ADM_CD": "11230630", "ADM_NM": "대치4동", "BASE_YEAR": 2024, "STAT_CODE": "to_in_001", "STAT_VAL": 214.0 }, "geometry": { "type": "MultiPolygon", "coordinates": [ [ [ [ 127.057618165552995, 37.504342584604657 ], [ 127.057612847021645, 37.505243923604972 ], [ 127.058744241206, 37.505248155354508 ], [ 127.058749546136397, 37.504346816217236 ], [ 127.057618165552995, 37.504342584604657 ] ] ] ] } },
{ "type": "Feature", "properties": { "GRID_CD": "다사610444", "BASE_DATE": "20250630", "ADM_CD": "11230630", "ADM_NM": "대치4동", "BASE_YEAR": 2024, "STAT_CODE": "to_in_001", "STAT_VAL": 28.0 }, "geometry": { "type": "MultiPolygon", "coordinates": [ [ [ [ 127.058786674033726, 37.498037438377793 ], [ 127.058781370757103, 37.498938778484693 ], [ 127.059912669983859, 37.498942998442132 ], [ 127.059917959663764, 37.498041658198645 ], [ 127.058786674033726, 37.498037438377793 ] ] ] ] } },
{ "type": "Feature", "properties": { "GRID_CD": "다사610445", "BASE_DATE": "20250630", "ADM_CD": "11230630", "ADM_NM": "대치4동", "BASE_YEAR": 2024, "STAT_CODE": "to_in_001", "STAT_VAL": 356.0 }, "geometry": { "type": "MultiPolygon", "coordinates": [ [ [ [ 127.058781370757103, 37.498938778484693 ], [ 127.058776067244281, 37.499840118453058 ], [ 127.059907380068324, 37.499844338547106 ], [ 127.059912669983859, 37.498942998442132 ], [ 127.058781370757103, 37.498938778484693 ] ] ] ] } },
{ "type": "Feature", "properties": { "GRID_CD": "다사610446", "BASE_DATE": "20250630", "ADM_CD": "11230630", "ADM_NM": "대치4동", "BASE_YEAR": 2024, "STAT_CODE": "to_in_001", "STAT_VAL": 318.0 }, "geometry": { "type": "MultiPolygon", "coordinates": [ [ [ [ 127.058776067244281, 37.499840118453058 ], [ 127.058770763495204, 37.500741458282931 ], [ 127.059902089917188, 37.500745678513574 ], [ 127.059907380068324, 37.499844338547106 ], [ 127.058776067244281, 37.499840118453058 ] ] ] ] } },
{ "type": "Feature", "properties": { "GRID_CD": "다사610447", "BASE_DATE": "20250630", "ADM_CD": "11230630", "ADM_NM": "대치4동", "BASE_YEAR": 2024, "STAT_CODE": "to_in_001", "STAT_VAL": 127.0 }, "geometry": { "type": "MultiPolygon", "coordinates": [ [ [ [ 127.058770763495204, 37.500741458282931 ], [ 127.058765459509885, 37.501642797974277 ], [ 127.059896799530392, 37.501647018341522 ], [ 127.059902089917188, 37.500745678513574 ], [ 127.058770763495204, 37.500741458282931 ] ] ] ] } },
{ "type": "Feature", "properties": { "GRID_CD": "다사610448", "BASE_DATE": "20250630", "ADM_CD": "11230630", "ADM_NM": "대치4동", "BASE_YEAR": 2024, "STAT_CODE": "to_in_001", "STAT_VAL": 8.0 }, "geometry": { "type": "MultiPolygon", "coordinates": [ [ [ [ 127.058765459509885, 37.501642797974277 ], [ 127.05876015528834, 37.502544137527103 ], [ 127.059891508907967, 37.502548358030964 ], [ 127.059896799530392, 37.501647018341522 ], [ 127.058765459509885, 37.501642797974277 ] ] ] ] } },
{ "type": "Feature", "properties": { "GRID_CD": "다사611444", "BASE_DATE": "20250630", "ADM_CD": "11230630", "ADM_NM": "대치4동", "BASE_YEAR": null, "STAT_CODE": null, "STAT_VAL": 0.0 }, "geometry": { "type": "MultiPolygon", "coordinates": [ [ [ [ 127.059917959663764, 37.498041658198645 ], [ 127.059912669983859, 37.498942998442132 ], [ 127.061043969446203, 37.498947207566182 ], [ 127.061049245529389, 37.498045867186462 ], [ 127.059917959663764, 37.498041658198645 ] ] ] ] } },
{ "type": "Feature", "properties": { "GRID_CD": "다사611445", "BASE_DATE": "20250630", "ADM_CD": "11230630", "ADM_NM": "대치4동", "BASE_YEAR": 2024, "STAT_CODE": "to_in_001", "STAT_VAL": 28.0 }, "geometry": { "type": "MultiPolygon", "coordinates": [ [ [ [ 127.059912669983859, 37.498942998442132 ], [ 127.059907380068324, 37.499844338547106 ], [ 127.061038693128026, 37.499848547807417 ], [ 127.061043969446203, 37.498947207566182 ], [ 127.059912669983859, 37.498942998442132 ] ] ] ] } },
{ "type": "Feature", "properties": { "GRID_CD": "다사611446", "BASE_DATE": "20250630", "ADM_CD": "11230630", "ADM_NM": "대치4동", "BASE_YEAR": 2024, "STAT_CODE": "to_in_001", "STAT_VAL": 175.0 }, "geometry": { "type": "MultiPolygon", "coordinates": [ [ [ [ 127.059907380068324, 37.499844338547106 ], [ 127.059902089917188, 37.500745678513574 ], [ 127.061033416574801, 37.500749887910118 ], [ 127.061038693128026, 37.499848547807417 ], [ 127.059907380068324, 37.499844338547106 ] ] ] ] } }
]
}
