{
"type": "FeatureCollection",
"name": "daechi4_boundary",
"crs": { "type": "name", "properties": { "name": "urn:ogc:def:crs:OGC:1.3:CRS84" } },
"features": [
{ "type": "Feature", "properties": { "BASE_DATE": "20250630", "ADM_CD": "11230630", "ADM_NM": "대치4동" }, "geometry": { "type": "MultiPolygon", "coordinates": [ [ [ [ 127.052861164141817, 37.496314788147139 ], [ 127.052859601457129, 37.496314282878885 ], [ 127.052806886011282, 37.496425814126958 ], [ 127.052776849883898, 37.496489257120999 ], [ 127.052619621537957, 37.496822232594383 ], [ 127.052535917330189, 37.496999496101722 ], [ 127.052514017504535, 37.497045983711878 ], [ 127.052481373855301, 37.497115010585262 ], [ 127.052395740641302, 37.497296357046402 ], [ 127.052256745417054, 37.497590692167748 ], [ 127.051911434136457, 37.498321914361696 ], [ 127.05175738011512, 37.498648128689325 ], [ 127.051695281014702, 37.498779623150476 ], [ 127.051575497032459, 37.499033267199884 ], [ 127.051408222755271, 37.499387465826381 ], [ 127.051263897206482, 37.499693070743668 ], [ 127.051159417836985, 37.499914303689955 ], [ 127.051118994092064, 37.499999897317146 ], [ 127.050882095387593, 37.50050150926225 ], [ 127.05085724372455, 37.500554098328749 ], [ 127.050548346711281, 37.501208185525755 ], [ 127.050538715413566, 37.50122857728639 ], [ 127.050502573602543, 37.501305105777689 ], [ 127.050480587100523, 37.501351662045195 ], [ 127.050287175429631, 37.501761183126021 ], [ 127.050033111992079, 37.502299113003261 ], [ 127.050032551557635, 37.502300311478749 ], [ 127.050031407975126, 37.502302722764917 ], [ 127.049842156881141, 37.502703421963012 ], [ 127.049722980212934, 37.502955750262643 ], [ 127.04952671704406, 37.503371289186724 ], [ 127.049356718681764, 37.503731216765651 ], [ 127.049291200631657, 37.503869931090151 ], [ 127.049203703426272, 37.504055177971459 ], [ 127.048987598958547, 37.504512600235827 ], [ 127.048986061026724, 37.504515855479589 ], [ 127.049117954610594, 37.504556348667485 ], [ 127.050550823876407, 37.504995809814467 ], [ 127.05080269924386, 37.505073084132725 ], [ 127.051886426900936, 37.505405561646377 ], [ 127.051889193809828, 37.50540641040633 ], [ 127.051891611861024, 37.505407133455364 ], [ 127.052813222817505, 37.505689877742185 ], [ 127.052934165062979, 37.505726936104047 ], [ 127.053297656985805, 37.505838437451686 ], [ 127.053390268254248, 37.505866841523492 ], [ 127.053777205052128, 37.505985518319989 ], [ 127.053800183185899, 37.505992565410786 ], [ 127.054199404346249, 37.506115008035714 ], [ 127.055021023250433, 37.506366992725745 ], [ 127.055024549244195, 37.506368062400618 ], [ 127.055026979610119, 37.506368817880784 ], [ 127.055075665083834, 37.50638372406106 ], [ 127.056036075896742, 37.50667828358285 ], [ 127.056411478468817, 37.506551956995118 ], [ 127.056536420784312, 37.506509912644439 ], [ 127.056972267366817, 37.505696469272678 ], [ 127.056995349270125, 37.505653442047212 ], [ 127.057038449346123, 37.505573090707493 ], [ 127.057093452918224, 37.505470350965609 ], [ 127.057149160294216, 37.505403201283201 ], [ 127.057167246065902, 37.505381365165135 ], [ 127.057232550069003, 37.505302520232924 ], [ 127.057335563735009, 37.505110302153767 ], [ 127.057336682583284, 37.505108215194014 ], [ 127.057358822826131, 37.505066900550723 ], [ 127.057528028404732, 37.50475116562076 ], [ 127.057528855520289, 37.50474962288839 ], [ 127.05773979961819, 37.504356000703638 ], [ 127.057903064652749, 37.504051345889401 ], [ 127.0580911062941, 37.503700368936542 ], [ 127.058372196486005, 37.503175712347414 ], [ 127.058450846454747, 37.503029061375571 ], [ 127.058523866772973, 37.502892906367002 ], [ 127.058627538077687, 37.502699501531758 ], [ 127.058742101377121, 37.502485589897915 ], [ 127.058772078498706, 37.502429619295242 ], [ 127.058988036096451, 37.502026381492648 ], [ 127.059066226103724, 37.501880385450107 ], [ 127.059351533775029, 37.501347650571475 ], [ 127.05937944724873, 37.501295574990323 ], [ 127.059548710593447, 37.500979794771567 ], [ 127.059595342375502, 37.500892798147497 ], [ 127.059841570115537, 37.500433142733648 ], [ 127.060010432644674, 37.500117904724917 ], [ 127.060075842560849, 37.499995795962654 ], [ 127.060315575500766, 37.499548408934992 ], [ 127.060399643697508, 37.499391523754348 ], [ 127.060569539432421, 37.499074460765634 ], [ 127.06070301258562, 37.498825267876633 ], [ 127.060704019173912, 37.49882338597488 ], [ 127.060469475788878, 37.49874886703288 ], [ 127.059817570826965, 37.498541748077876 ], [ 127.059483611370567, 37.498435640797261 ], [ 127.058872302199774, 37.498241416839114 ], [ 127.058856269793793, 37.498236320170705 ], [ 127.058852835913584, 37.498235224814138 ], [ 127.058831388924787, 37.498228417872383 ], [ 127.058017354159048, 37.497969774589016 ], [ 127.058016389848433, 37.497969464518739 ], [ 127.058015443585219, 37.497969163529582 ], [ 127.05800059694576, 37.497964444344568 ], [ 127.057996771220388, 37.497963231221597 ], [ 127.057993713387162, 37.497962255325263 ], [ 127.057993234609839, 37.497962103006756 ], [ 127.057391483912795, 37.497770904175717 ], [ 127.056928659758512, 37.497623844739245 ], [ 127.056716766769242, 37.497555667753396 ], [ 127.056302457704206, 37.497422376806519 ], [ 127.056301913453154, 37.497422201701248 ], [ 127.056294723044999, 37.497419883437367 ], [ 127.056294205875275, 37.497419720151456 ], [ 127.056293948424369, 37.497419638062063 ], [ 127.056292128215546, 37.497419055256351 ], [ 127.055997514900156, 37.497324269077119 ], [ 127.055651549929777, 37.497212959982136 ], [ 127.055198836966781, 37.49706730547701 ], [ 127.054682497876172, 37.49690116937051 ], [ 127.054668128494399, 37.496896546208802 ], [ 127.054664043296967, 37.496895229244785 ], [ 127.054656453250033, 37.496892786789743 ], [ 127.053857838783003, 37.496635831493748 ], [ 127.053827544294663, 37.496626083344367 ], [ 127.053073194804213, 37.496383361953065 ], [ 127.052861164141817, 37.496314788147139 ] ] ] ] } }
]
}
