{
"type": "FeatureCollection",
"name": "daechi4_walk_5min",
"crs": { "type": "name", "properties": { "name": "urn:ogc:def:crs:OGC:1.3:CRS84" } },
"features": [
{ "type": "Feature", "properties": { "ID": null, "CENTER_LON": "127.05439519597158", "CENTER_LAT": "37.49964833536379", "AA_MINS": 5, "AA_MODE": "foot-walking", "TOTAL_POP": "8244" }, "geometry": { "type": "MultiPolygon", "coordinates": [ [ [ [ 127.051803, 37.501821 ], [ 127.052005, 37.50213 ], [ 127.052675, 37.502652 ], [ 127.05332, 37.503031 ], [ 127.053646, 37.503185 ], [ 127.053828, 37.503208 ], [ 127.055583, 37.503063 ], [ 127.057992, 37.501667 ], [ 127.058703, 37.501253 ], [ 127.058815, 37.500911 ], [ 127.057015, 37.497452 ], [ 127.056738, 37.496989 ], [ 127.056418, 37.496825 ], [ 127.054699, 37.496505 ], [ 127.05442, 37.496571 ], [ 127.052152, 37.497342 ], [ 127.050074, 37.498069 ], [ 127.049963, 37.498412 ], [ 127.050885, 37.50013 ], [ 127.051803, 37.501821 ] ] ] ] } }
]
}
