{
"type": "FeatureCollection",
"name": "daechi4_walk_10min",
"crs": { "type": "name", "properties": { "name": "urn:ogc:def:crs:OGC:1.3:CRS84" } },
"features": [
{ "type": "Feature", "properties": { "ID": null, "CENTER_LON": "127.05439519597158", "CENTER_LAT": "37.49964833536379", "AA_MINS": 10, "AA_MODE": "foot-walking", "TOTAL_POP": "39566" }, "geometry": { "type": "MultiPolygon", "coordinates": [ [ [ [ 127.049428, 37.504096 ], [ 127.04987, 37.504838 ], [ 127.050821, 37.505129 ], [ 127.054332, 37.506202 ], [ 127.055386, 37.506179 ], [ 127.057223, 37.505591 ], [ 127.057351, 37.505534 ], [ 127.060711, 37.504039 ], [ 127.0608, 37.503986 ], [ 127.061706, 37.502303 ], [ 127.062359, 37.500463 ], [ 127.062467, 37.500119 ], [ 127.060706, 37.496474 ], [ 127.059504, 37.495743 ], [ 127.056017, 37.494285 ], [ 127.053859, 37.493836 ], [ 127.05187, 37.493952 ], [ 127.046608, 37.496376 ], [ 127.045695, 37.496667 ], [ 127.045583, 37.497009 ], [ 127.046884, 37.499427 ], [ 127.048719, 37.502839 ], [ 127.049428, 37.504096 ] ] ] ] } }
]
}
