{
"type": "FeatureCollection",
"name": "daechi4_school_age",
"crs": { "type": "name", "properties": { "name": "urn:ogc:def:crs:OGC:1.3:CRS84" } },
"features": [
{ "type": "Feature", "properties": { "GRID_CD_x": "다사601449", "SCH_POP": 0.95652049870189104 }, "geometry": { "type": "MultiPolygon", "coordinates": [ [ [ [ 127.048577983416365, 37.502505665427904 ], [ 127.048572556561439, 37.503407003596962 ], [ 127.049703921632485, 37.50341132175339 ], [ 127.04970933488778, 37.502509983444575 ], [ 127.048577983416365, 37.502505665427904 ] ] ] ] } },
{ "type": "Feature", "properties": { "GRID_CD_x": "다사601450", "SCH_POP": 3.349382819716181 }, "geometry": { "type": "MultiPolygon", "coordinates": [ [ [ [ 127.048572556561439, 37.503407003596962 ], [ 127.048567129464757, 37.504308341627443 ], [ 127.049698508136061, 37.504312659923649 ], [ 127.049703921632485, 37.50341132175339 ], [ 127.048572556561439, 37.503407003596962 ] ] ] ] } },
{ "type": "Feature", "properties": { "GRID_CD_x": "다사601451", "SCH_POP": 0.0 }, "geometry": { "type": "MultiPolygon", "coordinates": [ [ [ [ 127.048567129464757, 37.504308341627443 ], [ 127.048561702126349, 37.505209679519396 ], [ 127.049693094398492, 37.505213997955373 ], [ 127.049698508136061, 37.504312659923649 ], [ 127.048567129464757, 37.504308341627443 ] ] ] ] } },
{ "type": "Feature", "properties": { "GRID_CD_x": "다사602446", "SCH_POP": 96.991178568371794 }, "geometry": { "type": "MultiPolygon", "coordinates": [ [ [ [ 127.049725573207084, 37.499805967686889 ], [ 127.049720160675079, 37.500707306411321 ], [ 127.050851485190151, 37.500711613314444 ], [ 127.050856884124315, 37.49981027445061 ], [ 127.049725573207084, 37.499805967686889 ] ] ] ] } },
{ "type": "Feature", "properties": { "GRID_CD_x": "다사602447", "SCH_POP": 100.4346523636986 }, "geometry": { "type": "MultiPolygon", "coordinates": [ [ [ [ 127.049720160675079, 37.500707306411321 ], [ 127.049714747901987, 37.501608644997226 ], [ 127.050846086015483, 37.50161295203975 ], [ 127.050851485190151, 37.500711613314444 ], [ 127.049720160675079, 37.500707306411321 ] ] ] ] } },
{ "type": "Feature", "properties": { "GRID_CD_x": "다사602448", "SCH_POP": 14.921719779749507 }, "geometry": { "type": "MultiPolygon", "coordinates": [ [ [ [ 127.049714747901987, 37.501608644997226 ], [ 127.04970933488778, 37.502509983444575 ], [ 127.050840686600338, 37.502514290626522 ], [ 127.050846086015483, 37.50161295203975 ], [ 127.049714747901987, 37.501608644997226 ] ] ] ] } },
{ "type": "Feature", "properties": { "GRID_CD_x": "다사602449", "SCH_POP": 12.434766483124587 }, "geometry": { "type": "MultiPolygon", "coordinates": [ [ [ [ 127.04970933488778, 37.502509983444575 ], [ 127.049703921632485, 37.50341132175339 ], [ 127.050835286944661, 37.503415629074745 ], [ 127.050840686600338, 37.502514290626522 ], [ 127.04970933488778, 37.502509983444575 ] ] ] ] } },
{ "type": "Feature", "properties": { "GRID_CD_x": "다사602450", "SCH_POP": 0.0 }, "geometry": { "type": "MultiPolygon", "coordinates": [ [ [ [ 127.049703921632485, 37.50341132175339 ], [ 127.049698508136061, 37.504312659923649 ], [ 127.050829887048494, 37.504316967384433 ], [ 127.050835286944661, 37.503415629074745 ], [ 127.049703921632485, 37.50341132175339 ] ] ] ] } },
{ "type": "Feature", "properties": { "GRID_CD_x": "다사602451", "SCH_POP": 0.315979511293979 }, "geometry": { "type": "MultiPolygon", "coordinates": [ [ [ [ 127.049698508136061, 37.504312659923649 ], [ 127.049693094398492, 37.505213997955373 ], [ 127.050824486911793, 37.505218305555573 ], [ 127.050829887048494, 37.504316967384433 ], [ 127.049698508136061, 37.504312659923649 ] ] ] ] } },
{ "type": "Feature", "properties": { "GRID_CD_x": "다사603444", "SCH_POP": 61.982528315882568 }, "geometry": { "type": "MultiPolygon", "coordinates": [ [ [ [ 127.050867681271285, 37.498007596307318 ], [ 127.050862282818031, 37.498908935448227 ], [ 127.051993580378493, 37.498913231239207 ], [ 127.051998965235114, 37.498011891959244 ], [ 127.050867681271285, 37.498007596307318 ] ] ] ] } },
{ "type": "Feature", "properties": { "GRID_CD_x": "다사603445", "SCH_POP": 53.947756126786679 }, "geometry": { "type": "MultiPolygon", "coordinates": [ [ [ [ 127.050862282818031, 37.498908935448227 ], [ 127.050856884124315, 37.49981027445061 ], [ 127.051988195282021, 37.499814570380636 ], [ 127.051993580378493, 37.498913231239207 ], [ 127.050862282818031, 37.498908935448227 ] ] ] ] } },
{ "type": "Feature", "properties": { "GRID_CD_x": "다사603446", "SCH_POP": 13.965199281047616 }, "geometry": { "type": "MultiPolygon", "coordinates": [ [ [ [ 127.050856884124315, 37.49981027445061 ], [ 127.050851485190151, 37.500711613314444 ], [ 127.051982809945684, 37.500715909383544 ], [ 127.051988195282021, 37.499814570380636 ], [ 127.050856884124315, 37.49981027445061 ] ] ] ] } },
{ "type": "Feature", "properties": { "GRID_CD_x": "다사603447", "SCH_POP": 65.617306210949749 }, "geometry": { "type": "MultiPolygon", "coordinates": [ [ [ [ 127.050851485190151, 37.500711613314444 ], [ 127.050846086015483, 37.50161295203975 ], [ 127.051977424369468, 37.501617248247889 ], [ 127.051982809945684, 37.500715909383544 ], [ 127.050851485190151, 37.500711613314444 ] ] ] ] } },
{ "type": "Feature", "properties": { "GRID_CD_x": "다사603448", "SCH_POP": 69.443388205757316 }, "geometry": { "type": "MultiPolygon", "coordinates": [ [ [ [ 127.050846086015483, 37.50161295203975 ], [ 127.050840686600338, 37.502514290626522 ], [ 127.051972038553387, 37.502518586973729 ], [ 127.051977424369468, 37.501617248247889 ], [ 127.050846086015483, 37.50161295203975 ] ] ] ] } },
{ "type": "Feature", "properties": { "GRID_CD_x": "다사603449", "SCH_POP": 22.191275569883882 }, "geometry": { "type": "MultiPolygon", "coordinates": [ [ [ [ 127.050840686600338, 37.502514290626522 ], [ 127.050835286944661, 37.503415629074745 ], [ 127.051966652497356, 37.503419925561019 ], [ 127.051972038553387, 37.502518586973729 ], [ 127.050840686600338, 37.502514290626522 ] ] ] ] } },
{ "type": "Feature", "properties": { "GRID_CD_x": "다사603450", "SCH_POP": 13.271139474347134 }, "geometry": { "type": "MultiPolygon", "coordinates": [ [ [ [ 127.050835286944661, 37.503415629074745 ], [ 127.050829887048494, 37.504316967384433 ], [ 127.051961266201445, 37.504321264009775 ], [ 127.051966652497356, 37.503419925561019 ], [ 127.050835286944661, 37.503415629074745 ] ] ] ] } },
{ "type": "Feature", "properties": { "GRID_CD_x": "다사603451", "SCH_POP": 11.880829624653623 }, "geometry": { "type": "MultiPolygon", "coordinates": [ [ [ [ 127.050829887048494, 37.504316967384433 ], [ 127.050824486911793, 37.505218305555573 ], [ 127.051955879665613, 37.505222602319989 ], [ 127.051961266201445, 37.504321264009775 ], [ 127.050829887048494, 37.504316967384433 ] ] ] ] } },
{ "type": "Feature", "properties": { "GRID_CD_x": "다사603452", "SCH_POP": 24.835989587706777 }, "geometry": { "type": "MultiPolygon", "coordinates": [ [ [ [ 127.050824486911793, 37.505218305555573 ], [ 127.050819086534545, 37.506119643588178 ], [ 127.05195049288983, 37.506123940491662 ], [ 127.051955879665613, 37.505222602319989 ], [ 127.050824486911793, 37.505218305555573 ] ] ] ] } },
{ "type": "Feature", "properties": { "GRID_CD_x": "다사604442", "SCH_POP": 2.4869532966249182 }, "geometry": { "type": "MultiPolygon", "coordinates": [ [ [ [ 127.052009734228818, 37.496209212983722 ], [ 127.05200434985187, 37.497110552540754 ], [ 127.053135620459543, 37.497114837220984 ], [ 127.053140991241051, 37.496213497525275 ], [ 127.052009734228818, 37.496209212983722 ] ] ] ] } },
{ "type": "Feature", "properties": { "GRID_CD_x": "다사604443", "SCH_POP": 2.4869532966249182 }, "geometry": { "type": "MultiPolygon", "coordinates": [ [ [ [ 127.05200434985187, 37.497110552540754 ], [ 127.051998965235114, 37.498011891959244 ], [ 127.053130249438809, 37.498016176778187 ], [ 127.053135620459543, 37.497114837220984 ], [ 127.05200434985187, 37.497110552540754 ] ] ] ] } },
{ "type": "Feature", "properties": { "GRID_CD_x": "다사604444", "SCH_POP": 48.973849533536843 }, "geometry": { "type": "MultiPolygon", "coordinates": [ [ [ [ 127.051998965235114, 37.498011891959244 ], [ 127.051993580378493, 37.498913231239207 ], [ 127.053124878178835, 37.498917516196848 ], [ 127.053130249438809, 37.498016176778187 ], [ 127.051998965235114, 37.498011891959244 ] ] ] ] } },
{ "type": "Feature", "properties": { "GRID_CD_x": "다사604445", "SCH_POP": 87.425973581352878 }, "geometry": { "type": "MultiPolygon", "coordinates": [ [ [ [ 127.051993580378493, 37.498913231239207 ], [ 127.051988195282021, 37.499814570380636 ], [ 127.053119506679622, 37.499818855476974 ], [ 127.053124878178835, 37.498917516196848 ], [ 127.051993580378493, 37.498913231239207 ] ] ] ] } },
{ "type": "Feature", "properties": { "GRID_CD_x": "다사604446", "SCH_POP": 45.147767538729283 }, "geometry": { "type": "MultiPolygon", "coordinates": [ [ [ [ 127.051988195282021, 37.499814570380636 ], [ 127.051982809945684, 37.500715909383544 ], [ 127.053114134941126, 37.50072019461858 ], [ 127.053119506679622, 37.499818855476974 ], [ 127.051988195282021, 37.499814570380636 ] ] ] ] } },
{ "type": "Feature", "properties": { "GRID_CD_x": "다사604447", "SCH_POP": 10.330421385980427 }, "geometry": { "type": "MultiPolygon", "coordinates": [ [ [ [ 127.051982809945684, 37.500715909383544 ], [ 127.051977424369468, 37.501617248247889 ], [ 127.053108762963348, 37.501621533621645 ], [ 127.053114134941126, 37.50072019461858 ], [ 127.051982809945684, 37.500715909383544 ] ] ] ] } },
{ "type": "Feature", "properties": { "GRID_CD_x": "다사604448", "SCH_POP": 47.826024935094573 }, "geometry": { "type": "MultiPolygon", "coordinates": [ [ [ [ 127.051977424369468, 37.501617248247889 ], [ 127.051972038553387, 37.502518586973729 ], [ 127.05310339074633, 37.502522872486189 ], [ 127.053108762963348, 37.501621533621645 ], [ 127.051977424369468, 37.501617248247889 ] ] ] ] } },
{ "type": "Feature", "properties": { "GRID_CD_x": "다사604449", "SCH_POP": 80.34772189095888 }, "geometry": { "type": "MultiPolygon", "coordinates": [ [ [ [ 127.051972038553387, 37.502518586973729 ], [ 127.051966652497356, 37.503419925561019 ], [ 127.053098018289973, 37.503424211212199 ], [ 127.05310339074633, 37.502522872486189 ], [ 127.051972038553387, 37.502518586973729 ] ] ] ] } },
{ "type": "Feature", "properties": { "GRID_CD_x": "다사604450", "SCH_POP": 20.538668234108659 }, "geometry": { "type": "MultiPolygon", "coordinates": [ [ [ [ 127.051966652497356, 37.503419925561019 ], [ 127.051961266201445, 37.504321264009775 ], [ 127.053092645594333, 37.504325549799667 ], [ 127.053098018289973, 37.503424211212199 ], [ 127.051966652497356, 37.503419925561019 ] ] ] ] } },
{ "type": "Feature", "properties": { "GRID_CD_x": "다사604451", "SCH_POP": 0.50556721807036697 }, "geometry": { "type": "MultiPolygon", "coordinates": [ [ [ [ 127.051961266201445, 37.504321264009775 ], [ 127.051955879665613, 37.505222602319989 ], [ 127.053087272659369, 37.5052268882486 ], [ 127.053092645594333, 37.504325549799667 ], [ 127.051961266201445, 37.504321264009775 ] ] ] ] } },
{ "type": "Feature", "properties": { "GRID_CD_x": "다사604452", "SCH_POP": 3.6653623310101611 }, "geometry": { "type": "MultiPolygon", "coordinates": [ [ [ [ 127.051955879665613, 37.505222602319989 ], [ 127.05195049288983, 37.506123940491662 ], [ 127.053081899485093, 37.506128226559007 ], [ 127.053087272659369, 37.5052268882486 ], [ 127.051955879665613, 37.505222602319989 ] ] ] ] } },
{ "type": "Feature", "properties": { "GRID_CD_x": "다사605442", "SCH_POP": 0.0 }, "geometry": { "type": "MultiPolygon", "coordinates": [ [ [ [ 127.053140991241051, 37.496213497525275 ], [ 127.053135620459543, 37.497114837220984 ], [ 127.05426689130644, 37.497119111068592 ], [ 127.054272248492495, 37.496217771234534 ], [ 127.053140991241051, 37.496213497525275 ] ] ] ] } },
{ "type": "Feature", "properties": { "GRID_CD_x": "다사605443", "SCH_POP": 7.2695557901343761 }, "geometry": { "type": "MultiPolygon", "coordinates": [ [ [ [ 127.053135620459543, 37.497114837220984 ], [ 127.053130249438809, 37.498016176778187 ], [ 127.054261533881743, 37.498020450764137 ], [ 127.05426689130644, 37.497119111068592 ], [ 127.053135620459543, 37.497114837220984 ] ] ] ] } },
{ "type": "Feature", "properties": { "GRID_CD_x": "다사605444", "SCH_POP": 18.173889475335937 }, "geometry": { "type": "MultiPolygon", "coordinates": [ [ [ [ 127.053130249438809, 37.498016176778187 ], [ 127.053124878178835, 37.498917516196848 ], [ 127.054256176218402, 37.498921790321141 ], [ 127.054261533881743, 37.498020450764137 ], [ 127.053130249438809, 37.498016176778187 ] ] ] ] } },
{ "type": "Feature", "properties": { "GRID_CD_x": "다사605445", "SCH_POP": 39.408644546517927 }, "geometry": { "type": "MultiPolygon", "coordinates": [ [ [ [ 127.053124878178835, 37.498917516196848 ], [ 127.053119506679622, 37.499818855476974 ], [ 127.054250818316433, 37.499823129739617 ], [ 127.054256176218402, 37.498921790321141 ], [ 127.053124878178835, 37.498917516196848 ] ] ] ] } },
{ "type": "Feature", "properties": { "GRID_CD_x": "다사605446", "SCH_POP": 94.121617072266119 }, "geometry": { "type": "MultiPolygon", "coordinates": [ [ [ [ 127.053119506679622, 37.499818855476974 ], [ 127.053114134941126, 37.50072019461858 ], [ 127.054245460175807, 37.500724469019573 ], [ 127.054250818316433, 37.499823129739617 ], [ 127.053119506679622, 37.499818855476974 ] ] ] ] } },
{ "type": "Feature", "properties": { "GRID_CD_x": "다사605447", "SCH_POP": 34.052129753787334 }, "geometry": { "type": "MultiPolygon", "coordinates": [ [ [ [ 127.053114134941126, 37.50072019461858 ], [ 127.053108762963348, 37.501621533621645 ], [ 127.054240101796509, 37.501625808161002 ], [ 127.054245460175807, 37.500724469019573 ], [ 127.053114134941126, 37.50072019461858 ] ] ] ] } },
{ "type": "Feature", "properties": { "GRID_CD_x": "다사605448", "SCH_POP": 50.504282331459869 }, "geometry": { "type": "MultiPolygon", "coordinates": [ [ [ [ 127.053108762963348, 37.501621533621645 ], [ 127.05310339074633, 37.502522872486189 ], [ 127.05423474317854, 37.502527147163903 ], [ 127.054240101796509, 37.501625808161002 ], [ 127.053108762963348, 37.501621533621645 ] ] ] ] } },
{ "type": "Feature", "properties": { "GRID_CD_x": "다사605449", "SCH_POP": 72.695557901343747 }, "geometry": { "type": "MultiPolygon", "coordinates": [ [ [ [ 127.05310339074633, 37.502522872486189 ], [ 127.053098018289973, 37.503424211212199 ], [ 127.054229384321886, 37.50342848602827 ], [ 127.05423474317854, 37.502527147163903 ], [ 127.05310339074633, 37.502522872486189 ] ] ] ] } },
{ "type": "Feature", "properties": { "GRID_CD_x": "다사605450", "SCH_POP": 12.449592744982787 }, "geometry": { "type": "MultiPolygon", "coordinates": [ [ [ [ 127.053098018289973, 37.503424211212199 ], [ 127.053092645594333, 37.504325549799667 ], [ 127.054224025226532, 37.504329824754116 ], [ 127.054229384321886, 37.50342848602827 ], [ 127.053098018289973, 37.503424211212199 ] ] ] ] } },
{ "type": "Feature", "properties": { "GRID_CD_x": "다사605451", "SCH_POP": 28.754135527752123 }, "geometry": { "type": "MultiPolygon", "coordinates": [ [ [ [ 127.053092645594333, 37.504325549799667 ], [ 127.053087272659369, 37.5052268882486 ], [ 127.054218665892478, 37.505231163341421 ], [ 127.054224025226532, 37.504329824754116 ], [ 127.053092645594333, 37.504325549799667 ] ] ] ] } },
{ "type": "Feature", "properties": { "GRID_CD_x": "다사605452", "SCH_POP": 34.062591317490977 }, "geometry": { "type": "MultiPolygon", "coordinates": [ [ [ [ 127.053087272659369, 37.5052268882486 ], [ 127.053081899485093, 37.506128226559007 ], [ 127.054213306319681, 37.506132501790191 ], [ 127.054218665892478, 37.505231163341421 ], [ 127.053087272659369, 37.5052268882486 ] ] ] ] } },
{ "type": "Feature", "properties": { "GRID_CD_x": "다사606442", "SCH_POP": 44.956463438988898 }, "geometry": { "type": "MultiPolygon", "coordinates": [ [ [ [ 127.054272248492495, 37.496217771234534 ], [ 127.05426689130644, 37.497119111068592 ], [ 127.055398162391924, 37.497123374083536 ], [ 127.055403505982568, 37.49622203411149 ], [ 127.054272248492495, 37.496217771234534 ] ] ] ] } },
{ "type": "Feature", "properties": { "GRID_CD_x": "다사606443", "SCH_POP": 21.999971470143503 }, "geometry": { "type": "MultiPolygon", "coordinates": [ [ [ [ 127.05426689130644, 37.497119111068592 ], [ 127.054261533881743, 37.498020450764137 ], [ 127.055392818563291, 37.498024713917069 ], [ 127.055398162391924, 37.497123374083536 ], [ 127.05426689130644, 37.497119111068592 ] ] ] ] } },
{ "type": "Feature", "properties": { "GRID_CD_x": "다사606444", "SCH_POP": 29.652135459758636 }, "geometry": { "type": "MultiPolygon", "coordinates": [ [ [ [ 127.054261533881743, 37.498020450764137 ], [ 127.054256176218402, 37.498921790321141 ], [ 127.055387474496641, 37.498926053612074 ], [ 127.055392818563291, 37.498024713917069 ], [ 127.054261533881743, 37.498020450764137 ] ] ] ] } },
{ "type": "Feature", "properties": { "GRID_CD_x": "다사606445", "SCH_POP": 10.330421385980427 }, "geometry": { "type": "MultiPolygon", "coordinates": [ [ [ [ 127.054256176218402, 37.498921790321141 ], [ 127.054250818316433, 37.499823129739617 ], [ 127.05538213019193, 37.499827393168552 ], [ 127.055387474496641, 37.498926053612074 ], [ 127.054256176218402, 37.498921790321141 ] ] ] ] } },
{ "type": "Feature", "properties": { "GRID_CD_x": "다사606446", "SCH_POP": 111.53029014864055 }, "geometry": { "type": "MultiPolygon", "coordinates": [ [ [ [ 127.054250818316433, 37.499823129739617 ], [ 127.054245460175807, 37.500724469019573 ], [ 127.055376785649187, 37.500728732586516 ], [ 127.05538213019193, 37.499827393168552 ], [ 127.054250818316433, 37.499823129739617 ] ] ] ] } },
{ "type": "Feature", "properties": { "GRID_CD_x": "다사606447", "SCH_POP": 96.991178568371794 }, "geometry": { "type": "MultiPolygon", "coordinates": [ [ [ [ 127.054245460175807, 37.500724469019573 ], [ 127.054240101796509, 37.501625808161002 ], [ 127.05537144086837, 37.501630071865954 ], [ 127.055376785649187, 37.500728732586516 ], [ 127.054245460175807, 37.500724469019573 ] ] ] ] } },
{ "type": "Feature", "properties": { "GRID_CD_x": "다사606448", "SCH_POP": 43.61733474080625 }, "geometry": { "type": "MultiPolygon", "coordinates": [ [ [ [ 127.054240101796509, 37.501625808161002 ], [ 127.05423474317854, 37.502527147163903 ], [ 127.055366095849479, 37.502531411006856 ], [ 127.05537144086837, 37.501630071865954 ], [ 127.054240101796509, 37.501625808161002 ] ] ] ] } },
{ "type": "Feature", "properties": { "GRID_CD_x": "다사606449", "SCH_POP": 81.304242389660772 }, "geometry": { "type": "MultiPolygon", "coordinates": [ [ [ [ 127.05423474317854, 37.502527147163903 ], [ 127.054229384321886, 37.50342848602827 ], [ 127.055360750592513, 37.503432750009239 ], [ 127.055366095849479, 37.502531411006856 ], [ 127.05423474317854, 37.502527147163903 ] ] ] ] } },
{ "type": "Feature", "properties": { "GRID_CD_x": "다사606450", "SCH_POP": 15.293408346628601 }, "geometry": { "type": "MultiPolygon", "coordinates": [ [ [ [ 127.054229384321886, 37.50342848602827 ], [ 127.054224025226532, 37.504329824754116 ], [ 127.055355405097444, 37.504334088873094 ], [ 127.055360750592513, 37.503432750009239 ], [ 127.054229384321886, 37.50342848602827 ] ] ] ] } },
{ "type": "Feature", "properties": { "GRID_CD_x": "다사606451", "SCH_POP": 10.427323872701319 }, "geometry": { "type": "MultiPolygon", "coordinates": [ [ [ [ 127.054224025226532, 37.504329824754116 ], [ 127.054218665892478, 37.505231163341421 ], [ 127.055350059364287, 37.505235427598421 ], [ 127.055355405097444, 37.504334088873094 ], [ 127.054224025226532, 37.504329824754116 ] ] ] ] } },
{ "type": "Feature", "properties": { "GRID_CD_x": "다사606452", "SCH_POP": 7.5203123687967084 }, "geometry": { "type": "MultiPolygon", "coordinates": [ [ [ [ 127.054218665892478, 37.505231163341421 ], [ 127.054213306319681, 37.506132501790191 ], [ 127.055344713392998, 37.506136766185222 ], [ 127.055350059364287, 37.505235427598421 ], [ 127.054218665892478, 37.505231163341421 ] ] ] ] } },
{ "type": "Feature", "properties": { "GRID_CD_x": "다사606453", "SCH_POP": 0.315979511293979 }, "geometry": { "type": "MultiPolygon", "coordinates": [ [ [ [ 127.054213306319681, 37.506132501790191 ], [ 127.054207946508143, 37.507033840100441 ], [ 127.055339367183592, 37.50703810463348 ], [ 127.055344713392998, 37.506136766185222 ], [ 127.054213306319681, 37.506132501790191 ] ] ] ] } },
{ "type": "Feature", "properties": { "GRID_CD_x": "다사607443", "SCH_POP": 66.191218510170884 }, "geometry": { "type": "MultiPolygon", "coordinates": [ [ [ [ 127.055398162391924, 37.497123374083536 ], [ 127.055392818563291, 37.498024713917069 ], [ 127.056524103482886, 37.498028966237001 ], [ 127.056529433715454, 37.497127626265815 ], [ 127.055398162391924, 37.497123374083536 ] ] ] ] } },
{ "type": "Feature", "properties": { "GRID_CD_x": "다사607444", "SCH_POP": 105.7911671564292 }, "geometry": { "type": "MultiPolygon", "coordinates": [ [ [ [ 127.055392818563291, 37.498024713917069 ], [ 127.055387474496641, 37.498926053612074 ], [ 127.056518773012883, 37.498930306069653 ], [ 127.056524103482886, 37.498028966237001 ], [ 127.055392818563291, 37.498024713917069 ] ] ] ] } },
{ "type": "Feature", "properties": { "GRID_CD_x": "다사607445", "SCH_POP": 104.83464665772732 }, "geometry": { "type": "MultiPolygon", "coordinates": [ [ [ [ 127.055387474496641, 37.498926053612074 ], [ 127.05538213019193, 37.499827393168552 ], [ 127.056513442305473, 37.499831645763784 ], [ 127.056518773012883, 37.498930306069653 ], [ 127.055387474496641, 37.498926053612074 ] ] ] ] } },
{ "type": "Feature", "properties": { "GRID_CD_x": "다사607446", "SCH_POP": 109.04333685201563 }, "geometry": { "type": "MultiPolygon", "coordinates": [ [ [ [ 127.05538213019193, 37.499827393168552 ], [ 127.055376785649187, 37.500728732586516 ], [ 127.0565081113606, 37.500732985319388 ], [ 127.056513442305473, 37.499831645763784 ], [ 127.05538213019193, 37.499827393168552 ] ] ] ] } },
{ "type": "Feature", "properties": { "GRID_CD_x": "다사607447", "SCH_POP": 65.999914410430506 }, "geometry": { "type": "MultiPolygon", "coordinates": [ [ [ [ 127.055376785649187, 37.500728732586516 ], [ 127.05537144086837, 37.501630071865954 ], [ 127.056502780178278, 37.501634324736486 ], [ 127.0565081113606, 37.500732985319388 ], [ 127.055376785649187, 37.500728732586516 ] ] ] ] } },
{ "type": "Feature", "properties": { "GRID_CD_x": "다사607448", "SCH_POP": 18.747801774557072 }, "geometry": { "type": "MultiPolygon", "coordinates": [ [ [ [ 127.05537144086837, 37.501630071865954 ], [ 127.055366095849479, 37.502531411006856 ], [ 127.056497448758478, 37.502535664015035 ], [ 127.056502780178278, 37.501634324736486 ], [ 127.05537144086837, 37.501630071865954 ] ] ] ] } },
{ "type": "Feature", "properties": { "GRID_CD_x": "다사607449", "SCH_POP": 73.843382499786017 }, "geometry": { "type": "MultiPolygon", "coordinates": [ [ [ [ 127.055366095849479, 37.502531411006856 ], [ 127.055360750592513, 37.503432750009239 ], [ 127.056492117101214, 37.503437003155099 ], [ 127.056497448758478, 37.502535664015035 ], [ 127.055366095849479, 37.502531411006856 ] ] ] ] } },
{ "type": "Feature", "properties": { "GRID_CD_x": "다사607450", "SCH_POP": 11.817633722394827 }, "geometry": { "type": "MultiPolygon", "coordinates": [ [ [ [ 127.055360750592513, 37.503432750009239 ], [ 127.055355405097444, 37.504334088873094 ], [ 127.056486785206474, 37.504338342156622 ], [ 127.056492117101214, 37.503437003155099 ], [ 127.055360750592513, 37.503432750009239 ] ] ] ] } },
{ "type": "Feature", "properties": { "GRID_CD_x": "다사607451", "SCH_POP": 5.6244353010328343 }, "geometry": { "type": "MultiPolygon", "coordinates": [ [ [ [ 127.055355405097444, 37.504334088873094 ], [ 127.055350059364287, 37.505235427598421 ], [ 127.056481453074198, 37.505239681019617 ], [ 127.056486785206474, 37.504338342156622 ], [ 127.055355405097444, 37.504334088873094 ] ] ] ] } },
{ "type": "Feature", "properties": { "GRID_CD_x": "다사607452", "SCH_POP": 0.50556721807036697 }, "geometry": { "type": "MultiPolygon", "coordinates": [ [ [ [ 127.055350059364287, 37.505235427598421 ], [ 127.055344713392998, 37.506136766185222 ], [ 127.056476120704431, 37.506141019744071 ], [ 127.056481453074198, 37.505239681019617 ], [ 127.055350059364287, 37.505235427598421 ] ] ] ] } },
{ "type": "Feature", "properties": { "GRID_CD_x": "다사607453", "SCH_POP": 0.315979511293979 }, "geometry": { "type": "MultiPolygon", "coordinates": [ [ [ [ 127.055344713392998, 37.506136766185222 ], [ 127.055339367183592, 37.50703810463348 ], [ 127.056470788097144, 37.507042358330018 ], [ 127.056476120704431, 37.506141019744071 ], [ 127.055344713392998, 37.506136766185222 ] ] ] ] } },
{ "type": "Feature", "properties": { "GRID_CD_x": "다사608443", "SCH_POP": 14.921719779749507 }, "geometry": { "type": "MultiPolygon", "coordinates": [ [ [ [ 127.056529433715454, 37.497127626265815 ], [ 127.056524103482886, 37.498028966237001 ], [ 127.057655388639887, 37.498033207723914 ], [ 127.05766070527639, 37.497131867615437 ], [ 127.056529433715454, 37.497127626265815 ] ] ] ] } },
{ "type": "Feature", "properties": { "GRID_CD_x": "다사608444", "SCH_POP": 72.695557901343747 }, "geometry": { "type": "MultiPolygon", "coordinates": [ [ [ [ 127.056524103482886, 37.498028966237001 ], [ 127.056518773012883, 37.498930306069653 ], [ 127.057650071766574, 37.498934547693864 ], [ 127.057655388639887, 37.498033207723914 ], [ 127.056524103482886, 37.498028966237001 ] ] ] ] } },
{ "type": "Feature", "properties": { "GRID_CD_x": "다사608445", "SCH_POP": 109.23464095175601 }, "geometry": { "type": "MultiPolygon", "coordinates": [ [ [ [ 127.056518773012883, 37.498930306069653 ], [ 127.056513442305473, 37.499831645763784 ], [ 127.057644754656451, 37.499835887525279 ], [ 127.057650071766574, 37.498934547693864 ], [ 127.056518773012883, 37.498930306069653 ] ] ] ] } },
{ "type": "Feature", "properties": { "GRID_CD_x": "다사608446", "SCH_POP": 119.56506233773644 }, "geometry": { "type": "MultiPolygon", "coordinates": [ [ [ [ 127.056513442305473, 37.499831645763784 ], [ 127.0565081113606, 37.500732985319388 ], [ 127.05763943730949, 37.500737227218195 ], [ 127.057644754656451, 37.499835887525279 ], [ 127.056513442305473, 37.499831645763784 ] ] ] ] } },
{ "type": "Feature", "properties": { "GRID_CD_x": "다사608447", "SCH_POP": 94.504225271746876 }, "geometry": { "type": "MultiPolygon", "coordinates": [ [ [ [ 127.0565081113606, 37.500732985319388 ], [ 127.056502780178278, 37.501634324736486 ], [ 127.057634119725662, 37.501638566772591 ], [ 127.05763943730949, 37.500737227218195 ], [ 127.0565081113606, 37.500732985319388 ] ] ] ] } },
{ "type": "Feature", "properties": { "GRID_CD_x": "다사608448", "SCH_POP": 33.28691335482582 }, "geometry": { "type": "MultiPolygon", "coordinates": [ [ [ [ 127.056502780178278, 37.501634324736486 ], [ 127.056497448758478, 37.502535664015035 ], [ 127.057628801904983, 37.502539906188467 ], [ 127.057634119725662, 37.501638566772591 ], [ 127.056502780178278, 37.501634324736486 ] ] ] ] } },
{ "type": "Feature", "properties": { "GRID_CD_x": "다사608449", "SCH_POP": 22.191275569883882 }, "geometry": { "type": "MultiPolygon", "coordinates": [ [ [ [ 127.056497448758478, 37.502535664015035 ], [ 127.056492117101214, 37.503437003155099 ], [ 127.057623483847422, 37.503441245465837 ], [ 127.057628801904983, 37.502539906188467 ], [ 127.056497448758478, 37.502535664015035 ] ] ] ] } },
{ "type": "Feature", "properties": { "GRID_CD_x": "다사608450", "SCH_POP": 54.474867747082037 }, "geometry": { "type": "MultiPolygon", "coordinates": [ [ [ [ 127.056492117101214, 37.503437003155099 ], [ 127.056486785206474, 37.504338342156622 ], [ 127.057618165552995, 37.504342584604657 ], [ 127.057623483847422, 37.503441245465837 ], [ 127.056492117101214, 37.503437003155099 ] ] ] ] } },
{ "type": "Feature", "properties": { "GRID_CD_x": "다사608451", "SCH_POP": 22.24495759509615 }, "geometry": { "type": "MultiPolygon", "coordinates": [ [ [ [ 127.056486785206474, 37.504338342156622 ], [ 127.056481453074198, 37.505239681019617 ], [ 127.057612847021645, 37.505243923604972 ], [ 127.057618165552995, 37.504342584604657 ], [ 127.056486785206474, 37.504338342156622 ] ] ] ] } },
{ "type": "Feature", "properties": { "GRID_CD_x": "다사608452", "SCH_POP": 0.82154672936434603 }, "geometry": { "type": "MultiPolygon", "coordinates": [ [ [ [ 127.056481453074198, 37.505239681019617 ], [ 127.056476120704431, 37.506141019744071 ], [ 127.057607528253399, 37.506145262466767 ], [ 127.057612847021645, 37.505243923604972 ], [ 127.056481453074198, 37.505239681019617 ] ] ] ] } },
{ "type": "Feature", "properties": { "GRID_CD_x": "다사608453", "SCH_POP": 0.0 }, "geometry": { "type": "MultiPolygon", "coordinates": [ [ [ [ 127.056476120704431, 37.506141019744071 ], [ 127.056470788097144, 37.507042358330018 ], [ 127.057602209248259, 37.507046601190027 ], [ 127.057607528253399, 37.506145262466767 ], [ 127.056476120704431, 37.506141019744071 ] ] ] ] } },
{ "type": "Feature", "properties": { "GRID_CD_x": "다사609443", "SCH_POP": 11.095637784941941 }, "geometry": { "type": "MultiPolygon", "coordinates": [ [ [ [ 127.05766070527639, 37.497131867615437 ], [ 127.057655388639887, 37.498033207723914 ], [ 127.058786674033726, 37.498037438377793 ], [ 127.058791977074122, 37.497136098132387 ], [ 127.05766070527639, 37.497131867615437 ] ] ] ] } },
{ "type": "Feature", "properties": { "GRID_CD_x": "다사609444", "SCH_POP": 5.3565147927305921 }, "geometry": { "type": "MultiPolygon", "coordinates": [ [ [ [ 127.057655388639887, 37.498033207723914 ], [ 127.057650071766574, 37.498934547693864 ], [ 127.058781370757103, 37.498938778484693 ], [ 127.058786674033726, 37.498037438377793 ], [ 127.057655388639887, 37.498033207723914 ] ] ] ] } },
{ "type": "Feature", "properties": { "GRID_CD_x": "다사609445", "SCH_POP": 38.643428147556413 }, "geometry": { "type": "MultiPolygon", "coordinates": [ [ [ [ 127.057650071766574, 37.498934547693864 ], [ 127.057644754656451, 37.499835887525279 ], [ 127.058776067244281, 37.499840118453058 ], [ 127.058781370757103, 37.498938778484693 ], [ 127.057650071766574, 37.498934547693864 ] ] ] ] } },
{ "type": "Feature", "properties": { "GRID_CD_x": "다사609446", "SCH_POP": 82.069458788622285 }, "geometry": { "type": "MultiPolygon", "coordinates": [ [ [ [ 127.057644754656451, 37.499835887525279 ], [ 127.05763943730949, 37.500737227218195 ], [ 127.058770763495204, 37.500741458282931 ], [ 127.058776067244281, 37.499840118453058 ], [ 127.057644754656451, 37.499835887525279 ] ] ] ] } },
{ "type": "Feature", "properties": { "GRID_CD_x": "다사609447", "SCH_POP": 98.712915466035199 }, "geometry": { "type": "MultiPolygon", "coordinates": [ [ [ [ 127.05763943730949, 37.500737227218195 ], [ 127.057634119725662, 37.501638566772591 ], [ 127.058765459509885, 37.501642797974277 ], [ 127.058770763495204, 37.500741458282931 ], [ 127.05763943730949, 37.500737227218195 ] ] ] ] } },
{ "type": "Feature", "properties": { "GRID_CD_x": "다사609448", "SCH_POP": 36.921691249893009 }, "geometry": { "type": "MultiPolygon", "coordinates": [ [ [ [ 127.057634119725662, 37.501638566772591 ], [ 127.057628801904983, 37.502539906188467 ], [ 127.05876015528834, 37.502544137527103 ], [ 127.058765459509885, 37.501642797974277 ], [ 127.057634119725662, 37.501638566772591 ] ] ] ] } },
{ "type": "Feature", "properties": { "GRID_CD_x": "다사609449", "SCH_POP": 11.095637784941941 }, "geometry": { "type": "MultiPolygon", "coordinates": [ [ [ [ 127.057628801904983, 37.502539906188467 ], [ 127.057623483847422, 37.503441245465837 ], [ 127.05875485083051, 37.503445476941422 ], [ 127.05876015528834, 37.502544137527103 ], [ 127.057628801904983, 37.502539906188467 ] ] ] ] } },
{ "type": "Feature", "properties": { "GRID_CD_x": "다사609450", "SCH_POP": 2.0854647745402639 }, "geometry": { "type": "MultiPolygon", "coordinates": [ [ [ [ 127.057623483847422, 37.503441245465837 ], [ 127.057618165552995, 37.504342584604657 ], [ 127.058749546136397, 37.504346816217236 ], [ 127.05875485083051, 37.503445476941422 ], [ 127.057623483847422, 37.503441245465837 ] ] ] ] } },
{ "type": "Feature", "properties": { "GRID_CD_x": "다사609451", "SCH_POP": 13.523923083382316 }, "geometry": { "type": "MultiPolygon", "coordinates": [ [ [ [ 127.057618165552995, 37.504342584604657 ], [ 127.057612847021645, 37.505243923604972 ], [ 127.058744241206, 37.505248155354508 ], [ 127.058749546136397, 37.504346816217236 ], [ 127.057618165552995, 37.504342584604657 ] ] ] ] } },
{ "type": "Feature", "properties": { "GRID_CD_x": "다사610444", "SCH_POP": 5.7679216365696018 }, "geometry": { "type": "MultiPolygon", "coordinates": [ [ [ [ 127.058786674033726, 37.498037438377793 ], [ 127.058781370757103, 37.498938778484693 ], [ 127.059912669983859, 37.498942998442132 ], [ 127.059917959663764, 37.498041658198645 ], [ 127.058786674033726, 37.498037438377793 ] ] ] ] } },
{ "type": "Feature", "properties": { "GRID_CD_x": "다사610445", "SCH_POP": 73.335003664956346 }, "geometry": { "type": "MultiPolygon", "coordinates": [ [ [ [ 127.058781370757103, 37.498938778484693 ], [ 127.058776067244281, 37.499840118453058 ], [ 127.059907380068324, 37.499844338547106 ], [ 127.059912669983859, 37.498942998442132 ], [ 127.058781370757103, 37.498938778484693 ] ] ] ] } },
{ "type": "Feature", "properties": { "GRID_CD_x": "다사610446", "SCH_POP": 65.507110015326177 }, "geometry": { "type": "MultiPolygon", "coordinates": [ [ [ [ 127.058776067244281, 37.499840118453058 ], [ 127.058770763495204, 37.500741458282931 ], [ 127.059902089917188, 37.500745678513574 ], [ 127.059907380068324, 37.499844338547106 ], [ 127.058776067244281, 37.499840118453058 ] ] ] ] } },
{ "type": "Feature", "properties": { "GRID_CD_x": "다사610447", "SCH_POP": 26.16164456586926 }, "geometry": { "type": "MultiPolygon", "coordinates": [ [ [ [ 127.058770763495204, 37.500741458282931 ], [ 127.058765459509885, 37.501642797974277 ], [ 127.059896799530392, 37.501647018341522 ], [ 127.059902089917188, 37.500745678513574 ], [ 127.058770763495204, 37.500741458282931 ] ] ] ] } },
{ "type": "Feature", "properties": { "GRID_CD_x": "다사610448", "SCH_POP": 1.6479776104484569 }, "geometry": { "type": "MultiPolygon", "coordinates": [ [ [ [ 127.058765459509885, 37.501642797974277 ], [ 127.05876015528834, 37.502544137527103 ], [ 127.059891508907967, 37.502548358030964 ], [ 127.059896799530392, 37.501647018341522 ], [ 127.058765459509885, 37.501642797974277 ] ] ] ] } },
{ "type": "Feature", "properties": { "GRID_CD_x": "다사611444", "SCH_POP": 0.0 }, "geometry": { "type": "MultiPolygon", "coordinates": [ [ [ [ 127.059917959663764, 37.498041658198645 ], [ 127.059912669983859, 37.498942998442132 ], [ 127.061043969446203, 37.498947207566182 ], [ 127.061049245529389, 37.498045867186462 ], [ 127.059917959663764, 37.498041658198645 ] ] ] ] } },
{ "type": "Feature", "properties": { "GRID_CD_x": "다사611445", "SCH_POP": 5.7679216365696018 }, "geometry": { "type": "MultiPolygon", "coordinates": [ [ [ [ 127.059912669983859, 37.498942998442132 ], [ 127.059907380068324, 37.499844338547106 ], [ 127.061038693128026, 37.499848547807417 ], [ 127.061043969446203, 37.498947207566182 ], [ 127.059912669983859, 37.498942998442132 ] ] ] ] } },
{ "type": "Feature", "properties": { "GRID_CD_x": "다사611446", "SCH_POP": 36.049510228560003 }, "geometry": { "type": "MultiPolygon", "coordinates": [ [ [ [ 127.059907380068324, 37.499844338547106 ], [ 127.059902089917188, 37.500745678513574 ], [ 127.061033416574801, 37.500749887910118 ], [ 127.061038693128026, 37.499848547807417 ], [ 127.059907380068324, 37.499844338547106 ] ] ] ] } }
]
}
