{
"type": "FeatureCollection",
"name": "gangnam_boundary",
"crs": { "type": "name", "properties": { "name": "urn:ogc:def:crs:OGC:1.3:CRS84" } },
"features": [
{ "type": "Feature", "properties": { "BASE_DATE": "20250630", "SIGUNGU_CD": "11230", "SIGUNGU_NM": "강남구" }, "geometry": { "type": "MultiPolygon", "coordinates": [ [ [ [ 127.023303450615714, 37.535797637634367 ], [ 127.023416726923799, 37.535796553527071 ], [ 127.023523162159734, 37.535797247119007 ], [ 127.025049225352305, 37.535807192056339 ], [ 127.025802652463796, 37.53581209197305 ], [ 127.027087373523045, 37.535820438205306 ], [ 127.028206727337206, 37.535827698890458 ], [ 127.028366961008913, 37.535828739142275 ], [ 127.028763865653858, 37.535831310617382 ], [ 127.029073877188054, 37.535833318852944 ], [ 127.030337943817003, 37.535833485649825 ], [ 127.030781140543368, 37.535833475402072 ], [ 127.031114689795629, 37.535833465338747 ], [ 127.032417963894787, 37.535833423023348 ], [ 127.032842267349466, 37.535833406845278 ], [ 127.033586370686237, 37.53583272736843 ], [ 127.034731017036336, 37.535831674161727 ], [ 127.034785261908723, 37.535831569691581 ], [ 127.035806663751472, 37.535829563491426 ], [ 127.036658604837385, 37.535828133860726 ], [ 127.037685506861919, 37.535827529185696 ], [ 127.037694246136923, 37.535827524640503 ], [ 127.037969675472326, 37.535827178436676 ], [ 127.039159648485423, 37.535825679160226 ], [ 127.039369014820323, 37.535825280983104 ], [ 127.039614900573028, 37.535824812093892 ], [ 127.040161787445683, 37.535823571832999 ], [ 127.040211174201104, 37.535823481105844 ], [ 127.040388150204492, 37.535823155105902 ], [ 127.040388114110428, 37.535750471609838 ], [ 127.040725516020885, 37.535661504713396 ], [ 127.040943287274672, 37.535604596317057 ], [ 127.041105407543029, 37.53556223184372 ], [ 127.041550415490832, 37.535444730101496 ], [ 127.041563818176101, 37.535441191138688 ], [ 127.042152546746664, 37.535285325406704 ], [ 127.042612696781504, 37.535163963772696 ], [ 127.043013668924729, 37.535058191913308 ], [ 127.0432641175192, 37.534992124429259 ], [ 127.043338117181491, 37.534972567303363 ], [ 127.043389834044675, 37.534958899951491 ], [ 127.043806752818867, 37.534848718134242 ], [ 127.043984549869805, 37.534800170179345 ], [ 127.044085330275138, 37.534772420834521 ], [ 127.044398843980289, 37.534689307324079 ], [ 127.044521346753157, 37.534656726325579 ], [ 127.044906760017881, 37.534554216703562 ], [ 127.045046249612213, 37.534517115431612 ], [ 127.045332903970149, 37.534441534928249 ], [ 127.045669972007246, 37.534345966373117 ], [ 127.045749810286779, 37.53432332052121 ], [ 127.046044348478503, 37.534239770895027 ], [ 127.046137924637094, 37.534184127637985 ], [ 127.046558139249001, 37.533934254170383 ], [ 127.046576795102823, 37.533923300437841 ], [ 127.046660639626012, 37.53387406768374 ], [ 127.046680817545138, 37.533862219324668 ], [ 127.046965819631168, 37.533692360368917 ], [ 127.047042688901826, 37.53364654465576 ], [ 127.047873935061617, 37.533147405310721 ], [ 127.048489706430388, 37.532777644268286 ], [ 127.048712828695258, 37.532643660812006 ], [ 127.04891941315752, 37.532519608880833 ], [ 127.048919174740419, 37.532518978824768 ], [ 127.049011538891349, 37.532463720722667 ], [ 127.049139788304331, 37.53238784226307 ], [ 127.049273183214595, 37.532308500467465 ], [ 127.049377570482719, 37.53224642955675 ], [ 127.04941025572397, 37.53222699307608 ], [ 127.049533764804266, 37.532153655943475 ], [ 127.049660362893519, 37.532078164504767 ], [ 127.049786201414278, 37.532003591217325 ], [ 127.049915536362846, 37.531926866066151 ], [ 127.049936761407551, 37.531914247772654 ], [ 127.050057864174548, 37.531842256552018 ], [ 127.050200304671577, 37.531757676136841 ], [ 127.050338323852401, 37.531675753933676 ], [ 127.050347088052874, 37.531670574770274 ], [ 127.050494448317679, 37.531583473612152 ], [ 127.050551261207104, 37.531549674523184 ], [ 127.05067998591818, 37.531473096728483 ], [ 127.050795464628067, 37.531404465226956 ], [ 127.050919583156102, 37.53133096399776 ], [ 127.051025447240562, 37.53126809322027 ], [ 127.051152245576816, 37.531192303477127 ], [ 127.051201510926717, 37.531162665783434 ], [ 127.051294095018775, 37.531106974059959 ], [ 127.05146823267637, 37.531003825639601 ], [ 127.051564398927781, 37.530945801080243 ], [ 127.051699106381065, 37.530864524483867 ], [ 127.051770871175464, 37.530819636306539 ], [ 127.051799967856383, 37.530801439320726 ], [ 127.051920700354472, 37.530726416209305 ], [ 127.051929722526964, 37.530720835000203 ], [ 127.052071084965831, 37.530633370184958 ], [ 127.052164719850893, 37.530571133413204 ], [ 127.052278483060192, 37.530497824018894 ], [ 127.052405454060292, 37.530415816022227 ], [ 127.052463332486866, 37.530377849471513 ], [ 127.052539177996536, 37.530328730002353 ], [ 127.05257986612186, 37.530302204054848 ], [ 127.052670241142891, 37.530243286835315 ], [ 127.052798830175973, 37.530160448982656 ], [ 127.052918779517185, 37.53008318110335 ], [ 127.052961445853271, 37.530055879233984 ], [ 127.05304755890208, 37.530000215704355 ], [ 127.053125981194839, 37.529949311908858 ], [ 127.053181269389341, 37.529913616529463 ], [ 127.053222107119609, 37.529887169341507 ], [ 127.053255586910922, 37.529865489514052 ], [ 127.053304087771622, 37.529834136366993 ], [ 127.053318892071374, 37.529824565891026 ], [ 127.053387498960703, 37.529780521962557 ], [ 127.053452646289472, 37.529738119800385 ], [ 127.05356431466106, 37.52966645791993 ], [ 127.05368487162356, 37.529588379427906 ], [ 127.053758760469009, 37.529540288328342 ], [ 127.0538148606324, 37.529504601124465 ], [ 127.053928848640894, 37.529431769587347 ], [ 127.054044214430064, 37.529357502776016 ], [ 127.054184706346376, 37.529265987729623 ], [ 127.054232541146519, 37.529235360877941 ], [ 127.054344105420185, 37.529162682029963 ], [ 127.05446795184497, 37.529081960649755 ], [ 127.054611462573376, 37.528988878204366 ], [ 127.054767365828553, 37.528887047780266 ], [ 127.054823736979301, 37.528850352495787 ], [ 127.054899702473051, 37.528800899341903 ], [ 127.055027212092028, 37.52871794048923 ], [ 127.055115661833824, 37.528660876318106 ], [ 127.055299596587986, 37.528603459594727 ], [ 127.055484175151051, 37.528545833188325 ], [ 127.055632863932175, 37.528499452869468 ], [ 127.055783906516325, 37.528452324979057 ], [ 127.056071059292506, 37.52836291225438 ], [ 127.056165453730742, 37.528333611549215 ], [ 127.056214546156653, 37.528318372944696 ], [ 127.056221542818534, 37.528330968635601 ], [ 127.056224858329088, 37.528329918396231 ], [ 127.056217963165764, 37.528317383477741 ], [ 127.057353707439205, 37.527963481427257 ], [ 127.058071409028869, 37.527736873431238 ], [ 127.059590994957773, 37.527257059996593 ], [ 127.060324092131779, 37.527025574256406 ], [ 127.060744611535881, 37.526861466277246 ], [ 127.06179245027036, 37.526452537045898 ], [ 127.06229811241964, 37.52625519182552 ], [ 127.063008623693847, 37.525977897869822 ], [ 127.063008948087869, 37.525977774683014 ], [ 127.063654014273752, 37.525732525722262 ], [ 127.06398616468077, 37.525606243915178 ], [ 127.064190786427801, 37.525528446893979 ], [ 127.064925291122577, 37.525249188300492 ], [ 127.065432134538767, 37.525056480420552 ], [ 127.065447295810458, 37.525053030832566 ], [ 127.065855299856565, 37.524960217954835 ], [ 127.066564563770356, 37.524798869983158 ], [ 127.066921296688449, 37.524717716268484 ], [ 127.067070151997569, 37.52468385274554 ], [ 127.067455990073157, 37.524596077276357 ], [ 127.067479106270341, 37.524582184604171 ], [ 127.067502687154487, 37.523733242915931 ], [ 127.067511448830246, 37.523417794862411 ], [ 127.067549321570809, 37.522175024232752 ], [ 127.067565760273553, 37.521635617072718 ], [ 127.067588893048722, 37.520876485391533 ], [ 127.067664214439091, 37.520001244375408 ], [ 127.067667195917736, 37.519966598115346 ], [ 127.067667621223393, 37.519912694922333 ], [ 127.067667968079704, 37.519868857795984 ], [ 127.067698760525801, 37.519600831231777 ], [ 127.067731156502347, 37.519318835876327 ], [ 127.067812760918756, 37.519192452385774 ], [ 127.067901207249577, 37.518579321368925 ], [ 127.067899881978008, 37.518509090883633 ], [ 127.067898229536453, 37.518421417939386 ], [ 127.067897621081002, 37.518389172364699 ], [ 127.067896138880386, 37.518310637099255 ], [ 127.067955859494006, 37.517883433779566 ], [ 127.067982466524668, 37.517675854783697 ], [ 127.068097630164161, 37.516777407255233 ], [ 127.068171478861899, 37.516201278101725 ], [ 127.068242730649416, 37.515645361308053 ], [ 127.068247432000291, 37.515608692337658 ], [ 127.068417717603708, 37.51428011580839 ], [ 127.068567069879023, 37.512953383956116 ], [ 127.068609273993474, 37.512578465893107 ], [ 127.068669765909362, 37.512035733913812 ], [ 127.068729395010465, 37.511532278090868 ], [ 127.068746432955535, 37.511347879133922 ], [ 127.068797878064416, 37.510886291174998 ], [ 127.068821237408841, 37.510676709677391 ], [ 127.068845506915579, 37.510481388275565 ], [ 127.06886728475105, 37.510306130118465 ], [ 127.068868056129858, 37.510299887421397 ], [ 127.068868926772168, 37.510292911380844 ], [ 127.069009205254005, 37.509163903900642 ], [ 127.069132654495846, 37.508170333202514 ], [ 127.069132902153996, 37.508168584568523 ], [ 127.069178765050026, 37.507799222687716 ], [ 127.069224336154647, 37.507421487879498 ], [ 127.069258565894501, 37.507137750449644 ], [ 127.069266273749534, 37.507073874010977 ], [ 127.069300057583447, 37.506785766940013 ], [ 127.06932203671937, 37.506598322043082 ], [ 127.069373847995337, 37.506156451109398 ], [ 127.069379694989266, 37.506106266723798 ], [ 127.069418045186467, 37.50577704088947 ], [ 127.069464599473818, 37.505377393789679 ], [ 127.069525192687607, 37.504857204948102 ], [ 127.069576890425253, 37.504413390946205 ], [ 127.069589406356968, 37.504305929617203 ], [ 127.069683759007162, 37.503470478819885 ], [ 127.069713720920902, 37.503303239752825 ], [ 127.069736378726674, 37.503176764193924 ], [ 127.069808061335507, 37.502776657567999 ], [ 127.069814870588772, 37.502738693663346 ], [ 127.069848885328554, 37.502735385152491 ], [ 127.072165016250537, 37.502509918826497 ], [ 127.072191281789259, 37.502507436063226 ], [ 127.072571220122242, 37.502471516766413 ], [ 127.072714650573488, 37.502458408905156 ], [ 127.072936929242417, 37.50243809565309 ], [ 127.073223560592865, 37.502413197628698 ], [ 127.073450472806869, 37.502393534706783 ], [ 127.073538248534348, 37.502385953008663 ], [ 127.073588930812633, 37.502381575990114 ], [ 127.073927931616637, 37.502352167396211 ], [ 127.074208125632396, 37.502326722775933 ], [ 127.074555504109469, 37.502295063938767 ], [ 127.074891910664263, 37.502264923947436 ], [ 127.075249238931633, 37.502231481732757 ], [ 127.075490974700543, 37.502209580536118 ], [ 127.07560189452802, 37.502199800031782 ], [ 127.075930196280581, 37.502170849305173 ], [ 127.076073741505382, 37.502156648930772 ], [ 127.076146475414646, 37.502149810817585 ], [ 127.07616790196036, 37.502147502697476 ], [ 127.076986782248269, 37.50207183482452 ], [ 127.077822547047788, 37.501799376310849 ], [ 127.080737573772339, 37.500820163081876 ], [ 127.081227801635606, 37.500656674516875 ], [ 127.081780853749095, 37.500472230684444 ], [ 127.082110358535431, 37.500363072977215 ], [ 127.082114755139301, 37.500361617510173 ], [ 127.082123017912451, 37.500358879563116 ], [ 127.082144918297956, 37.500352827781661 ], [ 127.082325718517524, 37.500291934910393 ], [ 127.082372866923052, 37.50027636745731 ], [ 127.08252788942346, 37.500224357083972 ], [ 127.082780736031737, 37.500139530997679 ], [ 127.082932574343928, 37.50008894921848 ], [ 127.082938279886704, 37.500087085518842 ], [ 127.083198729119985, 37.500001886973152 ], [ 127.083383799188695, 37.499939842982094 ], [ 127.083481189659821, 37.499907220055228 ], [ 127.083576612246162, 37.499874465722954 ], [ 127.083881904100792, 37.499769674922149 ], [ 127.08405255401631, 37.499709082551341 ], [ 127.084154058292214, 37.499673041171043 ], [ 127.084357441817474, 37.499615714738638 ], [ 127.084497862978893, 37.499576134235397 ], [ 127.08452509962224, 37.499568826256066 ], [ 127.08461150680381, 37.499544454477714 ], [ 127.084679583705409, 37.499525253294671 ], [ 127.085154118754488, 37.499389587589967 ], [ 127.085277063860204, 37.499353810719953 ], [ 127.08528999770536, 37.499350044272006 ], [ 127.085301608659321, 37.49934695731136 ], [ 127.085361041389206, 37.499331110898957 ], [ 127.085454501817452, 37.499305111965548 ], [ 127.085993916298023, 37.499155416413949 ], [ 127.086005988305189, 37.499152004707064 ], [ 127.087091097851911, 37.498845357653487 ], [ 127.087155167377389, 37.498827406541679 ], [ 127.087608205835849, 37.498700478332054 ], [ 127.087627853017395, 37.498695010759647 ], [ 127.087745885616485, 37.498662162512709 ], [ 127.087797938123131, 37.498647677209895 ], [ 127.088123250705607, 37.49855722100834 ], [ 127.088189397237315, 37.498538991745093 ], [ 127.088306866813994, 37.498506604272322 ], [ 127.088490057857129, 37.498456092129757 ], [ 127.088589754454361, 37.498428603551766 ], [ 127.088847056616956, 37.498357650080656 ], [ 127.089163398939775, 37.498266539646956 ], [ 127.089227394419495, 37.498248707931886 ], [ 127.089275282577105, 37.498235354026299 ], [ 127.089441477369462, 37.498189037534949 ], [ 127.089623405361948, 37.498138337163766 ], [ 127.089698933134272, 37.49811659368703 ], [ 127.090118441116076, 37.497996501462467 ], [ 127.090213902623873, 37.497969522307699 ], [ 127.090297622160506, 37.497945862626878 ], [ 127.090305336038952, 37.497943681045115 ], [ 127.090365564942331, 37.497926659492201 ], [ 127.090605077526789, 37.497858975525205 ], [ 127.090642531730296, 37.497848413374285 ], [ 127.090778527854354, 37.497811651132871 ], [ 127.090920989040583, 37.497770575575721 ], [ 127.090981265141266, 37.49775314645597 ], [ 127.091031680949243, 37.497738998375972 ], [ 127.091086875571818, 37.497724399911114 ], [ 127.091130433436192, 37.49771148274467 ], [ 127.091146837999503, 37.497706804671708 ], [ 127.09115502771094, 37.497704488575586 ], [ 127.091181359357719, 37.497697136263952 ], [ 127.091194503216798, 37.497693338346181 ], [ 127.091254908921343, 37.497676599977304 ], [ 127.091315784303703, 37.497659199800559 ], [ 127.091371109023981, 37.497643958080729 ], [ 127.091498289458158, 37.497610696046017 ], [ 127.09167187131743, 37.497559576062002 ], [ 127.091785246906625, 37.497529089062823 ], [ 127.092032140558331, 37.497458775892582 ], [ 127.092071514815174, 37.497447473590675 ], [ 127.092272023743462, 37.497391252057902 ], [ 127.092460076890845, 37.497338334869148 ], [ 127.092460764650468, 37.49733813984372 ], [ 127.093685344374322, 37.496993934201051 ], [ 127.094347451373125, 37.496805669967003 ], [ 127.094383918122617, 37.496795301534135 ], [ 127.09443987183424, 37.496780247113172 ], [ 127.094606544221023, 37.496733968233023 ], [ 127.094712443613986, 37.496703564527273 ], [ 127.09475834227716, 37.49669185916855 ], [ 127.094794482537154, 37.496682642329553 ], [ 127.095867481138185, 37.496298802810038 ], [ 127.095870594905463, 37.496297666028987 ], [ 127.096808129934118, 37.495955055014683 ], [ 127.096962223347205, 37.495898742779069 ], [ 127.097137680813034, 37.495834622595055 ], [ 127.097552304006015, 37.495611903252055 ], [ 127.097665048247492, 37.495551341719178 ], [ 127.097746481216959, 37.495507598332374 ], [ 127.097797968991344, 37.495479943198326 ], [ 127.09770696297565, 37.495413226415266 ], [ 127.097477504869545, 37.495245006081547 ], [ 127.097402942194663, 37.495190342211608 ], [ 127.097440756035923, 37.49518232456564 ], [ 127.09823078389887, 37.495014531377713 ], [ 127.098547325918759, 37.494947298688643 ], [ 127.098796499839139, 37.494894374441905 ], [ 127.098842235507306, 37.494872632075563 ], [ 127.099010868926257, 37.494799772452403 ], [ 127.099151663001138, 37.494737245080877 ], [ 127.099206544844819, 37.494714421325554 ], [ 127.099233470633351, 37.494706894362437 ], [ 127.099264268413833, 37.494697520116965 ], [ 127.099316609729556, 37.494683524642646 ], [ 127.099429326801783, 37.494637265026832 ], [ 127.099563369671117, 37.49458581634218 ], [ 127.099763266619959, 37.494509089303641 ], [ 127.099775632125713, 37.494447452813453 ], [ 127.099827739587539, 37.494400484505491 ], [ 127.099881811521627, 37.494390285769157 ], [ 127.099944399481657, 37.494379674179456 ], [ 127.100185960773914, 37.49428342249373 ], [ 127.100223548502015, 37.494268446478294 ], [ 127.10032637868467, 37.49422976814877 ], [ 127.100354362053622, 37.494219242070578 ], [ 127.100391162966631, 37.494136210521802 ], [ 127.100435666968224, 37.49409959269974 ], [ 127.100453670328278, 37.494090135208332 ], [ 127.10046021144062, 37.494086697903761 ], [ 127.100569287740086, 37.494068677164456 ], [ 127.100751321015466, 37.493986202251222 ], [ 127.100987590041385, 37.493879151642119 ], [ 127.100993003686128, 37.49387669658968 ], [ 127.101328148497259, 37.493724144049914 ], [ 127.101422080839328, 37.493680645796701 ], [ 127.101624801443847, 37.493589463661536 ], [ 127.101661225180735, 37.493573078938333 ], [ 127.101675693051732, 37.493566403560209 ], [ 127.10169876135312, 37.4935557596366 ], [ 127.102010831442044, 37.493411766901197 ], [ 127.102402987045821, 37.493234376118878 ], [ 127.102501101215751, 37.493190072638377 ], [ 127.102638613568971, 37.493129415687228 ], [ 127.102924499651436, 37.492997220510468 ], [ 127.103118931692393, 37.492908338855479 ], [ 127.103305219387636, 37.492819269088216 ], [ 127.103375990604434, 37.492776032209846 ], [ 127.103498946262192, 37.492712103008209 ], [ 127.103511918681519, 37.492705358387639 ], [ 127.103942068177247, 37.492409971856951 ], [ 127.104258046316716, 37.492189281212532 ], [ 127.104308594661305, 37.492153974712714 ], [ 127.104496439220014, 37.492023462723864 ], [ 127.104597774281046, 37.491954746759276 ], [ 127.104862056279245, 37.49177016848467 ], [ 127.105638847873223, 37.491235440286175 ], [ 127.10611540822886, 37.490907378428503 ], [ 127.106579581117884, 37.490586011956104 ], [ 127.106580171515574, 37.490585597492689 ], [ 127.106623474087186, 37.490556431178341 ], [ 127.10678677819763, 37.490446444335099 ], [ 127.106907134845457, 37.490365381512376 ], [ 127.106952760908328, 37.490334652632917 ], [ 127.107006652217194, 37.490294708657764 ], [ 127.107032747525281, 37.490257830579324 ], [ 127.107050302400793, 37.490233023980672 ], [ 127.107238826228922, 37.489966627603039 ], [ 127.107353989373053, 37.489803892604144 ], [ 127.107401441035904, 37.489735914491547 ], [ 127.107783910424232, 37.489196497001537 ], [ 127.10784235724293, 37.489114068501728 ], [ 127.10784889330246, 37.489105391144548 ], [ 127.107853137158585, 37.489099826696652 ], [ 127.107890961577382, 37.48904635360114 ], [ 127.108126336558442, 37.488713583435299 ], [ 127.108242526270075, 37.488548476741883 ], [ 127.108266533059378, 37.488514470404887 ], [ 127.108294636736218, 37.488474433106369 ], [ 127.108506956901124, 37.488172729594737 ], [ 127.108770213096605, 37.487806505343869 ], [ 127.109121078838186, 37.487320907200676 ], [ 127.109175330904193, 37.487315730780054 ], [ 127.109173676650201, 37.487314092037778 ], [ 127.109146016580041, 37.48728674511618 ], [ 127.109147305637734, 37.487284878150859 ], [ 127.109153469516755, 37.487275929979269 ], [ 127.109250262985128, 37.487135453623701 ], [ 127.10926414254152, 37.487115619062074 ], [ 127.109529929104937, 37.486756439248069 ], [ 127.109640359675268, 37.486607204012302 ], [ 127.109640728761221, 37.486606704975181 ], [ 127.109827913281535, 37.486353740964049 ], [ 127.110031484083351, 37.486078637362453 ], [ 127.110053764407127, 37.486048525144916 ], [ 127.110105771637009, 37.485978211073174 ], [ 127.110326732837734, 37.4856795395945 ], [ 127.110401362349336, 37.485578673471849 ], [ 127.110456289489989, 37.485504437120021 ], [ 127.110588562439659, 37.485319972875267 ], [ 127.110597309364138, 37.485307774709327 ], [ 127.110734518465378, 37.485116426624835 ], [ 127.110742204592498, 37.485105708596883 ], [ 127.110838708314759, 37.484971125739108 ], [ 127.110840519831385, 37.484967302713734 ], [ 127.111018668225768, 37.484712480800454 ], [ 127.111043967409969, 37.484676118356354 ], [ 127.11124923075154, 37.484387400327883 ], [ 127.111510042365722, 37.484026317432104 ], [ 127.111648265668308, 37.483804199912839 ], [ 127.111654601695236, 37.483794002879833 ], [ 127.111656138068611, 37.48379153278497 ], [ 127.111780575460955, 37.483591133214397 ], [ 127.111955770280886, 37.483306025101243 ], [ 127.111980719458842, 37.483265423083552 ], [ 127.112098105202023, 37.483076806061575 ], [ 127.112209674683626, 37.482897528686784 ], [ 127.112226759066075, 37.482870076936905 ], [ 127.112234834915085, 37.482856743426488 ], [ 127.112276419916213, 37.482788093216357 ], [ 127.112276995998386, 37.482787147773372 ], [ 127.11254481052417, 37.482361730768886 ], [ 127.112623700893238, 37.482236398802208 ], [ 127.112856678309498, 37.481903207058572 ], [ 127.112966173132733, 37.481723948267124 ], [ 127.112980863617494, 37.481704174491171 ], [ 127.113439118131851, 37.481087295609335 ], [ 127.113454069189459, 37.481067170190983 ], [ 127.114256263283096, 37.479974953394056 ], [ 127.114299330729295, 37.479917798764959 ], [ 127.114710890525899, 37.479366301387884 ], [ 127.115073175292778, 37.478880824686065 ], [ 127.115073621725813, 37.478880225831688 ], [ 127.115152862686216, 37.478774965714429 ], [ 127.115210244926885, 37.47869867812728 ], [ 127.115211452135824, 37.478697054194278 ], [ 127.115275778068195, 37.478609642010838 ], [ 127.115420879378902, 37.478412451433243 ], [ 127.115503208155616, 37.478300568879625 ], [ 127.115524479552519, 37.478273337565469 ], [ 127.115569870790679, 37.478215225553718 ], [ 127.11597845937078, 37.477685932534129 ], [ 127.116012426434025, 37.477628766603253 ], [ 127.116013035550495, 37.477627758152856 ], [ 127.116030705855323, 37.477598016457371 ], [ 127.116049402264608, 37.477573743068177 ], [ 127.116105884375642, 37.477500383339674 ], [ 127.116186084935705, 37.477396221675647 ], [ 127.116265433615908, 37.477293168571066 ], [ 127.11628484606176, 37.477267958246308 ], [ 127.116579263853438, 37.47688553918838 ], [ 127.116606088428881, 37.476854166793515 ], [ 127.116701731105437, 37.476728339186337 ], [ 127.11696471068511, 37.476378808896222 ], [ 127.117077200141182, 37.47623375087931 ], [ 127.117232791595583, 37.476033111801272 ], [ 127.117428419941703, 37.475778783440774 ], [ 127.117661252523007, 37.475466078338982 ], [ 127.117931804338767, 37.475105825128743 ], [ 127.117936581815314, 37.475099550850224 ], [ 127.117998918948814, 37.47501767949035 ], [ 127.118241192160539, 37.474699492767982 ], [ 127.118241631693394, 37.474698906497885 ], [ 127.118412350300574, 37.474437290437471 ], [ 127.118437375418836, 37.474398940639283 ], [ 127.118518619879879, 37.474283687589832 ], [ 127.118579402409509, 37.474197460900989 ], [ 127.118660999668691, 37.474081687898348 ], [ 127.11872396570817, 37.473992349453987 ], [ 127.118830637557508, 37.473841013642016 ], [ 127.119384304502049, 37.473055504306487 ], [ 127.119585337652381, 37.472770282696253 ], [ 127.119718795775555, 37.47258093786099 ], [ 127.11971557444194, 37.472613616420425 ], [ 127.119703349824249, 37.472760792619731 ], [ 127.120410892745738, 37.471782090656887 ], [ 127.120714715563111, 37.471361818365544 ], [ 127.120841466883391, 37.471186959963788 ], [ 127.122063922437462, 37.469489381946396 ], [ 127.12206450777667, 37.469488574391718 ], [ 127.122433186405885, 37.468981164302946 ], [ 127.122461745233139, 37.468941869451015 ], [ 127.122484980520866, 37.468909867664905 ], [ 127.122580282143346, 37.468778378822954 ], [ 127.122715286506761, 37.46859211084282 ], [ 127.122742627401237, 37.468554104590432 ], [ 127.123113437395176, 37.468038612023186 ], [ 127.123196730316494, 37.467924277923068 ], [ 127.123257863868986, 37.467840359131195 ], [ 127.12325845141693, 37.467839556985531 ], [ 127.123305396824676, 37.467776203577742 ], [ 127.123377858495857, 37.467673684178941 ], [ 127.123404139081998, 37.467637260791676 ], [ 127.1235056601125, 37.467498867592496 ], [ 127.123697685430898, 37.467230433053984 ], [ 127.123741523075239, 37.467169675418816 ], [ 127.123742222382646, 37.467168684339526 ], [ 127.123746076308237, 37.467163269482576 ], [ 127.123756049744301, 37.467149406672398 ], [ 127.123769384337692, 37.467130748476251 ], [ 127.123778482462043, 37.467118019500475 ], [ 127.123923451225266, 37.46691464681885 ], [ 127.124010997646835, 37.466791831175094 ], [ 127.124079473567974, 37.466696965667516 ], [ 127.124083332117024, 37.466691521068633 ], [ 127.124183669001695, 37.466549714523225 ], [ 127.124186094830108, 37.466546289833822 ], [ 127.124191096626461, 37.466539718553342 ], [ 127.124206650033344, 37.466520769009527 ], [ 127.12420687988913, 37.466520484007262 ], [ 127.124143266735715, 37.466495213780341 ], [ 127.123915967898398, 37.466396897815372 ], [ 127.123766970427653, 37.466333424294632 ], [ 127.123613801913393, 37.466199279162566 ], [ 127.123607427383774, 37.466193645146369 ], [ 127.123426729848134, 37.466078116341976 ], [ 127.123315725923504, 37.466021629031736 ], [ 127.123202259171592, 37.465978670489946 ], [ 127.123116143512291, 37.465914840495415 ], [ 127.123085206959672, 37.465894888318601 ], [ 127.123060275738766, 37.465876614706126 ], [ 127.123036758114296, 37.465865087821271 ], [ 127.123002830861736, 37.465849355295163 ], [ 127.122937775210374, 37.465819013233912 ], [ 127.122887869735123, 37.465756839946401 ], [ 127.122858160306151, 37.465733500684173 ], [ 127.122831110290392, 37.465713824043668 ], [ 127.122824912628417, 37.465670302497863 ], [ 127.12282485808953, 37.465669903919675 ], [ 127.12278535532127, 37.465602090588334 ], [ 127.122736260951896, 37.46560044660535 ], [ 127.122689098037057, 37.465598801558144 ], [ 127.122592913761295, 37.465533299444616 ], [ 127.122521655519748, 37.465484382707857 ], [ 127.122508389301728, 37.465474820093235 ], [ 127.122435714532315, 37.46542337405085 ], [ 127.12239893125826, 37.46539412975055 ], [ 127.122330307075643, 37.465339568843348 ], [ 127.122318640698765, 37.465330294349599 ], [ 127.122299194927479, 37.4653136993267 ], [ 127.122234819864929, 37.465264210415647 ], [ 127.122179998274873, 37.465222314482631 ], [ 127.122151022437052, 37.465211930028531 ], [ 127.12202557041833, 37.465181648514928 ], [ 127.121966529838446, 37.465166271622387 ], [ 127.12195771988543, 37.465163977402007 ], [ 127.121916343043566, 37.465153246752187 ], [ 127.121859370013794, 37.46513846952066 ], [ 127.121859497644905, 37.465134009064528 ], [ 127.121664140121439, 37.464776953554896 ], [ 127.121439366790057, 37.464372298731973 ], [ 127.121354492329303, 37.464311007866691 ], [ 127.121093155435901, 37.464125719863446 ], [ 127.120831346839239, 37.463949451548167 ], [ 127.120749559507701, 37.46389438778133 ], [ 127.120745733463593, 37.463891811113022 ], [ 127.120104346646244, 37.463493194497936 ], [ 127.119204272372457, 37.463126655399222 ], [ 127.11882186870676, 37.462938655656721 ], [ 127.11869528820101, 37.462876425221417 ], [ 127.118326352687404, 37.462695044606022 ], [ 127.117949983229465, 37.4625305024814 ], [ 127.117786714946845, 37.462530920056686 ], [ 127.11752219781097, 37.46253159473315 ], [ 127.117526716964448, 37.462267310485196 ], [ 127.117474847824838, 37.462200609980691 ], [ 127.117470771787012, 37.462194983071669 ], [ 127.117423736835178, 37.462125611216912 ], [ 127.117421541547046, 37.462122372708428 ], [ 127.117398857999078, 37.462088917135439 ], [ 127.1173616974758, 37.462034109066515 ], [ 127.117138659149362, 37.461705148386486 ], [ 127.117119939910054, 37.461677537447912 ], [ 127.11698929447428, 37.461484507225535 ], [ 127.116989262427779, 37.461484139363826 ], [ 127.116939658067764, 37.46090030899316 ], [ 127.116936531211365, 37.460858479017318 ], [ 127.116907738002794, 37.460473209760011 ], [ 127.116907688021783, 37.46047281119359 ], [ 127.116899677103049, 37.460401139132507 ], [ 127.116899629392805, 37.460400738770694 ], [ 127.116901922245262, 37.460283326869721 ], [ 127.116906375630947, 37.460076651436843 ], [ 127.116905194636615, 37.459770877610623 ], [ 127.116906746489732, 37.45928714390687 ], [ 127.116896049086165, 37.458640520354123 ], [ 127.116894892867407, 37.458640421060906 ], [ 127.116749310571961, 37.458627791373651 ], [ 127.116697027804761, 37.458623257384538 ], [ 127.116239409841569, 37.458596113889627 ], [ 127.11612408369443, 37.458594726191123 ], [ 127.115892911317303, 37.458591944259254 ], [ 127.115882362477393, 37.458594890794934 ], [ 127.115826186131059, 37.458610586680329 ], [ 127.11572979166634, 37.458636584199176 ], [ 127.115686902792788, 37.458647329646929 ], [ 127.11557709768941, 37.458677565826001 ], [ 127.115496067920418, 37.45869791558836 ], [ 127.115476648508547, 37.458704404444298 ], [ 127.115478672840069, 37.458757336635266 ], [ 127.115365832965509, 37.458881333819519 ], [ 127.115285249720202, 37.458965880290641 ], [ 127.115148527324067, 37.459060058887417 ], [ 127.114992690179093, 37.459130315851283 ], [ 127.114785112739213, 37.45920259428582 ], [ 127.114592487546844, 37.459238540122016 ], [ 127.114513231220414, 37.459272948211556 ], [ 127.114510596408209, 37.459274091564517 ], [ 127.114504679430141, 37.459278252805802 ], [ 127.114361875043102, 37.459378695879629 ], [ 127.114304379416538, 37.459402526982252 ], [ 127.114184848679344, 37.459452070759966 ], [ 127.114073109069551, 37.459482586753779 ], [ 127.113955364443271, 37.459516766012612 ], [ 127.113836509083541, 37.459633450899744 ], [ 127.113768679841826, 37.459693455001407 ], [ 127.113737740114232, 37.459720824852958 ], [ 127.113670818423572, 37.459728351547007 ], [ 127.113634258689402, 37.459732464844521 ], [ 127.113536353525291, 37.459801546396534 ], [ 127.113419754581656, 37.459900768833556 ], [ 127.113403841554799, 37.459917272192158 ], [ 127.113271114519222, 37.46005491838703 ], [ 127.113243092452194, 37.460198076490833 ], [ 127.11324096259456, 37.460208964347601 ], [ 127.1132364781474, 37.460279642109867 ], [ 127.113233787066918, 37.460344389335212 ], [ 127.113233412681268, 37.460353411698343 ], [ 127.113089191552902, 37.46040197668372 ], [ 127.113078213883412, 37.460405784171869 ], [ 127.112842599710319, 37.460487525464934 ], [ 127.112763284807727, 37.460530249994115 ], [ 127.112908650115742, 37.46064192882649 ], [ 127.113184861702464, 37.460758230809731 ], [ 127.11329182612279, 37.460836408540445 ], [ 127.113334845634796, 37.460905348868636 ], [ 127.113334844038178, 37.460905658933733 ], [ 127.113334155525877, 37.461034757709072 ], [ 127.113334095527946, 37.461045750587566 ], [ 127.113333889845265, 37.461084157172387 ], [ 127.113333873943986, 37.461087245204496 ], [ 127.113325627794751, 37.461088255696339 ], [ 127.113297593356663, 37.461091694617295 ], [ 127.113121109976916, 37.461113341084726 ], [ 127.11297490367491, 37.461134319387803 ], [ 127.112922475754914, 37.461154360831422 ], [ 127.112783214099721, 37.461209390959723 ], [ 127.112702913469988, 37.461244668721179 ], [ 127.112521680878643, 37.461344229129701 ], [ 127.112443070832114, 37.461387542536436 ], [ 127.112305154316559, 37.461463535999037 ], [ 127.112229802256209, 37.461504998627845 ], [ 127.111820270500246, 37.461644190744927 ], [ 127.111749288046255, 37.461652698114115 ], [ 127.111347240903925, 37.461717270065826 ], [ 127.111065079700325, 37.461762302450147 ], [ 127.110768604322075, 37.461783672999204 ], [ 127.110637720143544, 37.461793106388228 ], [ 127.110449703246999, 37.46183036129176 ], [ 127.109891046258738, 37.461941053157744 ], [ 127.109784804666134, 37.461923697197648 ], [ 127.109459131865108, 37.461870495298648 ], [ 127.109169663398035, 37.461977816811448 ], [ 127.109089149909025, 37.462007668779052 ], [ 127.109039130318749, 37.462026131856419 ], [ 127.108686157851139, 37.462156420716695 ], [ 127.108153493538438, 37.462274032695269 ], [ 127.107924095764005, 37.4622435149887 ], [ 127.107886593719712, 37.462238528584159 ], [ 127.107514393006937, 37.462189013065036 ], [ 127.107301734964906, 37.462180472793143 ], [ 127.106880073357189, 37.46236950169471 ], [ 127.106672085505295, 37.462410510439959 ], [ 127.106467234058655, 37.462423929410711 ], [ 127.106167238381573, 37.46240643768526 ], [ 127.106052315431128, 37.462381655526386 ], [ 127.105925465072872, 37.462354302443444 ], [ 127.105656136996146, 37.462235715231849 ], [ 127.10563673792177, 37.462212375400505 ], [ 127.105608200050852, 37.462178039037148 ], [ 127.105309900621691, 37.462171082368435 ], [ 127.105270857604665, 37.462170172277794 ], [ 127.105189161657023, 37.462156187769587 ], [ 127.105128471254147, 37.462145799543627 ], [ 127.105103791242072, 37.462144686810781 ], [ 127.105030444209248, 37.462141379741325 ], [ 127.104960256660405, 37.462149659442495 ], [ 127.10486693724016, 37.462160669515796 ], [ 127.104865293440625, 37.462160604529195 ], [ 127.104811338504547, 37.462158490675058 ], [ 127.104705145916512, 37.46215433263442 ], [ 127.104547712785333, 37.462162992635179 ], [ 127.104341357303767, 37.462174345068298 ], [ 127.104343867329661, 37.46216624477637 ], [ 127.104343996158562, 37.462165830578975 ], [ 127.104429350474902, 37.461890383703548 ], [ 127.104471004749811, 37.461755962576738 ], [ 127.104497392030538, 37.461708351459045 ], [ 127.104550628870783, 37.461612289776177 ], [ 127.104582890944343, 37.461523983553533 ], [ 127.104611854477866, 37.461444703389098 ], [ 127.104646010208853, 37.461399821426383 ], [ 127.104741007719156, 37.46127499071558 ], [ 127.104749718266604, 37.461263544547009 ], [ 127.104780232050317, 37.4611601525474 ], [ 127.1046253400701, 37.46109977915031 ], [ 127.104520727695615, 37.461056513216207 ], [ 127.104472302799195, 37.461029526466149 ], [ 127.104427018455269, 37.460985074505629 ], [ 127.104408261185654, 37.460956375286827 ], [ 127.104395168016083, 37.460939667884404 ], [ 127.104299099504786, 37.460817093833917 ], [ 127.104258822073746, 37.46080530788943 ], [ 127.104252839132513, 37.46080318856977 ], [ 127.104249277125007, 37.460801928247747 ], [ 127.104170766957154, 37.460726825697712 ], [ 127.104158919690704, 37.460713388094632 ], [ 127.104046241606639, 37.460585584351328 ], [ 127.104023416580191, 37.460557447414139 ], [ 127.104009548345189, 37.460524354123656 ], [ 127.103987050286804, 37.460470673532448 ], [ 127.103980007290289, 37.460453870081288 ], [ 127.10397998413508, 37.460453543708809 ], [ 127.10398320227408, 37.460352120051404 ], [ 127.10398587108331, 37.46026887963238 ], [ 127.103978751900343, 37.460268884618834 ], [ 127.103974284309899, 37.460268889477213 ], [ 127.103974287541675, 37.460268491083774 ], [ 127.103974524276524, 37.46023882518201 ], [ 127.10397458355628, 37.46023144408553 ], [ 127.103974534784356, 37.46023104371509 ], [ 127.103969384950702, 37.460183528016238 ], [ 127.103969343822925, 37.460183179049331 ], [ 127.103961289070156, 37.460144678102125 ], [ 127.103958222947199, 37.460130014301505 ], [ 127.103952575880882, 37.460103028274901 ], [ 127.103941606091098, 37.460050593237206 ], [ 127.10388962646023, 37.460002487919546 ], [ 127.103810936267351, 37.459927655831216 ], [ 127.103749088448225, 37.459904057988773 ], [ 127.103703548710939, 37.459886782910907 ], [ 127.103640243373803, 37.459862769100305 ], [ 127.10354606660708, 37.459828495087137 ], [ 127.103442823503727, 37.459751431520672 ], [ 127.103245741969175, 37.459763431518411 ], [ 127.103158851425817, 37.45975900068688 ], [ 127.103065065198081, 37.459754017527445 ], [ 127.102945814258376, 37.459724549630685 ], [ 127.102800280009916, 37.45971679013563 ], [ 127.102691851168558, 37.459723928624165 ], [ 127.102670730515612, 37.459777718806919 ], [ 127.10263411636231, 37.459867004103984 ], [ 127.102556682678141, 37.459793668071036 ], [ 127.102550653290479, 37.459787957462346 ], [ 127.102447202248001, 37.459689503788013 ], [ 127.102381426447863, 37.459627336036718 ], [ 127.102287527783929, 37.459538154275755 ], [ 127.102258896461606, 37.459520447003605 ], [ 127.102132693396157, 37.459438895526212 ], [ 127.102098764423147, 37.459423156992372 ], [ 127.101953663003769, 37.459349226746752 ], [ 127.101939265041793, 37.459324769226633 ], [ 127.101867087071284, 37.459202168190203 ], [ 127.101852601749243, 37.459177563441862 ], [ 127.101850903909309, 37.459176613990195 ], [ 127.101625665961322, 37.459050768587623 ], [ 127.101381140956406, 37.458972416537769 ], [ 127.101320219405736, 37.458844921751343 ], [ 127.101226547146183, 37.458661141411945 ], [ 127.101164812068689, 37.458540231888179 ], [ 127.101277654916274, 37.45824151826853 ], [ 127.101059528435769, 37.457989864888418 ], [ 127.100765889882666, 37.457759797956953 ], [ 127.100249233189459, 37.457547647037323 ], [ 127.099738775402528, 37.457354635560712 ], [ 127.099506328540215, 37.456912777411127 ], [ 127.099306107756547, 37.456677555682766 ], [ 127.099135822406836, 37.456370228403479 ], [ 127.099095704625526, 37.456218776139558 ], [ 127.099052058506715, 37.456196664444938 ], [ 127.098893194610355, 37.456116173152303 ], [ 127.09868538673814, 37.456148158455306 ], [ 127.0984720136329, 37.456254770335953 ], [ 127.098237459196682, 37.456371246496886 ], [ 127.097230500933591, 37.456367561139388 ], [ 127.096365317965095, 37.456346860479407 ], [ 127.096076331664392, 37.456429587606429 ], [ 127.095769338629125, 37.456519653561095 ], [ 127.095458442231362, 37.456453451509688 ], [ 127.095230434910775, 37.456396207330748 ], [ 127.095222780681084, 37.45639422604831 ], [ 127.095223140601021, 37.456396676296364 ], [ 127.095272709413265, 37.45674294230394 ], [ 127.095374535625879, 37.457197354785656 ], [ 127.09543971803609, 37.457560472017668 ], [ 127.095371701173917, 37.457815780370069 ], [ 127.095356437612026, 37.457835747473688 ], [ 127.095141134395774, 37.458117402999697 ], [ 127.094844732819496, 37.458515521568245 ], [ 127.094849680793601, 37.458532714983072 ], [ 127.094942960134603, 37.458856852663239 ], [ 127.09510566749303, 37.459424141142598 ], [ 127.095142129860093, 37.459479352205385 ], [ 127.095101275362609, 37.459578559096464 ], [ 127.095011133356437, 37.459797457238572 ], [ 127.095235674653708, 37.460078167655126 ], [ 127.095342871226791, 37.460138143963313 ], [ 127.095556153326896, 37.460257474147262 ], [ 127.095618509795955, 37.460425772626834 ], [ 127.095718191589711, 37.460694845384246 ], [ 127.09565654547437, 37.461015075763733 ], [ 127.095628517446727, 37.461012982430766 ], [ 127.095318757952768, 37.460989845801748 ], [ 127.094878281585125, 37.460980707416546 ], [ 127.094355366922841, 37.46097737948093 ], [ 127.094231808339984, 37.461028239446456 ], [ 127.094116304901121, 37.461075786483818 ], [ 127.093942575760394, 37.461147301696116 ], [ 127.093871945295788, 37.461176375931139 ], [ 127.093685992768954, 37.461198469185874 ], [ 127.093664327107959, 37.461201044709007 ], [ 127.093558592183669, 37.461213606692695 ], [ 127.093088636663524, 37.461280285957251 ], [ 127.09190976765305, 37.462306428658373 ], [ 127.092020826108495, 37.463634261539042 ], [ 127.092068014777794, 37.463883271828138 ], [ 127.092087479374612, 37.46389177039903 ], [ 127.092071699468704, 37.463959970980504 ], [ 127.092052586532986, 37.463951264504132 ], [ 127.092052773700814, 37.464021710522587 ], [ 127.092053189174294, 37.464176883944305 ], [ 127.09205336453509, 37.464265112070485 ], [ 127.092053472721176, 37.464318251582924 ], [ 127.092053638889126, 37.464363841452446 ], [ 127.092053715998205, 37.464427903611238 ], [ 127.09205388710717, 37.464474665272895 ], [ 127.092047583688867, 37.464488041417773 ], [ 127.092049344763424, 37.464644679685691 ], [ 127.092041557919302, 37.464918159714273 ], [ 127.091947375204441, 37.465226024185462 ], [ 127.091680310757269, 37.465625547919451 ], [ 127.091665667320655, 37.465647454593267 ], [ 127.091617922188561, 37.465718879684744 ], [ 127.091256603193074, 37.466062058558862 ], [ 127.091185412310296, 37.466129668910412 ], [ 127.09114961572152, 37.466178701949261 ], [ 127.091117117756625, 37.46617872651224 ], [ 127.090888202966795, 37.46652830049063 ], [ 127.090582644166531, 37.466914404925035 ], [ 127.090525479196558, 37.467002062061304 ], [ 127.090430070125791, 37.467148365574864 ], [ 127.090172637276197, 37.467145106037151 ], [ 127.090134580167629, 37.467144622508243 ], [ 127.090058436154351, 37.46719384515167 ], [ 127.089913127207623, 37.467287775232613 ], [ 127.08970785422737, 37.467420468385967 ], [ 127.089647518112045, 37.467478533060365 ], [ 127.089446823780463, 37.467671664692944 ], [ 127.089324213656113, 37.467869419169411 ], [ 127.089180755367025, 37.46805541572877 ], [ 127.089038000222402, 37.468240501468628 ], [ 127.08897550452231, 37.468148745032018 ], [ 127.088487250736591, 37.4681962043609 ], [ 127.088421996905168, 37.468202548049739 ], [ 127.088303886781659, 37.4683177331151 ], [ 127.08828710320789, 37.468334101122018 ], [ 127.088128399037444, 37.468488876749106 ], [ 127.087793786643061, 37.469248090022681 ], [ 127.087558048793085, 37.469426688692707 ], [ 127.087561095970088, 37.46963570608893 ], [ 127.087563304348308, 37.469787034982566 ], [ 127.087564146751063, 37.469844892946966 ], [ 127.087402233835789, 37.469899098250828 ], [ 127.087163380405698, 37.469979064166274 ], [ 127.087100876391219, 37.47009313706841 ], [ 127.087050344096042, 37.470185366629138 ], [ 127.086907598698119, 37.470445895796999 ], [ 127.086761495153326, 37.470702021584152 ], [ 127.086604137053143, 37.470849916966451 ], [ 127.086245216776277, 37.47101802359542 ], [ 127.085943105810188, 37.471183701629379 ], [ 127.085886090549039, 37.471214970277579 ], [ 127.085456382472501, 37.471257082381143 ], [ 127.085113092708255, 37.471290727002433 ], [ 127.085016674625308, 37.471300181752305 ], [ 127.08456564465591, 37.472166977117197 ], [ 127.084135897488537, 37.47300028320447 ], [ 127.084344255824718, 37.47372513023025 ], [ 127.08452075804378, 37.474276715406511 ], [ 127.084446292379084, 37.474605435308852 ], [ 127.084441478174583, 37.474862548773757 ], [ 127.08446054486447, 37.475143863116379 ], [ 127.084703477165348, 37.475406157913277 ], [ 127.084939245091533, 37.475660720372822 ], [ 127.084478473451142, 37.475796636437742 ], [ 127.084254009522766, 37.47572297877462 ], [ 127.083852526923181, 37.475591231791093 ], [ 127.08323862776912, 37.475702894125206 ], [ 127.082745473482305, 37.475473768326488 ], [ 127.081760240567078, 37.475444123832716 ], [ 127.07899331010276, 37.47491604548896 ], [ 127.078529613674689, 37.475096412055052 ], [ 127.077987541083886, 37.474864874562392 ], [ 127.077963127970804, 37.474854446917249 ], [ 127.077532695250824, 37.4750151939093 ], [ 127.07692397079947, 37.47524251938728 ], [ 127.076909474521969, 37.475217158982154 ], [ 127.076909354699936, 37.475216947633932 ], [ 127.076729271141161, 37.474901847401085 ], [ 127.0765246649228, 37.47452850298302 ], [ 127.076505518174343, 37.474493565990983 ], [ 127.076449516906564, 37.474444415782699 ], [ 127.075949758097721, 37.474005807810336 ], [ 127.075500096766419, 37.473612797440417 ], [ 127.075366825003812, 37.473496314800258 ], [ 127.074865655834742, 37.47325262617256 ], [ 127.074225659210413, 37.47298972112759 ], [ 127.074039778364934, 37.472986247941705 ], [ 127.07385449460881, 37.472982785630478 ], [ 127.07384048341612, 37.472970247597672 ], [ 127.073398428722086, 37.472574693158549 ], [ 127.072905433077736, 37.472172158450817 ], [ 127.07268871218227, 37.471995201443981 ], [ 127.071901073259852, 37.471923349203522 ], [ 127.071744008959868, 37.471768785557131 ], [ 127.071351550458346, 37.471578167925045 ], [ 127.070747894918, 37.471416732488436 ], [ 127.070409614600337, 37.471093128329869 ], [ 127.070168991211531, 37.471038367905642 ], [ 127.069931236798269, 37.47099059940286 ], [ 127.069656292329313, 37.471105681502053 ], [ 127.06859078043388, 37.471061708850051 ], [ 127.068400933364472, 37.470897663100175 ], [ 127.067890582932279, 37.47046575692687 ], [ 127.067321200446983, 37.470333817410378 ], [ 127.067229083355102, 37.470312471065348 ], [ 127.066468247320373, 37.470175155219565 ], [ 127.066267468253457, 37.469936894445162 ], [ 127.065941494064333, 37.469841154249629 ], [ 127.065677831003427, 37.469590465090668 ], [ 127.065507365209669, 37.469523265423504 ], [ 127.065504624567069, 37.469522182722237 ], [ 127.065248688933124, 37.469423245003213 ], [ 127.065113392721585, 37.469370943918463 ], [ 127.06488255766709, 37.469342874729755 ], [ 127.064519973345057, 37.469287504022326 ], [ 127.064343631137191, 37.469263342809697 ], [ 127.064187282876034, 37.469241919510964 ], [ 127.063865947826415, 37.469033822091966 ], [ 127.063246638689648, 37.469079296158711 ], [ 127.062880771159982, 37.469251046737355 ], [ 127.06260565104769, 37.469378060289877 ], [ 127.062422721809341, 37.469359927195654 ], [ 127.062152921365367, 37.46911874119035 ], [ 127.06185015133056, 37.469080549399735 ], [ 127.061656119516158, 37.469000152761261 ], [ 127.061644745960578, 37.469000022235527 ], [ 127.061040566028055, 37.468993039986174 ], [ 127.060918533835292, 37.46891797705274 ], [ 127.060414396584761, 37.469098230576655 ], [ 127.059994278994296, 37.469075868858091 ], [ 127.059738513982694, 37.469109773759513 ], [ 127.059109732505021, 37.469158989191065 ], [ 127.059074309850232, 37.469130537951699 ], [ 127.058727235480603, 37.468851760921794 ], [ 127.057808098660445, 37.468845887639731 ], [ 127.057349252960549, 37.468917935526918 ], [ 127.05718638556597, 37.468943508135951 ], [ 127.056993022852282, 37.468769804331203 ], [ 127.056591420027985, 37.468429700480307 ], [ 127.056238519415842, 37.468387392473261 ], [ 127.056117826503112, 37.468372924742944 ], [ 127.055632357632646, 37.468620633814574 ], [ 127.055537191064616, 37.468671756418402 ], [ 127.055391310910423, 37.46875012747261 ], [ 127.055370327595099, 37.468761400300799 ], [ 127.055056345507424, 37.468797035558666 ], [ 127.05495198713048, 37.468593988815066 ], [ 127.054937250057947, 37.468565313188918 ], [ 127.0545814200606, 37.468311192013729 ], [ 127.05423754902327, 37.468054596464526 ], [ 127.053771131738046, 37.468023287522087 ], [ 127.05376804348289, 37.468023077559671 ], [ 127.053587467860041, 37.468010951785665 ], [ 127.053444490718334, 37.46807188279876 ], [ 127.053313222545938, 37.468127824681709 ], [ 127.053210864024777, 37.468077269565725 ], [ 127.053078549070065, 37.468011923247197 ], [ 127.052909832131405, 37.467971632189744 ], [ 127.051968200199795, 37.467745992942611 ], [ 127.051327334084917, 37.467426625386366 ], [ 127.051065861431553, 37.467325281592515 ], [ 127.050798619534206, 37.46724554623205 ], [ 127.050773217732143, 37.467399125084498 ], [ 127.05095171681711, 37.467584909532917 ], [ 127.051119950759812, 37.468537811261328 ], [ 127.05105042094452, 37.469365231961596 ], [ 127.050446043212048, 37.469734672912168 ], [ 127.050307789589567, 37.469680450786903 ], [ 127.050156117807049, 37.469709526549124 ], [ 127.050113561311235, 37.469717680514883 ], [ 127.049826750021751, 37.469777102157131 ], [ 127.049522447027698, 37.469838196050979 ], [ 127.049236462666912, 37.469861828049147 ], [ 127.048868748762814, 37.469892278942162 ], [ 127.048859253637147, 37.469893066537338 ], [ 127.048669221745541, 37.470059736753257 ], [ 127.049060984298052, 37.470343577495008 ], [ 127.049091864241106, 37.470365450655251 ], [ 127.049128615705058, 37.470391481668848 ], [ 127.049404345663874, 37.470592293705607 ], [ 127.049605430910688, 37.470736193317833 ], [ 127.049808549798769, 37.470878288593248 ], [ 127.05001392958124, 37.471018400114119 ], [ 127.050221230440187, 37.471156618514392 ], [ 127.050617960125066, 37.471410627022706 ], [ 127.050926098288201, 37.471617509545936 ], [ 127.051181279658437, 37.47178883593638 ], [ 127.051181515071008, 37.471788994569209 ], [ 127.05118096406953, 37.471789035741757 ], [ 127.050900157023889, 37.471810376703516 ], [ 127.050797524332154, 37.471909387165766 ], [ 127.049991281539292, 37.472687168890033 ], [ 127.04984338035058, 37.472829846609635 ], [ 127.049821953010095, 37.472850523377588 ], [ 127.049800223085541, 37.472871491030425 ], [ 127.049209682526083, 37.473441343945403 ], [ 127.049190692567478, 37.473459668322469 ], [ 127.049166524556711, 37.473482988125831 ], [ 127.048979318622571, 37.473663534270599 ], [ 127.048847864594592, 37.473790357214902 ], [ 127.048718560069148, 37.473915107872038 ], [ 127.048532928684878, 37.47409412157841 ], [ 127.048512241482698, 37.474114031166152 ], [ 127.048489659132954, 37.474135765078628 ], [ 127.047589524151178, 37.475004235887013 ], [ 127.047554746235406, 37.475037765028844 ], [ 127.047517440597218, 37.475073730779833 ], [ 127.046740327005438, 37.475823394015563 ], [ 127.046648323440166, 37.475912120944876 ], [ 127.046552090033757, 37.476004927361103 ], [ 127.046069067395464, 37.47647092869623 ], [ 127.046009903903368, 37.476598714740938 ], [ 127.045974337019146, 37.476675673442067 ], [ 127.045923944291999, 37.476724346275709 ], [ 127.045890877857232, 37.476756262643526 ], [ 127.045770054158027, 37.476872888850671 ], [ 127.045641132695394, 37.476997275171485 ], [ 127.045609260163857, 37.477012784036432 ], [ 127.045551504720436, 37.477040826845169 ], [ 127.045525417409308, 37.477053497012847 ], [ 127.045403898862133, 37.477112512269478 ], [ 127.045357798963352, 37.477157038879525 ], [ 127.045311360261749, 37.477204087982905 ], [ 127.045267975583869, 37.477252938927613 ], [ 127.045227646035869, 37.477303409645948 ], [ 127.045190367632628, 37.477355411792097 ], [ 127.045156482499962, 37.477408852944293 ], [ 127.045125876900983, 37.47746346586414 ], [ 127.045098663414237, 37.477519337518508 ], [ 127.044879616208618, 37.478004517711092 ], [ 127.044868146399637, 37.47802992260084 ], [ 127.044856470174295, 37.478055793600014 ], [ 127.044837046196946, 37.478098688531425 ], [ 127.044742801481064, 37.478307492023866 ], [ 127.044651082986434, 37.478510693285216 ], [ 127.044343958406984, 37.479190881581872 ], [ 127.044302008986165, 37.479283767434751 ], [ 127.044227316946959, 37.479449153340973 ], [ 127.044052202812367, 37.479836932414763 ], [ 127.044049350416131, 37.479843248970539 ], [ 127.044004757644956, 37.47994198876777 ], [ 127.043778136906781, 37.480052951354516 ], [ 127.043543833210592, 37.480167675852158 ], [ 127.043659894527266, 37.480299786151278 ], [ 127.043888996764679, 37.480560568664529 ], [ 127.043862453892956, 37.480609231691012 ], [ 127.043825522944246, 37.480680860971113 ], [ 127.043546683879413, 37.481221664924014 ], [ 127.043511088175379, 37.481253123746463 ], [ 127.043506906980497, 37.481260693454793 ], [ 127.043437109002028, 37.481388660535032 ], [ 127.043412034272805, 37.481434619630988 ], [ 127.043358264413413, 37.481518882066077 ], [ 127.043317825146389, 37.481582327669493 ], [ 127.043311303579031, 37.481592526610754 ], [ 127.043299137445885, 37.481611552403692 ], [ 127.043283596875327, 37.481635858850183 ], [ 127.043212541802745, 37.48174724848738 ], [ 127.043136518652886, 37.481866476942059 ], [ 127.043155798629058, 37.481973508901561 ], [ 127.043157967686639, 37.481975792326011 ], [ 127.043156368053431, 37.481979186077979 ], [ 127.043101968462679, 37.482094682648615 ], [ 127.043086547167434, 37.482127421768524 ], [ 127.043037565104484, 37.482231418049309 ], [ 127.04306297472867, 37.482259074560261 ], [ 127.042951096380705, 37.482271992796242 ], [ 127.04292602562046, 37.48232741429274 ], [ 127.042880743351276, 37.48242725962394 ], [ 127.042782498138038, 37.482644075223511 ], [ 127.04276401930953, 37.482684976915579 ], [ 127.042745572547602, 37.482725810225048 ], [ 127.042577650677771, 37.483096629431692 ], [ 127.042490358497446, 37.483289294616242 ], [ 127.042411873099724, 37.483462764187955 ], [ 127.04227116621162, 37.483773387212707 ], [ 127.042260171040908, 37.483797641718432 ], [ 127.042248127911648, 37.483824212267592 ], [ 127.04212672810506, 37.484092482810901 ], [ 127.041982176791961, 37.484411575970363 ], [ 127.041984051015405, 37.484411949188861 ], [ 127.041931925705697, 37.484527101547833 ], [ 127.041879752640924, 37.484642268117753 ], [ 127.041829159557125, 37.484753918268517 ], [ 127.041752929007018, 37.484922162791044 ], [ 127.041684267580749, 37.485073734394405 ], [ 127.04167066910631, 37.485103765480254 ], [ 127.041653096514267, 37.485142580236833 ], [ 127.041607923400548, 37.48523936442372 ], [ 127.041712924495613, 37.4853862808462 ], [ 127.041750038381565, 37.485437084917862 ], [ 127.041547432467823, 37.485409095817445 ], [ 127.041416979118736, 37.485391185150256 ], [ 127.041410832216116, 37.485390325729021 ], [ 127.041353294255373, 37.485382402950584 ], [ 127.041011241953072, 37.485335395409876 ], [ 127.04069972139061, 37.485292421992334 ], [ 127.040527266017662, 37.485268524256654 ], [ 127.040086846086368, 37.485207495653512 ], [ 127.039998431727369, 37.48519524446327 ], [ 127.03999942671912, 37.485196046042027 ], [ 127.039541018980643, 37.485132710894455 ], [ 127.039502591419307, 37.485127398124675 ], [ 127.039471507607729, 37.48512310186014 ], [ 127.039398629521003, 37.48511302717629 ], [ 127.038739993772154, 37.485021979983017 ], [ 127.03854425478093, 37.484994921117817 ], [ 127.038285089647161, 37.484957800055518 ], [ 127.038251107685355, 37.484953198300431 ], [ 127.03820361453711, 37.484946768043791 ], [ 127.038155834334702, 37.4849402987888 ], [ 127.038108332898972, 37.484933563801363 ], [ 127.037928975459295, 37.484908103879398 ], [ 127.037918597528076, 37.484906631929164 ], [ 127.037903172461014, 37.484904444386814 ], [ 127.0378887883017, 37.484902394315235 ], [ 127.037866817506185, 37.484899103137309 ], [ 127.037687663456481, 37.484872235718491 ], [ 127.037555298514249, 37.484852796319409 ], [ 127.037527832877402, 37.484848760678929 ], [ 127.037509934537638, 37.484846134355926 ], [ 127.037486894315734, 37.484842750587681 ], [ 127.037476328000736, 37.484841198541368 ], [ 127.037462260092553, 37.484838309587246 ], [ 127.036812083560037, 37.484747913921886 ], [ 127.036441244532881, 37.484696354616325 ], [ 127.036362124755968, 37.484685354012349 ], [ 127.035662656738012, 37.484588099326992 ], [ 127.035203210184747, 37.48452421417992 ], [ 127.035083578945745, 37.48450758027365 ], [ 127.034370627367863, 37.484408442333056 ], [ 127.034179174486496, 37.484381842011416 ], [ 127.034087153782423, 37.484369057504807 ], [ 127.034005258362384, 37.4845406313217 ], [ 127.034002745174789, 37.484545891668276 ], [ 127.033572251625174, 37.485447637113872 ], [ 127.0335659036961, 37.48546093236672 ], [ 127.03320754004838, 37.486211571181663 ], [ 127.033096038804288, 37.486445120277573 ], [ 127.033063051319616, 37.486514213523598 ], [ 127.032667378846298, 37.487342966430511 ], [ 127.032610232936037, 37.487462661909547 ], [ 127.032442192374319, 37.487814624633863 ], [ 127.032440358583031, 37.487818466186631 ], [ 127.032356079823842, 37.487994986790795 ], [ 127.032153640219292, 37.4884189911512 ], [ 127.032098460594909, 37.488534561404727 ], [ 127.031871276036128, 37.489010387396057 ], [ 127.031871109854507, 37.489010733761354 ], [ 127.03161576559863, 37.48954552910017 ], [ 127.03161130011658, 37.489554881938787 ], [ 127.031358921927577, 37.49008345100917 ], [ 127.030657361644074, 37.491552715115077 ], [ 127.030474351003249, 37.49193598350103 ], [ 127.029953869639272, 37.493025962655658 ], [ 127.029948650628882, 37.493036893411727 ], [ 127.029168265956329, 37.494671092088844 ], [ 127.029168138709238, 37.494671359285483 ], [ 127.028387783861362, 37.496305422583724 ], [ 127.028387235911737, 37.496306566925178 ], [ 127.028239616122164, 37.49661567372025 ], [ 127.028229423572029, 37.496637017763376 ], [ 127.027602733326361, 37.497949235740279 ], [ 127.027602321757655, 37.497950097596373 ], [ 127.027601035451113, 37.497952792924053 ], [ 127.027600651419135, 37.497953593597821 ], [ 127.027331417236908, 37.498517333388413 ], [ 127.026869231347419, 37.499485071229984 ], [ 127.026858699822355, 37.499507119548532 ], [ 127.026450371361022, 37.500362062526044 ], [ 127.026272366543921, 37.500734754618954 ], [ 127.026115868764862, 37.501062415197438 ], [ 127.025658846239054, 37.50201927109083 ], [ 127.025382007177157, 37.50259886457377 ], [ 127.025381873023449, 37.502599146159881 ], [ 127.025227924282319, 37.502921449893606 ], [ 127.025109216979132, 37.503169973809563 ], [ 127.024947536615841, 37.503508461488444 ], [ 127.024758486294772, 37.503904243596942 ], [ 127.024487549764061, 37.504471453118413 ], [ 127.024484584576996, 37.504477660551366 ], [ 127.024198126871639, 37.505078505923429 ], [ 127.023875704004723, 37.505754781703075 ], [ 127.023254321353889, 37.507058078425729 ], [ 127.022957246505911, 37.507681150158994 ], [ 127.022540828988994, 37.508554506218921 ], [ 127.022504315249677, 37.508631086650198 ], [ 127.022330392323724, 37.508995850420334 ], [ 127.022032487719798, 37.509620627901938 ], [ 127.0215671468127, 37.510596536884641 ], [ 127.021362529223126, 37.511025651505641 ], [ 127.021327117527036, 37.511099908696764 ], [ 127.021326334189013, 37.511101555906521 ], [ 127.021296314691483, 37.511164374187999 ], [ 127.021295500445305, 37.511166077156382 ], [ 127.020915401136762, 37.511961467891538 ], [ 127.020790270364131, 37.512223313649109 ], [ 127.020570673825929, 37.512682827325968 ], [ 127.020515117692398, 37.512799076900187 ], [ 127.020244791154411, 37.5137040073446 ], [ 127.020162797105215, 37.513978485194293 ], [ 127.019982731663646, 37.514581242190971 ], [ 127.019915970694001, 37.514804720805536 ], [ 127.01971216653267, 37.515486929079827 ], [ 127.019700300916526, 37.515526647756595 ], [ 127.01968111421516, 37.515590875176557 ], [ 127.019526182183725, 37.516109476546887 ], [ 127.019525314911931, 37.516112375384985 ], [ 127.019495716896387, 37.516211440184733 ], [ 127.019278964162794, 37.516936848210626 ], [ 127.019063739412601, 37.517657133245962 ], [ 127.018971541598702, 37.517965679414502 ], [ 127.018837735656163, 37.518413475872755 ], [ 127.01866265092346, 37.518999399795419 ], [ 127.018662121241022, 37.519001174208398 ], [ 127.018348269716455, 37.52005145828219 ], [ 127.018254340322059, 37.520365785191331 ], [ 127.017962879689748, 37.521341110667741 ], [ 127.017822168361164, 37.521811963006975 ], [ 127.017816322529995, 37.521819995451892 ], [ 127.017815825876468, 37.521820675749979 ], [ 127.017483943975435, 37.52227667685532 ], [ 127.017172706205699, 37.522704301099189 ], [ 127.017123639978323, 37.522771717437521 ], [ 127.016947660618484, 37.523013500113017 ], [ 127.016939616634971, 37.523024552073949 ], [ 127.016752398366762, 37.523223880635868 ], [ 127.01675103892596, 37.523225328057322 ], [ 127.01637866988608, 37.523621781700733 ], [ 127.016165450176914, 37.523848789789099 ], [ 127.015768517103055, 37.524272005688154 ], [ 127.015601070056221, 37.524450542562462 ], [ 127.015296892854693, 37.524774892681762 ], [ 127.015230768998862, 37.524845402849834 ], [ 127.015229246480601, 37.524843885029014 ], [ 127.014953391310826, 37.524568764994932 ], [ 127.014682424367237, 37.524266467826429 ], [ 127.014528398037157, 37.524099015699676 ], [ 127.014365067847862, 37.52390707677138 ], [ 127.014234267982786, 37.523737127462375 ], [ 127.0141616179111, 37.523660640729126 ], [ 127.014114459776522, 37.52361742507258 ], [ 127.014063407594236, 37.523559369697146 ], [ 127.014003337358147, 37.523496204366687 ], [ 127.013986052092847, 37.523478028627956 ], [ 127.013863119150543, 37.52333492657403 ], [ 127.013741671946264, 37.52321476457508 ], [ 127.013525877240369, 37.523003494324342 ], [ 127.013485794079116, 37.522974738244379 ], [ 127.013435268670491, 37.522954904005317 ], [ 127.013385759442784, 37.522906857924262 ], [ 127.013301079935005, 37.522799215340861 ], [ 127.013250299261102, 37.522720105082051 ], [ 127.013213246745494, 37.522639482125335 ], [ 127.013187346634837, 37.522583125428341 ], [ 127.012692901189197, 37.522903474797324 ], [ 127.012576179642991, 37.522981007189145 ], [ 127.012508652141648, 37.523025858406903 ], [ 127.012328746356729, 37.523140175409189 ], [ 127.012117473298147, 37.523272693409986 ], [ 127.011025625665738, 37.52399549177202 ], [ 127.010094825666073, 37.524602824765978 ], [ 127.009892942921184, 37.524734548436761 ], [ 127.009142741503481, 37.525223558735846 ], [ 127.008888619196199, 37.525396792628541 ], [ 127.008740381698132, 37.52549328349965 ], [ 127.008611802041329, 37.525576980130644 ], [ 127.008594585281045, 37.525589550888313 ], [ 127.008591340900523, 37.525586231221958 ], [ 127.008577481989107, 37.525595519696687 ], [ 127.008626673768148, 37.525645863998783 ], [ 127.008679396336731, 37.525699009054357 ], [ 127.008684774957345, 37.525704430541154 ], [ 127.008711064264617, 37.525730938763246 ], [ 127.008732073227478, 37.525752227807168 ], [ 127.008771400228369, 37.525793381367947 ], [ 127.008802763930035, 37.52582442826229 ], [ 127.008824170726371, 37.52584701509145 ], [ 127.00886759068365, 37.52589033266748 ], [ 127.008889597791708, 37.525913540309958 ], [ 127.008910448431394, 37.525933272926288 ], [ 127.008925067427697, 37.525948570203333 ], [ 127.00894031626909, 37.525963776356555 ], [ 127.008970435784605, 37.525995598605235 ], [ 127.008997440356012, 37.526022654154559 ], [ 127.009023541925856, 37.526049349007451 ], [ 127.009057078325554, 37.526083053044147 ], [ 127.009087829108736, 37.526114063062622 ], [ 127.00911255075107, 37.526139784105403 ], [ 127.009144760653143, 37.526172480297639 ], [ 127.009189529675311, 37.526217058045852 ], [ 127.009218810064738, 37.526246744139499 ], [ 127.009243419331966, 37.526271493027942 ], [ 127.009278933374262, 37.526308087748987 ], [ 127.009321451790086, 37.526352108071919 ], [ 127.009348423255403, 37.526379073267151 ], [ 127.009392697473857, 37.526424588092723 ], [ 127.009427692171741, 37.526459976402151 ], [ 127.009440329225484, 37.526472754209678 ], [ 127.009489488534115, 37.526522702319049 ], [ 127.009546636042899, 37.526581244641939 ], [ 127.009606522491126, 37.526642201319625 ], [ 127.00966078459696, 37.526697922986422 ], [ 127.00972720918827, 37.526765295544614 ], [ 127.009811195067954, 37.526850495826736 ], [ 127.009850035387572, 37.526890794323229 ], [ 127.009880732792624, 37.52692089534662 ], [ 127.00992104383316, 37.52696267273538 ], [ 127.009959365605198, 37.527001636842563 ], [ 127.009970402247575, 37.527011346954019 ], [ 127.010002868564854, 37.52703990675893 ], [ 127.010140857359644, 37.527188129980964 ], [ 127.010236577708113, 37.527290709862363 ], [ 127.010405796719823, 37.52747360756905 ], [ 127.0105310923296, 37.527608821646766 ], [ 127.010597893847475, 37.52768110584757 ], [ 127.010655361084289, 37.527743292224862 ], [ 127.010775894169541, 37.527872764511535 ], [ 127.01098492081222, 37.528097816742907 ], [ 127.011169565777706, 37.528297920963652 ], [ 127.011299050169157, 37.528438222570124 ], [ 127.01143596071347, 37.528585965684933 ], [ 127.011556576105505, 37.528717808065096 ], [ 127.011589525022387, 37.528753445052324 ], [ 127.011594861037281, 37.528759217756779 ], [ 127.011674420474989, 37.528845269099612 ], [ 127.011823369706548, 37.52900557052449 ], [ 127.011947393640668, 37.52913854607106 ], [ 127.01210153515099, 37.529295775152278 ], [ 127.012159501632198, 37.529354324987011 ], [ 127.012218148310893, 37.529415669996048 ], [ 127.012280663731886, 37.529479415934574 ], [ 127.012393214034134, 37.529596752007315 ], [ 127.012464186034038, 37.529670126771293 ], [ 127.012465393455443, 37.52967137382111 ], [ 127.012524774613098, 37.52973315075247 ], [ 127.012597656367134, 37.529807890756786 ], [ 127.012664481469301, 37.529876981276118 ], [ 127.012746901116714, 37.529963027465598 ], [ 127.012823290252356, 37.530042018161836 ], [ 127.012883191208758, 37.530104534362316 ], [ 127.012987429734608, 37.53021221813524 ], [ 127.013087419437767, 37.530316823300574 ], [ 127.013171572867037, 37.530404257212076 ], [ 127.01324016452152, 37.530474932052684 ], [ 127.013318060175408, 37.530555635798066 ], [ 127.013374015245617, 37.530613989259109 ], [ 127.013386896394039, 37.530627732093429 ], [ 127.013401760288389, 37.530643592263189 ], [ 127.013540663214897, 37.530763249532647 ], [ 127.013707300269033, 37.53089930109018 ], [ 127.014047041636502, 37.531273717500568 ], [ 127.014372865500377, 37.531628862440449 ], [ 127.014895680644969, 37.532207621357166 ], [ 127.015199839156921, 37.532316569477302 ], [ 127.015531771530789, 37.532435462718574 ], [ 127.016938749529274, 37.533591660432357 ], [ 127.017191588661206, 37.533799429668647 ], [ 127.017439950415749, 37.534003516064054 ], [ 127.017741516682591, 37.534251318520376 ], [ 127.017759259053108, 37.534259496842694 ], [ 127.017759255460831, 37.53424704733871 ], [ 127.01785280962072, 37.534289668547338 ], [ 127.017870811677028, 37.534297949766028 ], [ 127.017989506655539, 37.534352547029073 ], [ 127.018190827857111, 37.534444727925411 ], [ 127.018278261038802, 37.534484944251425 ], [ 127.018542969462885, 37.534606341771493 ], [ 127.018806162431275, 37.534726622957415 ], [ 127.018830924598007, 37.534738010597302 ], [ 127.01899733535997, 37.534814531978093 ], [ 127.019191167942665, 37.534903251919502 ], [ 127.019400355211204, 37.534998779759164 ], [ 127.019641056620628, 37.535109816110257 ], [ 127.019818425054112, 37.535191355473074 ], [ 127.019971930991233, 37.535262421197515 ], [ 127.020209252040971, 37.535371340694198 ], [ 127.02038515923644, 37.535452541570926 ], [ 127.02045554614206, 37.535485033663413 ], [ 127.020592690057128, 37.535548450856595 ], [ 127.020797536405212, 37.535642975222189 ], [ 127.021003298498599, 37.535737394784455 ], [ 127.021165147328219, 37.535812204569083 ], [ 127.021171212202646, 37.535814995413112 ], [ 127.021178688907113, 37.535818435547384 ], [ 127.021423078085945, 37.535816396766819 ], [ 127.021577846080632, 37.535814728133552 ], [ 127.02173993481901, 37.535813097959654 ], [ 127.021927015524057, 37.535811100939675 ], [ 127.021999385696375, 37.535810379874555 ], [ 127.02211281851767, 37.535809251682721 ], [ 127.02228476078767, 37.535807713815259 ], [ 127.022506315684993, 37.535805449722396 ], [ 127.022664556468712, 37.535803745934921 ], [ 127.022819064797503, 37.535802320694472 ], [ 127.022954858195362, 37.535800963868255 ], [ 127.023119047131757, 37.535799415097443 ], [ 127.023151669850947, 37.535799106971247 ], [ 127.023303450615714, 37.535797637634367 ] ] ] ] } }
]
}
