{
"type": "FeatureCollection",
"name": "mulgeum_walk_5min",
"crs": { "type": "name", "properties": { "name": "urn:ogc:def:crs:OGC:1.3:CRS84" } },
"features": [
{ "type": "Feature", "properties": { "ID": null, "CENTER_LON": "128.998201059953", "CENTER_LAT": "35.327853662987344", "AA_MINS": 5, "AA_MODE": "foot-walking", "TOTAL_POP": "2100" }, "geometry": { "type": "MultiPolygon", "coordinates": [ [ [ [ 128.995993, 35.329933 ], [ 128.996762, 35.331229 ], [ 128.997172, 35.331329 ], [ 128.997529, 35.331375 ], [ 128.998113, 35.331313 ], [ 129.000439, 35.330837 ], [ 129.000695, 35.330583 ], [ 129.001653, 35.329339 ], [ 129.001655, 35.328581 ], [ 129.001452, 35.325256 ], [ 129.001216, 35.324984 ], [ 129.000074, 35.324999 ], [ 128.999772, 35.325015 ], [ 128.999742, 35.325027 ], [ 128.999709, 35.325042 ], [ 128.999491, 35.325216 ], [ 128.995878, 35.328146 ], [ 128.995654, 35.328428 ], [ 128.99562, 35.329275 ], [ 128.995993, 35.329933 ] ] ] ] } },
{ "type": "Feature", "properties": { "ID": null, "CENTER_LON": "129.0070572242454", "CENTER_LAT": "35.31640618067514", "AA_MINS": 5, "AA_MODE": "foot-walking", "TOTAL_POP": "2802" }, "geometry": { "type": "MultiPolygon", "coordinates": [ [ [ [ 129.003509, 35.316504 ], [ 129.003946, 35.316963 ], [ 129.008013, 35.319203 ], [ 129.009483, 35.318336 ], [ 129.009965, 35.31792 ], [ 129.010448, 35.317503 ], [ 129.010523, 35.315486 ], [ 129.010393, 35.314567 ], [ 129.010184, 35.314274 ], [ 129.007287, 35.31361 ], [ 129.004841, 35.313659 ], [ 129.003842, 35.31368 ], [ 129.003622, 35.313964 ], [ 129.003509, 35.316504 ] ] ] ] } },
{ "type": "Feature", "properties": { "ID": null, "CENTER_LON": "129.00571527070784", "CENTER_LAT": "35.33177615602967", "AA_MINS": 5, "AA_MODE": "foot-walking", "TOTAL_POP": "3817" }, "geometry": { "type": "MultiPolygon", "coordinates": [ [ [ [ 129.003345, 35.334454 ], [ 129.003582, 35.334713 ], [ 129.004899, 35.334723 ], [ 129.007865, 35.333488 ], [ 129.008278, 35.333113 ], [ 129.009027, 35.332411 ], [ 129.009248, 35.332127 ], [ 129.007847, 35.32939 ], [ 129.007612, 35.329117 ], [ 129.005037, 35.328986 ], [ 129.002268, 35.329461 ], [ 129.002044, 35.329743 ], [ 129.001779, 35.331348 ], [ 129.00197, 35.332853 ], [ 129.003345, 35.334454 ] ] ] ] } },
{ "type": "Feature", "properties": { "ID": null, "CENTER_LON": "129.00891470695373", "CENTER_LAT": "35.330820880272505", "AA_MINS": 5, "AA_MODE": "foot-walking", "TOTAL_POP": "2650" }, "geometry": { "type": "MultiPolygon", "coordinates": [ [ [ [ 129.005406, 35.329714 ], [ 129.00545, 35.330575 ], [ 129.005706, 35.330828 ], [ 129.009331, 35.333612 ], [ 129.010889, 35.333966 ], [ 129.011149, 35.333717 ], [ 129.012314, 35.331095 ], [ 129.012235, 35.328928 ], [ 129.012119, 35.328836 ], [ 129.011613, 35.328435 ], [ 129.011026, 35.327972 ], [ 129.008885, 35.32802 ], [ 129.005623, 35.329427 ], [ 129.005404, 35.329617 ], [ 129.005406, 35.329714 ] ] ] ] } },
{ "type": "Feature", "properties": { "ID": null, "CENTER_LON": "128.9899648", "CENTER_LAT": "35.3173059", "AA_MINS": 5, "AA_MODE": "foot-walking", "TOTAL_POP": "1473" }, "geometry": { "type": "MultiPolygon", "coordinates": [ [ [ [ 128.987624, 35.319299 ], [ 128.987702, 35.319388 ], [ 128.988879, 35.32054 ], [ 128.990325, 35.320326 ], [ 128.991733, 35.320043 ], [ 128.992421, 35.319509 ], [ 128.99278, 35.317236 ], [ 128.993018, 35.31472 ], [ 128.992824, 35.314416 ], [ 128.989358, 35.313654 ], [ 128.989052, 35.313867 ], [ 128.988794, 35.314117 ], [ 128.987812, 35.315567 ], [ 128.98773, 35.316018 ], [ 128.987378, 35.318739 ], [ 128.987458, 35.31894 ], [ 128.987538, 35.319141 ], [ 128.987624, 35.319299 ] ] ] ] } },
{ "type": "Feature", "properties": { "ID": null, "CENTER_LON": "128.99919728445872", "CENTER_LAT": "35.3108729095244", "AA_MINS": 5, "AA_MODE": "foot-walking", "TOTAL_POP": "1510" }, "geometry": { "type": "MultiPolygon", "coordinates": [ [ [ [ 128.995314, 35.312786 ], [ 128.995504, 35.313092 ], [ 128.997821, 35.313206 ], [ 129.001782, 35.313218 ], [ 129.002639, 35.313201 ], [ 129.00286, 35.312916 ], [ 129.002846, 35.312316 ], [ 129.002616, 35.312039 ], [ 128.998697, 35.310001 ], [ 128.997667, 35.309662 ], [ 128.997378, 35.309572 ], [ 128.996302, 35.309923 ], [ 128.995444, 35.311176 ], [ 128.995314, 35.312786 ] ] ] ] } },
{ "type": "Feature", "properties": { "ID": null, "CENTER_LON": "129.009977", "CENTER_LAT": "35.3321238", "AA_MINS": 5, "AA_MODE": "foot-walking", "TOTAL_POP": "2871" }, "geometry": { "type": "MultiPolygon", "coordinates": [ [ [ [ 129.007194, 35.334533 ], [ 129.007202, 35.334543 ], [ 129.007406, 35.334595 ], [ 129.011051, 35.335228 ], [ 129.01224, 35.335319 ], [ 129.01247, 35.335042 ], [ 129.013326, 35.330781 ], [ 129.013295, 35.33026 ], [ 129.013061, 35.329986 ], [ 129.009484, 35.329902 ], [ 129.007556, 35.330729 ], [ 129.007337, 35.331016 ], [ 129.007108, 35.333134 ], [ 129.007194, 35.334533 ] ] ] ] } },
{ "type": "Feature", "properties": { "ID": null, "CENTER_LON": "129.01794793365985", "CENTER_LAT": "35.329319956457454", "AA_MINS": 5, "AA_MODE": "foot-walking", "TOTAL_POP": "1114" }, "geometry": { "type": "MultiPolygon", "coordinates": [ [ [ [ 129.01457, 35.331326 ], [ 129.014807, 35.331597 ], [ 129.016066, 35.331799 ], [ 129.017273, 35.331743 ], [ 129.018093, 35.331017 ], [ 129.01945, 35.329253 ], [ 129.016352, 35.327411 ], [ 129.016128, 35.327437 ], [ 129.014607, 35.328321 ], [ 129.014483, 35.328647 ], [ 129.014362, 35.328991 ], [ 129.014364, 35.330855 ], [ 129.01457, 35.331326 ] ] ] ] } },
{ "type": "Feature", "properties": { "ID": null, "CENTER_LON": "129.00621249739999", "CENTER_LAT": "35.31477311644126", "AA_MINS": 5, "AA_MODE": "foot-walking", "TOTAL_POP": "3490" }, "geometry": { "type": "MultiPolygon", "coordinates": [ [ [ [ 129.002937, 35.317358 ], [ 129.003173, 35.31763 ], [ 129.006699, 35.317659 ], [ 129.008202, 35.317523 ], [ 129.008424, 35.317239 ], [ 129.009516, 35.314347 ], [ 129.009737, 35.312581 ], [ 129.009626, 35.312239 ], [ 129.009142, 35.312056 ], [ 129.006922, 35.311857 ], [ 129.006593, 35.311943 ], [ 129.003027, 35.313046 ], [ 129.002806, 35.31333 ], [ 129.002828, 35.31539 ], [ 129.002937, 35.317358 ] ] ] ] } },
{ "type": "Feature", "properties": { "ID": null, "CENTER_LON": "128.99754609438384", "CENTER_LAT": "35.31261969981078", "AA_MINS": 5, "AA_MODE": "foot-walking", "TOTAL_POP": "2918" }, "geometry": { "type": "MultiPolygon", "coordinates": [ [ [ [ 128.993862, 35.313668 ], [ 128.994049, 35.313976 ], [ 128.99795, 35.315396 ], [ 128.999271, 35.315384 ], [ 129.000759, 35.315349 ], [ 129.000978, 35.315064 ], [ 129.000935, 35.313948 ], [ 128.998422, 35.309908 ], [ 128.998235, 35.309845 ], [ 128.998048, 35.309781 ], [ 128.997666, 35.309662 ], [ 128.994379, 35.309857 ], [ 128.994153, 35.310138 ], [ 128.993744, 35.313007 ], [ 128.993862, 35.313668 ] ] ] ] } },
{ "type": "Feature", "properties": { "ID": null, "CENTER_LON": "129.01737807953", "CENTER_LAT": "35.330467424419744", "AA_MINS": 5, "AA_MODE": "foot-walking", "TOTAL_POP": "1508" }, "geometry": { "type": "MultiPolygon", "coordinates": [ [ [ [ 129.014064, 35.331767 ], [ 129.014301, 35.332038 ], [ 129.016572, 35.332163 ], [ 129.01738, 35.332094 ], [ 129.017518, 35.331977 ], [ 129.017656, 35.331861 ], [ 129.017656, 35.331861 ], [ 129.017933, 35.331627 ], [ 129.01945, 35.329253 ], [ 129.016989, 35.327918 ], [ 129.01576, 35.327677 ], [ 129.015682, 35.327714 ], [ 129.014607, 35.328321 ], [ 129.01398, 35.32919 ], [ 129.013838, 35.330032 ], [ 129.014064, 35.331767 ] ] ] ] } },
{ "type": "Feature", "properties": { "ID": null, "CENTER_LON": "128.99641773568385", "CENTER_LAT": "35.31630008213975", "AA_MINS": 5, "AA_MODE": "foot-walking", "TOTAL_POP": "3854" }, "geometry": { "type": "MultiPolygon", "coordinates": [ [ [ [ 128.994622, 35.318918 ], [ 128.994858, 35.319191 ], [ 128.995206, 35.319193 ], [ 128.997973, 35.319137 ], [ 128.999532, 35.319104 ], [ 128.999755, 35.318821 ], [ 128.999696, 35.316316 ], [ 128.999646, 35.31506 ], [ 128.999411, 35.314787 ], [ 128.994335, 35.313381 ], [ 128.993571, 35.313314 ], [ 128.993321, 35.313573 ], [ 128.993248, 35.314042 ], [ 128.994622, 35.318918 ] ] ] ] } },
{ "type": "Feature", "properties": { "ID": null, "CENTER_LON": "128.99320970084426", "CENTER_LAT": "35.30902905007659", "AA_MINS": 5, "AA_MODE": "foot-walking", "TOTAL_POP": "2203" }, "geometry": { "type": "MultiPolygon", "coordinates": [ [ [ [ 128.990921, 35.311387 ], [ 128.991131, 35.31168 ], [ 128.991363, 35.311691 ], [ 128.99629, 35.311857 ], [ 128.996516, 35.311576 ], [ 128.995222, 35.310536 ], [ 128.992726, 35.306514 ], [ 128.990373, 35.306037 ], [ 128.990162, 35.306036 ], [ 128.990143, 35.306049 ], [ 128.989951, 35.307769 ], [ 128.990072, 35.309245 ], [ 128.990921, 35.311387 ] ] ] ] } },
{ "type": "Feature", "properties": { "ID": null, "CENTER_LON": "129.016153", "CENTER_LAT": "35.335526", "AA_MINS": 5, "AA_MODE": "foot-walking", "TOTAL_POP": "1889" }, "geometry": { "type": "MultiPolygon", "coordinates": [ [ [ [ 129.012323, 35.33531 ], [ 129.012858, 35.335909 ], [ 129.012858, 35.335909 ], [ 129.013091, 35.336049 ], [ 129.013203, 35.336098 ], [ 129.014584, 35.336522 ], [ 129.018945, 35.337684 ], [ 129.019, 35.337642 ], [ 129.019219, 35.337356 ], [ 129.019104, 35.336706 ], [ 129.018644, 35.334611 ], [ 129.018409, 35.334338 ], [ 129.015375, 35.333506 ], [ 129.015018, 35.333504 ], [ 129.014371, 35.333524 ], [ 129.013179, 35.333679 ], [ 129.012622, 35.334228 ], [ 129.01245, 35.33454 ], [ 129.012323, 35.33531 ] ] ] ] } },
{ "type": "Feature", "properties": { "ID": null, "CENTER_LON": "128.99185627285405", "CENTER_LAT": "35.310961734349966", "AA_MINS": 5, "AA_MODE": "foot-walking", "TOTAL_POP": "4303" }, "geometry": { "type": "MultiPolygon", "coordinates": [ [ [ [ 128.989059, 35.313536 ], [ 128.989365, 35.313888 ], [ 128.993631, 35.313871 ], [ 128.99388, 35.313611 ], [ 128.994212, 35.313144 ], [ 128.995385, 35.310667 ], [ 128.992782, 35.308232 ], [ 128.992631, 35.308225 ], [ 128.988918, 35.308841 ], [ 128.988668, 35.3091 ], [ 128.988387, 35.312729 ], [ 128.988568, 35.312954 ], [ 128.988749, 35.313179 ], [ 128.988753, 35.313184 ], [ 128.989059, 35.313536 ] ] ] ] } },
{ "type": "Feature", "properties": { "ID": null, "CENTER_LON": "129.01465385656954", "CENTER_LAT": "35.33468367315772", "AA_MINS": 5, "AA_MODE": "foot-walking", "TOTAL_POP": "3073" }, "geometry": { "type": "MultiPolygon", "coordinates": [ [ [ [ 129.010719, 35.335299 ], [ 129.010584, 35.335632 ], [ 129.012901, 35.337487 ], [ 129.017242, 35.336909 ], [ 129.017473, 35.336664 ], [ 129.017506, 35.336585 ], [ 129.018117, 35.332884 ], [ 129.017575, 35.33216 ], [ 129.01734, 35.331888 ], [ 129.016583, 35.331713 ], [ 129.015094, 35.331745 ], [ 129.01229, 35.331881 ], [ 129.012063, 35.33216 ], [ 129.011174, 35.334182 ], [ 129.010719, 35.335299 ] ] ] ] } },
{ "type": "Feature", "properties": { "ID": null, "CENTER_LON": "129.0196386508544", "CENTER_LAT": "35.33711121740857", "AA_MINS": 5, "AA_MODE": "foot-walking", "TOTAL_POP": "1145" }, "geometry": { "type": "MultiPolygon", "coordinates": [ [ [ [ 129.01588, 35.337079 ], [ 129.017176, 35.339777 ], [ 129.021108, 35.339696 ], [ 129.021783, 35.339216 ], [ 129.021862, 35.338865 ], [ 129.022134, 35.337156 ], [ 129.02115, 35.335419 ], [ 129.019909, 35.335158 ], [ 129.019282, 35.335096 ], [ 129.018362, 35.335279 ], [ 129.015834, 35.335798 ], [ 129.015788, 35.335823 ], [ 129.015582, 35.336118 ], [ 129.01588, 35.337079 ] ] ] ] } },
{ "type": "Feature", "properties": { "ID": null, "CENTER_LON": "129.00362830204963", "CENTER_LAT": "35.33498769003819", "AA_MINS": 5, "AA_MODE": "foot-walking", "TOTAL_POP": "2316" }, "geometry": { "type": "MultiPolygon", "coordinates": [ [ [ [ 129.000346, 35.332861 ], [ 128.999718, 35.334434 ], [ 129.0001, 35.334646 ], [ 129.002805, 35.335789 ], [ 129.004441, 35.336214 ], [ 129.006136, 35.336586 ], [ 129.006879, 35.336389 ], [ 129.007812, 35.335673 ], [ 129.007818, 35.335313 ], [ 129.007668, 35.334465 ], [ 129.007508, 35.334142 ], [ 129.005849, 35.332258 ], [ 129.005583, 35.332016 ], [ 129.003244, 35.332012 ], [ 129.001164, 35.332126 ], [ 129.000604, 35.33261 ], [ 129.000346, 35.332861 ] ] ] ] } },
{ "type": "Feature", "properties": { "ID": null, "CENTER_LON": "128.994498757058", "CENTER_LAT": "35.314455378177335", "AA_MINS": 5, "AA_MODE": "foot-walking", "TOTAL_POP": "4584" }, "geometry": { "type": "MultiPolygon", "coordinates": [ [ [ [ 128.990429, 35.31496 ], [ 128.991071, 35.315804 ], [ 128.992376, 35.315979 ], [ 128.996895, 35.317433 ], [ 128.997397, 35.317425 ], [ 128.99762, 35.317142 ], [ 128.997609, 35.316818 ], [ 128.996889, 35.312229 ], [ 128.996698, 35.311923 ], [ 128.991652, 35.311469 ], [ 128.991402, 35.311728 ], [ 128.990429, 35.31496 ] ] ] ] } }
]
}
