{
"type": "FeatureCollection",
"name": "mulgeum_walk_10min",
"crs": { "type": "name", "properties": { "name": "urn:ogc:def:crs:OGC:1.3:CRS84" } },
"features": [
{ "type": "Feature", "properties": { "ID": null, "CENTER_LON": "128.998201059953", "CENTER_LAT": "35.327853662987344", "AA_MINS": 10, "AA_MODE": "foot-walking", "TOTAL_POP": "6222" }, "geometry": { "type": "MultiPolygon", "coordinates": [ [ [ [ 128.997688, 35.332588 ], [ 128.998587, 35.333543 ], [ 128.999078, 35.333944 ], [ 128.999569, 35.334345 ], [ 129.000191, 35.334345 ], [ 129.003525, 35.333627 ], [ 129.00376, 35.333354 ], [ 129.004917, 35.331711 ], [ 129.004974, 35.331355 ], [ 129.004938, 35.328913 ], [ 129.004942, 35.32534 ], [ 129.00519, 35.32202 ], [ 129.004958, 35.321745 ], [ 128.999481, 35.321775 ], [ 128.997093, 35.322271 ], [ 128.996761, 35.32241 ], [ 128.996085, 35.32272 ], [ 128.995989, 35.322846 ], [ 128.994055, 35.328154 ], [ 128.997469, 35.332333 ], [ 128.997688, 35.332588 ] ] ] ] } },
{ "type": "Feature", "properties": { "ID": null, "CENTER_LON": "129.0070572242454", "CENTER_LAT": "35.31640618067514", "AA_MINS": 10, "AA_MODE": "foot-walking", "TOTAL_POP": "8763" }, "geometry": { "type": "MultiPolygon", "coordinates": [ [ [ [ 129.000549, 35.319407 ], [ 129.000784, 35.31968 ], [ 129.004827, 35.322328 ], [ 129.009433, 35.322209 ], [ 129.009654, 35.321925 ], [ 129.01057, 35.317397 ], [ 129.013039, 35.316753 ], [ 129.013374, 35.31662 ], [ 129.013107, 35.315951 ], [ 129.011555, 35.312294 ], [ 129.011352, 35.311855 ], [ 129.011148, 35.311416 ], [ 129.009281, 35.310912 ], [ 129.005262, 35.310925 ], [ 129.000537, 35.311044 ], [ 129.00031, 35.311324 ], [ 129.000354, 35.315039 ], [ 129.000434, 35.317334 ], [ 129.000549, 35.319407 ] ] ] ] } },
{ "type": "Feature", "properties": { "ID": null, "CENTER_LON": "129.00571527070784", "CENTER_LAT": "35.33177615602967", "AA_MINS": 10, "AA_MODE": "foot-walking", "TOTAL_POP": "11020" }, "geometry": { "type": "MultiPolygon", "coordinates": [ [ [ [ 128.998375, 35.333305 ], [ 128.998566, 35.333522 ], [ 128.999084, 35.333949 ], [ 128.999581, 35.334355 ], [ 129.002805, 35.335789 ], [ 129.004441, 35.336214 ], [ 129.006132, 35.336571 ], [ 129.011954, 35.33532 ], [ 129.012034, 35.335272 ], [ 129.01227, 35.335 ], [ 129.012237, 35.331158 ], [ 129.010967, 35.326412 ], [ 129.010937, 35.32639 ], [ 129.00866, 35.326354 ], [ 129.008092, 35.326369 ], [ 129.005948, 35.326403 ], [ 129.001804, 35.326335 ], [ 129.001465, 35.326356 ], [ 128.999537, 35.326799 ], [ 128.998925, 35.327485 ], [ 128.998714, 35.327777 ], [ 128.998408, 35.330535 ], [ 128.998185, 35.333089 ], [ 128.998375, 35.333305 ] ] ] ] } },
{ "type": "Feature", "properties": { "ID": null, "CENTER_LON": "129.00891470695373", "CENTER_LAT": "35.330820880272505", "AA_MINS": 10, "AA_MODE": "foot-walking", "TOTAL_POP": "11296" }, "geometry": { "type": "MultiPolygon", "coordinates": [ [ [ [ 129.002118, 35.332679 ], [ 129.002343, 35.33296 ], [ 129.005181, 35.335545 ], [ 129.008116, 35.336055 ], [ 129.013326, 35.336461 ], [ 129.014694, 35.336569 ], [ 129.014836, 35.336238 ], [ 129.015795, 35.331114 ], [ 129.015516, 35.328432 ], [ 129.015473, 35.328371 ], [ 129.015238, 35.328099 ], [ 129.012047, 35.325302 ], [ 129.00988, 35.325299 ], [ 129.009174, 35.325309 ], [ 129.0087, 35.325327 ], [ 129.00823, 35.325459 ], [ 129.002378, 35.326765 ], [ 129.002292, 35.326849 ], [ 129.002222, 35.326934 ], [ 129.002004, 35.32722 ], [ 129.001931, 35.331463 ], [ 129.002118, 35.332679 ] ] ] ] } },
{ "type": "Feature", "properties": { "ID": null, "CENTER_LON": "128.9899648", "CENTER_LAT": "35.3173059", "AA_MINS": 10, "AA_MODE": "foot-walking", "TOTAL_POP": "7302" }, "geometry": { "type": "MultiPolygon", "coordinates": [ [ [ [ 128.984844, 35.317165 ], [ 128.984698, 35.321392 ], [ 128.985, 35.321587 ], [ 128.988195, 35.321465 ], [ 128.991441, 35.3234 ], [ 128.993193, 35.323251 ], [ 128.994607, 35.322966 ], [ 128.994862, 35.322712 ], [ 128.995045, 35.322302 ], [ 128.995678, 35.319827 ], [ 128.995765, 35.318408 ], [ 128.996236, 35.313562 ], [ 128.996327, 35.312579 ], [ 128.996137, 35.312273 ], [ 128.990647, 35.311584 ], [ 128.987086, 35.310553 ], [ 128.986756, 35.310467 ], [ 128.985773, 35.31133 ], [ 128.985649, 35.311668 ], [ 128.985146, 35.313174 ], [ 128.984844, 35.317165 ] ] ] ] } },
{ "type": "Feature", "properties": { "ID": null, "CENTER_LON": "128.99919728445872", "CENTER_LAT": "35.3108729095244", "AA_MINS": 10, "AA_MODE": "foot-walking", "TOTAL_POP": "9381" }, "geometry": { "type": "MultiPolygon", "coordinates": [ [ [ [ 128.991636, 35.315028 ], [ 128.991824, 35.315335 ], [ 128.995501, 35.315669 ], [ 128.998626, 35.31594 ], [ 129.002848, 35.315847 ], [ 129.005295, 35.315798 ], [ 129.005965, 35.315785 ], [ 129.006186, 35.315501 ], [ 129.006306, 35.309665 ], [ 129.006166, 35.309333 ], [ 129.004692, 35.309187 ], [ 129.004151, 35.309166 ], [ 128.998329, 35.309002 ], [ 128.99788, 35.308858 ], [ 128.992859, 35.308178 ], [ 128.992565, 35.308161 ], [ 128.992314, 35.308419 ], [ 128.992062, 35.310605 ], [ 128.991636, 35.315028 ] ] ] ] } },
{ "type": "Feature", "properties": { "ID": null, "CENTER_LON": "129.009977", "CENTER_LAT": "35.3321238", "AA_MINS": 10, "AA_MODE": "foot-walking", "TOTAL_POP": "10850" }, "geometry": { "type": "MultiPolygon", "coordinates": [ [ [ [ 129.003048, 35.335561 ], [ 129.003114, 35.335915 ], [ 129.004115, 35.336164 ], [ 129.006134, 35.33658 ], [ 129.010121, 35.337824 ], [ 129.013881, 35.337639 ], [ 129.01424, 35.337616 ], [ 129.016144, 35.337192 ], [ 129.016286, 35.336861 ], [ 129.016788, 35.331875 ], [ 129.016547, 35.328214 ], [ 129.016436, 35.32752 ], [ 129.016195, 35.327253 ], [ 129.013665, 35.327346 ], [ 129.009606, 35.327398 ], [ 129.004244, 35.328369 ], [ 129.004009, 35.328642 ], [ 129.003913, 35.331219 ], [ 129.003048, 35.335561 ] ] ] ] } },
{ "type": "Feature", "properties": { "ID": null, "CENTER_LON": "129.01794793365985", "CENTER_LAT": "35.329319956457454", "AA_MINS": 10, "AA_MODE": "foot-walking", "TOTAL_POP": "6349" }, "geometry": { "type": "MultiPolygon", "coordinates": [ [ [ [ 129.011446, 35.334074 ], [ 129.011684, 35.334344 ], [ 129.011941, 35.334433 ], [ 129.016678, 35.334384 ], [ 129.019681, 35.334362 ], [ 129.019848, 35.334044 ], [ 129.020099, 35.330773 ], [ 129.019854, 35.328947 ], [ 129.018854, 35.326022 ], [ 129.015849, 35.32547 ], [ 129.014437, 35.325492 ], [ 129.01425, 35.325496 ], [ 129.01143, 35.327945 ], [ 129.01121, 35.32823 ], [ 129.010982, 35.331863 ], [ 129.011446, 35.334074 ] ] ] ] } },
{ "type": "Feature", "properties": { "ID": null, "CENTER_LON": "129.00621249739999", "CENTER_LAT": "35.31477311644126", "AA_MINS": 10, "AA_MODE": "foot-walking", "TOTAL_POP": "10567" }, "geometry": { "type": "MultiPolygon", "coordinates": [ [ [ [ 128.999772, 35.320071 ], [ 129.000005, 35.320345 ], [ 129.001097, 35.320324 ], [ 129.006919, 35.320253 ], [ 129.00825, 35.319162 ], [ 129.012328, 35.316771 ], [ 129.012505, 35.316622 ], [ 129.012681, 35.316472 ], [ 129.012718, 35.315529 ], [ 129.011203, 35.310163 ], [ 129.011105, 35.309816 ], [ 129.008414, 35.308822 ], [ 129.004075, 35.308978 ], [ 128.999325, 35.310678 ], [ 128.999316, 35.311038 ], [ 128.999612, 35.316706 ], [ 128.999669, 35.318114 ], [ 128.999772, 35.320071 ] ] ] ] } },
{ "type": "Feature", "properties": { "ID": null, "CENTER_LON": "128.99754609438384", "CENTER_LAT": "35.31261969981078", "AA_MINS": 10, "AA_MODE": "foot-walking", "TOTAL_POP": "12500" }, "geometry": { "type": "MultiPolygon", "coordinates": [ [ [ [ 128.990233, 35.31598 ], [ 128.990444, 35.316272 ], [ 128.995988, 35.31811 ], [ 129.001661, 35.318035 ], [ 129.004055, 35.317952 ], [ 129.004281, 35.317672 ], [ 129.004321, 35.316639 ], [ 129.004121, 35.311254 ], [ 129.003891, 35.310977 ], [ 128.998778, 35.309145 ], [ 128.998367, 35.309014 ], [ 128.997955, 35.308882 ], [ 128.992616, 35.307068 ], [ 128.992399, 35.307058 ], [ 128.991379, 35.307038 ], [ 128.991135, 35.307302 ], [ 128.991022, 35.30817 ], [ 128.990724, 35.311077 ], [ 128.99028, 35.315337 ], [ 128.990229, 35.315861 ], [ 128.990233, 35.31598 ] ] ] ] } },
{ "type": "Feature", "properties": { "ID": null, "CENTER_LON": "129.01737807953", "CENTER_LAT": "35.330467424419744", "AA_MINS": 10, "AA_MODE": "foot-walking", "TOTAL_POP": "8112" }, "geometry": { "type": "MultiPolygon", "coordinates": [ [ [ [ 129.010745, 35.332067 ], [ 129.010865, 35.333855 ], [ 129.011854, 35.334909 ], [ 129.016552, 35.334779 ], [ 129.01968, 35.334685 ], [ 129.019832, 35.334633 ], [ 129.020078, 35.334532 ], [ 129.020216, 35.3342 ], [ 129.020406, 35.332039 ], [ 129.019956, 35.329804 ], [ 129.019614, 35.32606 ], [ 129.019382, 35.325845 ], [ 129.016606, 35.324912 ], [ 129.013713, 35.32508 ], [ 129.010893, 35.327529 ], [ 129.010673, 35.327814 ], [ 129.010617, 35.329594 ], [ 129.010745, 35.332067 ] ] ] ] } },
{ "type": "Feature", "properties": { "ID": null, "CENTER_LON": "128.99641773568385", "CENTER_LAT": "35.31630008213975", "AA_MINS": 10, "AA_MODE": "foot-walking", "TOTAL_POP": "13368" }, "geometry": { "type": "MultiPolygon", "coordinates": [ [ [ [ 128.991567, 35.321238 ], [ 128.991752, 35.321547 ], [ 128.997191, 35.322509 ], [ 129.002864, 35.321685 ], [ 129.003084, 35.3214 ], [ 129.003184, 35.315901 ], [ 129.002809, 35.312347 ], [ 129.002579, 35.31207 ], [ 128.99738, 35.311082 ], [ 128.992125, 35.310563 ], [ 128.990599, 35.310457 ], [ 128.99035, 35.310716 ], [ 128.989737, 35.314275 ], [ 128.989658, 35.316383 ], [ 128.989759, 35.316674 ], [ 128.991567, 35.321238 ] ] ] ] } },
{ "type": "Feature", "properties": { "ID": null, "CENTER_LON": "128.99320970084426", "CENTER_LAT": "35.30902905007659", "AA_MINS": 10, "AA_MODE": "foot-walking", "TOTAL_POP": "9188" }, "geometry": { "type": "MultiPolygon", "coordinates": [ [ [ [ 128.98818, 35.312621 ], [ 128.989489, 35.314029 ], [ 128.98986, 35.314397 ], [ 128.990231, 35.314764 ], [ 128.994335, 35.314548 ], [ 128.996808, 35.314491 ], [ 128.9996, 35.314457 ], [ 128.999822, 35.314173 ], [ 129.000488, 35.311009 ], [ 129.000279, 35.31089 ], [ 128.998788, 35.310026 ], [ 128.998697, 35.310001 ], [ 128.997667, 35.309662 ], [ 128.997478, 35.309603 ], [ 128.997288, 35.309544 ], [ 128.992726, 35.306514 ], [ 128.991335, 35.303486 ], [ 128.991148, 35.303179 ], [ 128.990804, 35.303388 ], [ 128.99046, 35.303598 ], [ 128.990284, 35.303715 ], [ 128.990114, 35.303828 ], [ 128.989833, 35.304066 ], [ 128.987824, 35.305966 ], [ 128.986747, 35.307253 ], [ 128.986512, 35.307654 ], [ 128.986438, 35.308006 ], [ 128.986446, 35.310373 ], [ 128.98818, 35.312621 ] ] ] ] } },
{ "type": "Feature", "properties": { "ID": null, "CENTER_LON": "129.016153", "CENTER_LAT": "35.335526", "AA_MINS": 10, "AA_MODE": "foot-walking", "TOTAL_POP": "6736" }, "geometry": { "type": "MultiPolygon", "coordinates": [ [ [ [ 129.008743, 35.335296 ], [ 129.008903, 35.335619 ], [ 129.013878, 35.338732 ], [ 129.016457, 35.339871 ], [ 129.021613, 35.339877 ], [ 129.022291, 35.339383 ], [ 129.022376, 35.339033 ], [ 129.023009, 35.335491 ], [ 129.023037, 35.335132 ], [ 129.022788, 35.335113 ], [ 129.018582, 35.331077 ], [ 129.018349, 35.330803 ], [ 129.015047, 35.330547 ], [ 129.01464, 35.330614 ], [ 129.01146, 35.331452 ], [ 129.009736, 35.332514 ], [ 129.009667, 35.332574 ], [ 129.009444, 35.332857 ], [ 129.008817, 35.334918 ], [ 129.008743, 35.335296 ] ] ] ] } },
{ "type": "Feature", "properties": { "ID": null, "CENTER_LON": "128.99185627285405", "CENTER_LAT": "35.310961734349966", "AA_MINS": 10, "AA_MODE": "foot-walking", "TOTAL_POP": "11710" }, "geometry": { "type": "MultiPolygon", "coordinates": [ [ [ [ 128.984974, 35.311423 ], [ 128.985182, 35.313187 ], [ 128.986492, 35.314192 ], [ 128.990226, 35.316429 ], [ 128.991557, 35.316558 ], [ 128.996603, 35.316728 ], [ 128.996852, 35.316468 ], [ 128.998677, 35.313276 ], [ 128.999021, 35.311075 ], [ 128.998925, 35.310728 ], [ 128.997732, 35.310408 ], [ 128.997683, 35.310392 ], [ 128.992848, 35.307125 ], [ 128.992726, 35.306514 ], [ 128.989661, 35.305365 ], [ 128.987574, 35.305932 ], [ 128.985946, 35.306578 ], [ 128.985729, 35.306712 ], [ 128.985525, 35.307258 ], [ 128.98501, 35.309465 ], [ 128.98495, 35.309819 ], [ 128.984974, 35.311423 ] ] ] ] } },
{ "type": "Feature", "properties": { "ID": null, "CENTER_LON": "129.01465385656954", "CENTER_LAT": "35.33468367315772", "AA_MINS": 10, "AA_MODE": "foot-walking", "TOTAL_POP": "8729" }, "geometry": { "type": "MultiPolygon", "coordinates": [ [ [ [ 129.006882, 35.336029 ], [ 129.006874, 35.336389 ], [ 129.008513, 35.336629 ], [ 129.012027, 35.337514 ], [ 129.013806, 35.339535 ], [ 129.013882, 35.339678 ], [ 129.014228, 35.339858 ], [ 129.015024, 35.339765 ], [ 129.019969, 35.339141 ], [ 129.020708, 35.338864 ], [ 129.021783, 35.33534 ], [ 129.021856, 35.334988 ], [ 129.019906, 35.329388 ], [ 129.019857, 35.328972 ], [ 129.019123, 35.328865 ], [ 129.014194, 35.329141 ], [ 129.013078, 35.32921 ], [ 129.008254, 35.331583 ], [ 129.008036, 35.33187 ], [ 129.006882, 35.336029 ] ] ] ] } },
{ "type": "Feature", "properties": { "ID": null, "CENTER_LON": "129.0196386508544", "CENTER_LAT": "35.33711121740857", "AA_MINS": 10, "AA_MODE": "foot-walking", "TOTAL_POP": "3929" }, "geometry": { "type": "MultiPolygon", "coordinates": [ [ [ [ 129.013723, 35.339799 ], [ 129.013918, 35.340101 ], [ 129.014946, 35.34087 ], [ 129.015085, 35.340953 ], [ 129.01535, 35.341008 ], [ 129.01603, 35.340954 ], [ 129.01671, 35.3409 ], [ 129.021707, 35.339911 ], [ 129.024267, 35.341366 ], [ 129.024858, 35.341233 ], [ 129.025168, 35.34105 ], [ 129.025627, 35.338192 ], [ 129.025474, 35.337866 ], [ 129.020967, 35.334871 ], [ 129.020723, 35.333964 ], [ 129.020641, 35.333564 ], [ 129.020584, 35.333109 ], [ 129.020527, 35.332646 ], [ 129.020468, 35.332296 ], [ 129.020113, 35.332356 ], [ 129.015378, 35.333199 ], [ 129.013983, 35.333243 ], [ 129.01255, 35.333862 ], [ 129.012138, 35.33516 ], [ 129.012335, 35.335961 ], [ 129.013723, 35.339799 ] ] ] ] } },
{ "type": "Feature", "properties": { "ID": null, "CENTER_LON": "129.00362830204963", "CENTER_LAT": "35.33498769003819", "AA_MINS": 10, "AA_MODE": "foot-walking", "TOTAL_POP": "7745" }, "geometry": { "type": "MultiPolygon", "coordinates": [ [ [ [ 128.998056, 35.332942 ], [ 128.998566, 35.333522 ], [ 128.999084, 35.333949 ], [ 128.999581, 35.334355 ], [ 129.002805, 35.335789 ], [ 129.00558, 35.339582 ], [ 129.005671, 35.339796 ], [ 129.005762, 35.340009 ], [ 129.006093, 35.339869 ], [ 129.010209, 35.337892 ], [ 129.010429, 35.337606 ], [ 129.011171, 35.335871 ], [ 129.011307, 35.335538 ], [ 129.011252, 35.333825 ], [ 129.011195, 35.332048 ], [ 129.010958, 35.331776 ], [ 129.007517, 35.329199 ], [ 129.004952, 35.32921 ], [ 129.001307, 35.329281 ], [ 128.998263, 35.329236 ], [ 128.997334, 35.33 ], [ 128.997093, 35.33063 ], [ 128.997047, 35.330988 ], [ 128.998056, 35.332942 ] ] ] ] } },
{ "type": "Feature", "properties": { "ID": null, "CENTER_LON": "128.994498757058", "CENTER_LAT": "35.314455378177335", "AA_MINS": 10, "AA_MODE": "foot-walking", "TOTAL_POP": "13889" }, "geometry": { "type": "MultiPolygon", "coordinates": [ [ [ [ 128.987787, 35.315978 ], [ 128.989141, 35.318973 ], [ 128.994103, 35.320061 ], [ 128.99602, 35.320421 ], [ 129.000708, 35.320024 ], [ 129.000928, 35.319739 ], [ 129.001218, 35.31841 ], [ 129.000797, 35.314925 ], [ 129.001639, 35.311942 ], [ 129.000517, 35.311028 ], [ 128.999312, 35.310172 ], [ 128.999005, 35.310087 ], [ 128.998697, 35.310001 ], [ 128.993375, 35.30894 ], [ 128.990388, 35.308419 ], [ 128.98868, 35.308612 ], [ 128.98843, 35.308824 ], [ 128.987942, 35.312905 ], [ 128.987916, 35.313154 ], [ 128.987787, 35.315978 ] ] ] ] } }
]
}
