{
"type": "FeatureCollection",
"name": "mulgeum_boundary",
"crs": { "type": "name", "properties": { "name": "urn:ogc:def:crs:OGC:1.3:CRS84" } },
"features": [
{ "type": "Feature", "properties": { "BASE_DATE": "20250630", "ADM_CD": "38100120", "ADM_NM": "물금읍" }, "geometry": { "type": "MultiPolygon", "coordinates": [ [ [ [ 129.015996252273311, 35.346602209639883 ], [ 129.017966744087744, 35.345347706434232 ], [ 129.020771350863015, 35.343562040667194 ], [ 129.021492216672641, 35.343103046741099 ], [ 129.021549421074383, 35.343066623712602 ], [ 129.021590571189193, 35.34247959265096 ], [ 129.022237964552488, 35.342456508036719 ], [ 129.022189146071355, 35.34214515219827 ], [ 129.022188790967192, 35.342142881065293 ], [ 129.022474260751324, 35.341855975938877 ], [ 129.022774360967588, 35.341740634519653 ], [ 129.023036786296956, 35.341845546990456 ], [ 129.023091379179192, 35.342001863137924 ], [ 129.023267663718173, 35.341984822897032 ], [ 129.023643651521212, 35.342228221686213 ], [ 129.023742615672006, 35.342292288541138 ], [ 129.02385462729967, 35.342312736122267 ], [ 129.02402113645482, 35.34234312428606 ], [ 129.02404852764937, 35.34234812167508 ], [ 129.024121134099602, 35.342361374483865 ], [ 129.024213299109846, 35.342378196094927 ], [ 129.024240933343975, 35.342383243568406 ], [ 129.024387001980386, 35.342409899499273 ], [ 129.024438388117375, 35.342419272474054 ], [ 129.024458706361344, 35.342422982262775 ], [ 129.02452957102463, 35.342411459556835 ], [ 129.024992755973926, 35.342336135958 ], [ 129.02507087512231, 35.342325085789746 ], [ 129.02509354139741, 35.342321882228653 ], [ 129.025177836867925, 35.342309960655278 ], [ 129.025690197521413, 35.342237528179993 ], [ 129.025722559960826, 35.342232510719676 ], [ 129.025852767850949, 35.342212442941019 ], [ 129.026005219497108, 35.342188945820155 ], [ 129.026050586146539, 35.342196119412129 ], [ 129.026064676779953, 35.342187852454686 ], [ 129.02611610791206, 35.342157845557011 ], [ 129.026125550143576, 35.342151362927019 ], [ 129.026083193046333, 35.342092712248025 ], [ 129.026072242142362, 35.342068767350987 ], [ 129.026049983345729, 35.342020090468232 ], [ 129.026046505117023, 35.341936133577555 ], [ 129.02602392679546, 35.341845365650371 ], [ 129.026025554132929, 35.341768778771694 ], [ 129.025980438959579, 35.3416534440681 ], [ 129.026027240393347, 35.34166384887483 ], [ 129.026085813446599, 35.341634893220494 ], [ 129.026342647396888, 35.341456639280814 ], [ 129.026353085388678, 35.34144939934734 ], [ 129.026354569093456, 35.341448370832097 ], [ 129.025476817784067, 35.340686837573735 ], [ 129.025279335179135, 35.340530062948986 ], [ 129.02519181928588, 35.340460585781329 ], [ 129.025057606993727, 35.340354039418052 ], [ 129.02471073723396, 35.340020056664812 ], [ 129.024549076885108, 35.339767742996486 ], [ 129.024480079535465, 35.339519106336994 ], [ 129.02435325552463, 35.339221052706087 ], [ 129.024081976615065, 35.338705824190932 ], [ 129.023996209465793, 35.338542933136026 ], [ 129.023511414826601, 35.337176353140357 ], [ 129.023452207324283, 35.337009451060034 ], [ 129.023241245503726, 35.336524421443926 ], [ 129.023168694728923, 35.336357617034331 ], [ 129.023010343819436, 35.33605203948516 ], [ 129.022762599038913, 35.335742856459461 ], [ 129.022682430292889, 35.335424610614901 ], [ 129.022674744883602, 35.335373581996301 ], [ 129.02264275154684, 35.335161154411537 ], [ 129.022631314718438, 35.335085220700428 ], [ 129.022392307893369, 35.334751387314796 ], [ 129.022305316903129, 35.334629881448528 ], [ 129.021922502667195, 35.334295602449089 ], [ 129.021859299754965, 35.334244440641719 ], [ 129.021539767085841, 35.333985773162908 ], [ 129.021474125658557, 35.333943250206843 ], [ 129.020940456251708, 35.333597519711688 ], [ 129.020674344934662, 35.333425120489153 ], [ 129.020642075067087, 35.333199246719737 ], [ 129.020641294174595, 35.333193740626044 ], [ 129.020608747695661, 35.333025324943875 ], [ 129.020569183916706, 35.332820600399074 ], [ 129.020569049809893, 35.332810387990108 ], [ 129.020539887195611, 35.332561590955166 ], [ 129.02052341382128, 35.332432270568468 ], [ 129.020506665024016, 35.332315848160825 ], [ 129.020502030590649, 35.332283644014694 ], [ 129.020500158261115, 35.332273730258528 ], [ 129.020480728194372, 35.332059333481816 ], [ 129.020473153364605, 35.331979225247984 ], [ 129.02047006660311, 35.331949527881207 ], [ 129.020453222148433, 35.33183944122041 ], [ 129.020449466595835, 35.331817972950439 ], [ 129.020449048862218, 35.331808534965639 ], [ 129.020435740196518, 35.331724686033475 ], [ 129.020413546139309, 35.331587786689411 ], [ 129.020412691322747, 35.331582502411578 ], [ 129.020398212625025, 35.331493158580415 ], [ 129.02036869402113, 35.331494903901607 ], [ 129.020298121706787, 35.330992479646319 ], [ 129.020295252875286, 35.330972062286406 ], [ 129.020290053876323, 35.330935081394223 ], [ 129.020288205622137, 35.330930502931693 ], [ 129.020303637983091, 35.330929563214198 ], [ 129.020301795829795, 35.330915970590354 ], [ 129.020299979021075, 35.330902497558981 ], [ 129.02026597661262, 35.330650725589514 ], [ 129.020265461805707, 35.330647498966883 ], [ 129.020255586615775, 35.330567787478408 ], [ 129.020238028929981, 35.330436618858982 ], [ 129.020226236340676, 35.330348515147989 ], [ 129.020221151489523, 35.330310516722086 ], [ 129.020211340102605, 35.330237202998809 ], [ 129.020210976998584, 35.330234498290885 ], [ 129.02019044929196, 35.330081961485213 ], [ 129.020168756515204, 35.329919374886543 ], [ 129.020174759382598, 35.329909521659189 ], [ 129.020167620881921, 35.329899563227691 ], [ 129.020156891932118, 35.329832587483601 ], [ 129.020150139635007, 35.329788027520159 ], [ 129.020146857889614, 35.329772227874081 ], [ 129.020142972389664, 35.329759789731845 ], [ 129.020139219255441, 35.329750189930046 ], [ 129.020105462690225, 35.329520064623736 ], [ 129.020055287188654, 35.329177999815165 ], [ 129.019981485724315, 35.328674855713885 ], [ 129.019977641514458, 35.328648636253774 ], [ 129.019972563772001, 35.328614000642844 ], [ 129.019961909960102, 35.32854138177413 ], [ 129.01972685375793, 35.3266387452625 ], [ 129.019694249164502, 35.326374860524929 ], [ 129.019694326301419, 35.326272839291519 ], [ 129.01964952247738, 35.325986547415667 ], [ 129.01964147067028, 35.32593511918877 ], [ 129.019574980674975, 35.325510231645126 ], [ 129.019607398383584, 35.325507265409499 ], [ 129.019564407348895, 35.325180537813921 ], [ 129.019525031248833, 35.325183957552206 ], [ 129.019440372962578, 35.324601864446052 ], [ 129.019298148469346, 35.323549996431225 ], [ 129.019291549559824, 35.323501227617569 ], [ 129.019217492429988, 35.322953481333869 ], [ 129.019169146031544, 35.322599167164022 ], [ 129.01911327711619, 35.32208146754526 ], [ 129.019100880963464, 35.321927730890003 ], [ 129.019083533256662, 35.32179767991925 ], [ 129.019040335468645, 35.321502814894771 ], [ 129.019006116150194, 35.321480485140107 ], [ 129.018975509363258, 35.321413575028487 ], [ 129.018953492396349, 35.321365510207478 ], [ 129.018951136297318, 35.321351584997274 ], [ 129.018963693859433, 35.321344724787167 ], [ 129.018944527984473, 35.321312522782854 ], [ 129.018935111068174, 35.321300739212617 ], [ 129.018900944394488, 35.321257987743522 ], [ 129.018894955283628, 35.321217916980061 ], [ 129.018877712997181, 35.321074183902759 ], [ 129.018866939093726, 35.320984439726494 ], [ 129.018885752980879, 35.320980245358996 ], [ 129.01887878671684, 35.320956388449225 ], [ 129.01887507780279, 35.320943886714709 ], [ 129.018864326652988, 35.320907700325868 ], [ 129.01885648643929, 35.320872406000191 ], [ 129.018847306359703, 35.320874398451828 ], [ 129.018838452412894, 35.320806313396133 ], [ 129.018834766062639, 35.320777961417058 ], [ 129.018827862468953, 35.320724870548183 ], [ 129.018814194201269, 35.320620291893192 ], [ 129.018811186079773, 35.320595793804635 ], [ 129.01880320875668, 35.320536403486294 ], [ 129.01877585153602, 35.320332600063551 ], [ 129.018770156104864, 35.320290167036205 ], [ 129.018749659301733, 35.320142318470396 ], [ 129.018693475414722, 35.319737034480639 ], [ 129.018692858746618, 35.319732588370229 ], [ 129.018669112225382, 35.319562770969981 ], [ 129.0186623161851, 35.319512477265143 ], [ 129.018659177882, 35.319489188934334 ], [ 129.01864320744275, 35.319364301074053 ], [ 129.018631275033357, 35.319270988479239 ], [ 129.018618840139254, 35.31918303944547 ], [ 129.018634715036853, 35.319157411560596 ], [ 129.018621702821633, 35.319040059889851 ], [ 129.018606466395994, 35.318909531458026 ], [ 129.018596849037692, 35.318828891380498 ], [ 129.018557167253903, 35.318532961238411 ], [ 129.018405081279639, 35.317398684952614 ], [ 129.018382507586011, 35.317253512102603 ], [ 129.018297836257688, 35.316627420699525 ], [ 129.018152857936769, 35.315555356166506 ], [ 129.018108598545382, 35.315228066321176 ], [ 129.018066737882748, 35.314918511273923 ], [ 129.018063861140348, 35.314893423652514 ], [ 129.018054962848851, 35.31481582362197 ], [ 129.018050510270484, 35.314776986683881 ], [ 129.018035994724301, 35.314663853340797 ], [ 129.018021971232685, 35.31456133095525 ], [ 129.018021460200799, 35.314557588554976 ], [ 129.017997063850657, 35.314379190450232 ], [ 129.017991365551467, 35.314325606490165 ], [ 129.017989574790164, 35.314308772821832 ], [ 129.017988148567895, 35.314295376852321 ], [ 129.017987249374386, 35.31429146441674 ], [ 129.017987071928076, 35.314290680457042 ], [ 129.017976439467901, 35.314248293103084 ], [ 129.017967621946212, 35.314202020541877 ], [ 129.017936381762325, 35.314043038463353 ], [ 129.017888234738962, 35.313802443802111 ], [ 129.017863717700408, 35.313663938977513 ], [ 129.017860799563067, 35.313637394892851 ], [ 129.0178058945381, 35.313418793698844 ], [ 129.017798168826573, 35.313394089709242 ], [ 129.017784175097461, 35.313289538314763 ], [ 129.017734007408706, 35.312914729137248 ], [ 129.017724350357781, 35.312842582387766 ], [ 129.017682244605567, 35.312512683014532 ], [ 129.017640961390669, 35.312216249382715 ], [ 129.017625665451419, 35.312114799539351 ], [ 129.017579234439978, 35.311806854042565 ], [ 129.017573829467693, 35.311774653915499 ], [ 129.017523957908878, 35.311477460671206 ], [ 129.017495564391282, 35.311289871209482 ], [ 129.017457894528405, 35.31104099975164 ], [ 129.017451267116257, 35.310989281065673 ], [ 129.017440557275705, 35.310908676121542 ], [ 129.017346671443136, 35.310202099288283 ], [ 129.017346182582799, 35.310198421518272 ], [ 129.017344820854788, 35.310188173080611 ], [ 129.017327786697422, 35.310050383763439 ], [ 129.017326451094362, 35.310039590435778 ], [ 129.017287232771338, 35.309726238393139 ], [ 129.01727885360674, 35.309660217171825 ], [ 129.017180180197812, 35.308876680695612 ], [ 129.017159398815579, 35.308711652552091 ], [ 129.017141258311739, 35.308718659256719 ], [ 129.017119356035295, 35.308506676712476 ], [ 129.017082946722894, 35.30844184025154 ], [ 129.017074278786652, 35.308394557712198 ], [ 129.017069772017862, 35.3083703208546 ], [ 129.017107691669651, 35.308338400212492 ], [ 129.017107542681146, 35.30826763609582 ], [ 129.017103742990628, 35.308235793549215 ], [ 129.017100309339668, 35.308218722607151 ], [ 129.017086435672439, 35.308158893912548 ], [ 129.01707192594651, 35.30808573503829 ], [ 129.017069499156946, 35.308085121751482 ], [ 129.017062163661535, 35.308083392576755 ], [ 129.01703262940606, 35.308076427796664 ], [ 129.017025454704481, 35.308048792950117 ], [ 129.017049066980462, 35.308027591457702 ], [ 129.017053696861808, 35.308023435627376 ], [ 129.017040278160437, 35.307953215772883 ], [ 129.016948402331593, 35.30756298452561 ], [ 129.016872616277425, 35.307201380640947 ], [ 129.016871065894378, 35.307194098995019 ], [ 129.016855625173577, 35.307121362885496 ], [ 129.016836578803179, 35.307056739457856 ], [ 129.016832587902854, 35.307041037801092 ], [ 129.0168029261919, 35.306949224775749 ], [ 129.016796861232166, 35.306929178215697 ], [ 129.016779653363272, 35.30687501092298 ], [ 129.01663129556394, 35.306469916476594 ], [ 129.015954284605868, 35.304383313026499 ], [ 129.015949741991676, 35.304370209426082 ], [ 129.01593683563857, 35.304372870457101 ], [ 129.015875725903243, 35.304188887557757 ], [ 129.015873774675242, 35.304183103055834 ], [ 129.015811171426805, 35.303997396961044 ], [ 129.015834632786323, 35.303986543377036 ], [ 129.015740141585042, 35.303676142745744 ], [ 129.015689439402024, 35.30353154788795 ], [ 129.015679371751361, 35.303499065264894 ], [ 129.015433421323706, 35.302770582624056 ], [ 129.015285046285584, 35.302320707764984 ], [ 129.015179056570531, 35.302000457398577 ], [ 129.015033859696757, 35.301560497713737 ], [ 129.015017470371902, 35.30150757215366 ], [ 129.014962457645566, 35.301337849407616 ], [ 129.014962027282735, 35.301336533063377 ], [ 129.014910325636123, 35.301176038987833 ], [ 129.014909215395875, 35.301171171669381 ], [ 129.014756593900586, 35.300609089935257 ], [ 129.014655283519772, 35.300236363488978 ], [ 129.014595636181525, 35.300018093650728 ], [ 129.014370913488136, 35.299709798861201 ], [ 129.014318612621821, 35.299639193676398 ], [ 129.01431757700243, 35.29963779655295 ], [ 129.014318472135216, 35.299640625363828 ], [ 129.014167833608781, 35.299436030527652 ], [ 129.013989542346906, 35.299182377972379 ], [ 129.013960172834032, 35.299092977576883 ], [ 129.013916407205215, 35.298956447162858 ], [ 129.01380164519307, 35.298590266122254 ], [ 129.013774894488506, 35.298507057489815 ], [ 129.013676779177416, 35.298202794950498 ], [ 129.01365973985591, 35.298151727367348 ], [ 129.013696889833568, 35.298143431078621 ], [ 129.013663452547661, 35.298034751327002 ], [ 129.013651990183149, 35.29799904201122 ], [ 129.013652317679686, 35.297982142034584 ], [ 129.013608088757508, 35.297992330107192 ], [ 129.013581941427304, 35.297911735703074 ], [ 129.01358078065914, 35.297908163690309 ], [ 129.01356659253247, 35.297864565272668 ], [ 129.013625357972984, 35.297848423249782 ], [ 129.01360657607114, 35.297789227956457 ], [ 129.013546446868929, 35.297802647094606 ], [ 129.01353783007167, 35.297776174144531 ], [ 129.013722266391767, 35.297735599099788 ], [ 129.01366045388329, 35.29754939392086 ], [ 129.013477628244743, 35.297591164958753 ], [ 129.01344837845707, 35.297501278747966 ], [ 129.013520124582357, 35.297486592674268 ], [ 129.013479611870054, 35.297373646712813 ], [ 129.013411671428855, 35.297388478072385 ], [ 129.013294910005953, 35.297029655900495 ], [ 129.013257895539653, 35.296909592160397 ], [ 129.013216793512242, 35.296789529067503 ], [ 129.013180793687837, 35.29668159888115 ], [ 129.013174272509161, 35.296661526239816 ], [ 129.013150434740112, 35.296588156142491 ], [ 129.013140023069838, 35.296556109418191 ], [ 129.013138326481311, 35.296550926644137 ], [ 129.01313156366345, 35.296530160090924 ], [ 129.013119477268674, 35.296493099816317 ], [ 129.013106353323195, 35.296453116930991 ], [ 129.013068131965611, 35.296336776475677 ], [ 129.013024826392495, 35.296194425503003 ], [ 129.013077677029685, 35.296181858655217 ], [ 129.013018459574027, 35.29600251869973 ], [ 129.012967654883084, 35.296013510081067 ], [ 129.012945580311055, 35.295943977597489 ], [ 129.012887354975447, 35.295767338952494 ], [ 129.012806115695412, 35.295516992500907 ], [ 129.012936884860864, 35.295486880498515 ], [ 129.012787997254151, 35.295055671153598 ], [ 129.012823239575255, 35.294982705975919 ], [ 129.0128243143443, 35.294980480016427 ], [ 129.012888685912685, 35.294847212373661 ], [ 129.012975007194797, 35.294670161810046 ], [ 129.01299600943554, 35.294632124917399 ], [ 129.012997321189488, 35.294629751736096 ], [ 129.013006254425846, 35.29461352576039 ], [ 129.01312543078339, 35.294398369228695 ], [ 129.013373933889966, 35.293956178299304 ], [ 129.01355673393499, 35.293707589161748 ], [ 129.013853744966383, 35.293306960410291 ], [ 129.014150721284835, 35.293043947218536 ], [ 129.014172968003464, 35.293024242899961 ], [ 129.014177969357775, 35.293019816557305 ], [ 129.014184407119785, 35.292161870133462 ], [ 129.014118209015805, 35.291551087543745 ], [ 129.014030071704781, 35.2911046725566 ], [ 129.013978811738099, 35.290839984750626 ], [ 129.013869112009246, 35.290469915232229 ], [ 129.013867183007079, 35.290463407322072 ], [ 129.013805871525506, 35.290231573143572 ], [ 129.013740819862988, 35.290046769677033 ], [ 129.013585891861482, 35.289606978469095 ], [ 129.013581515956986, 35.28959454974629 ], [ 129.013462048611643, 35.289343855132046 ], [ 129.013318378288545, 35.289024815760996 ], [ 129.01329435401189, 35.288986373021906 ], [ 129.013081153506135, 35.288645210874769 ], [ 129.013025807618561, 35.288556644449528 ], [ 129.012499900829539, 35.287834778620123 ], [ 129.012054627929814, 35.287223580175571 ], [ 129.012007817222468, 35.287159324449803 ], [ 129.0116287839096, 35.286690509251997 ], [ 129.011478165127727, 35.286461952807251 ], [ 129.011329979411499, 35.286228481803995 ], [ 129.011283809308679, 35.286155738255175 ], [ 129.011175993572976, 35.28561153858373 ], [ 129.011134078323522, 35.284951465332611 ], [ 129.011126633415728, 35.284836342441089 ], [ 129.011119254449852, 35.284722222199782 ], [ 129.011101349707388, 35.284566760932897 ], [ 129.011083671891953, 35.284440665429187 ], [ 129.011049776526448, 35.284208880928816 ], [ 129.010994936455489, 35.28385291971815 ], [ 129.010956159964536, 35.283512921598366 ], [ 129.010933426820912, 35.283308174400908 ], [ 129.010911690913844, 35.283073000268288 ], [ 129.010915901659899, 35.282808628342487 ], [ 129.01092159015343, 35.282572008930316 ], [ 129.010938519193957, 35.282213663337572 ], [ 129.010959056235038, 35.281954409541257 ], [ 129.010667116567959, 35.281948862796895 ], [ 129.010501760717176, 35.281945720445158 ], [ 129.010462564673219, 35.281947787760004 ], [ 129.010036894685641, 35.281850798926584 ], [ 129.009387138800861, 35.281709242662643 ], [ 129.008815157063481, 35.28158649910656 ], [ 129.008368430783094, 35.281491416944952 ], [ 129.008147308395678, 35.281444236788261 ], [ 129.007911427283574, 35.281393907927267 ], [ 129.007673097283856, 35.281342541637578 ], [ 129.007668904140473, 35.281341615674691 ], [ 129.007583948739665, 35.281427621378157 ], [ 129.007359315387134, 35.281652257468231 ], [ 129.006896305590146, 35.282118161016527 ], [ 129.006881535513969, 35.282128303185431 ], [ 129.006384348061374, 35.282640814059981 ], [ 129.006129656815148, 35.282912777476042 ], [ 129.005578005308564, 35.283394731095392 ], [ 129.005531516071954, 35.283436046693382 ], [ 129.005382472410759, 35.283568503742522 ], [ 129.004577228089545, 35.284284128641346 ], [ 129.004101983268185, 35.284727484291025 ], [ 129.003877502278044, 35.284952680141295 ], [ 129.003801073386313, 35.28500690138506 ], [ 129.003697510022079, 35.285063665264666 ], [ 129.003419439802656, 35.285219846600697 ], [ 129.003362929111972, 35.285256046773846 ], [ 129.003297318076903, 35.285292948782647 ], [ 129.002916701515318, 35.28549800253532 ], [ 129.002740307141579, 35.285598418097905 ], [ 129.002334438088724, 35.285823052759461 ], [ 129.002225036270772, 35.285886850058723 ], [ 129.001775542074739, 35.286139372002523 ], [ 129.00149196344222, 35.286300625746009 ], [ 129.001219897330714, 35.286453711709854 ], [ 129.000991103528378, 35.286579754848859 ], [ 129.000781722542115, 35.286693834988284 ], [ 129.000633498779592, 35.286775653205531 ], [ 128.999030613770799, 35.288037029089104 ], [ 128.998369782772642, 35.288557164567521 ], [ 128.997622754680833, 35.288959644278407 ], [ 128.997116202290499, 35.289216931866797 ], [ 128.996753590472764, 35.289408029411035 ], [ 128.996338933330549, 35.289625883740683 ], [ 128.996141391789109, 35.289729672808527 ], [ 128.995547055333958, 35.290039189357934 ], [ 128.995471594148597, 35.290077892279946 ], [ 128.995159948480506, 35.290237715846587 ], [ 128.99513736151431, 35.290249298432315 ], [ 128.994718749474856, 35.290478835807164 ], [ 128.994516736171079, 35.290591491549499 ], [ 128.994349937966035, 35.290684852188392 ], [ 128.994007239668434, 35.290878333615304 ], [ 128.993999681382093, 35.29087777423382 ], [ 128.993637400435148, 35.290984083014088 ], [ 128.993203153915402, 35.291111648236026 ], [ 128.992999600029123, 35.291172055758864 ], [ 128.992908900633182, 35.291199789755481 ], [ 128.992717201748292, 35.291255409028871 ], [ 128.992231079069597, 35.29139704492286 ], [ 128.991910017231959, 35.291490397888737 ], [ 128.991683785957434, 35.29155713360619 ], [ 128.991100433549917, 35.291731716766975 ], [ 128.990394242347691, 35.291934174746281 ], [ 128.99038136892824, 35.291937553911495 ], [ 128.990107372361337, 35.292021037419147 ], [ 128.989639959268828, 35.292161969023518 ], [ 128.989463189110182, 35.292280533718078 ], [ 128.98927593679727, 35.292406985502858 ], [ 128.988901944488447, 35.292659316606212 ], [ 128.988581036839236, 35.292876874847806 ], [ 128.98819089126539, 35.293132022668956 ], [ 128.987665887853098, 35.293488129506379 ], [ 128.987213550822304, 35.293787917382431 ], [ 128.986989875064609, 35.293935341219566 ], [ 128.986836625645623, 35.294035594462763 ], [ 128.986826661967484, 35.294040380035817 ], [ 128.986540971100879, 35.294226250541243 ], [ 128.986068859819227, 35.294531092718906 ], [ 128.985885151509052, 35.294650637322128 ], [ 128.985780414497697, 35.294718793091889 ], [ 128.985066919261101, 35.295177668829531 ], [ 128.984949577710779, 35.295253984879253 ], [ 128.984710950244249, 35.295404924083726 ], [ 128.984139013492666, 35.295766787088617 ], [ 128.983521653207333, 35.296459315141306 ], [ 128.983455496636594, 35.296536488544348 ], [ 128.983447424344718, 35.296542257726024 ], [ 128.98314776381298, 35.296864580074278 ], [ 128.981887237472534, 35.298218782836813 ], [ 128.981452154659252, 35.298708388747222 ], [ 128.981315025580386, 35.298863811996107 ], [ 128.981010214063446, 35.299209281277527 ], [ 128.980866362850691, 35.299372321017039 ], [ 128.98084280790664, 35.299451742794453 ], [ 128.980624829590397, 35.30007574332528 ], [ 128.980611228007859, 35.30011458304088 ], [ 128.980334114847551, 35.300906043318371 ], [ 128.980206194600527, 35.301308804399902 ], [ 128.980089272234778, 35.301678474590346 ], [ 128.979943499939168, 35.302056300201258 ], [ 128.979706936812562, 35.302683673942461 ], [ 128.979604807605824, 35.302976588058463 ], [ 128.979547572980408, 35.303106990536804 ], [ 128.979083425714492, 35.303542784673503 ], [ 128.97864316759626, 35.303952664204118 ], [ 128.978274257862864, 35.304542681058336 ], [ 128.976999470183074, 35.306581422950252 ], [ 128.976802015701509, 35.306768408208683 ], [ 128.975936208007994, 35.307583371671861 ], [ 128.97563049041392, 35.307869481944344 ], [ 128.975395029741577, 35.308089839825136 ], [ 128.974921471092813, 35.308532231823129 ], [ 128.974892683462627, 35.308559125142722 ], [ 128.974620115837013, 35.308812983168451 ], [ 128.973897433605657, 35.309491492330736 ], [ 128.973582579546161, 35.30978041458647 ], [ 128.973143459276088, 35.31018591306065 ], [ 128.973140194694054, 35.310185911363895 ], [ 128.973120024344553, 35.310402082668382 ], [ 128.973099962583547, 35.310593797693429 ], [ 128.973080882147855, 35.310776125937267 ], [ 128.973065718467609, 35.310911323198745 ], [ 128.973030244537398, 35.311147635091984 ], [ 128.973008540236719, 35.311317755185591 ], [ 128.972965632893221, 35.311664056998538 ], [ 128.972960631888981, 35.311698412910033 ], [ 128.972929284818065, 35.311934871023126 ], [ 128.972903960393126, 35.312123440405827 ], [ 128.972888532594567, 35.312267694687364 ], [ 128.972878275860353, 35.312363554911563 ], [ 128.97285741798791, 35.312545929979692 ], [ 128.972838286130383, 35.312724498204211 ], [ 128.972784898926079, 35.313074597967983 ], [ 128.972766259249227, 35.313321759142987 ], [ 128.972745921265556, 35.313498918405912 ], [ 128.972719875114194, 35.313791141476798 ], [ 128.972641217891066, 35.314899818705392 ], [ 128.972552555415234, 35.316149476855941 ], [ 128.972458138981779, 35.317480195295126 ], [ 128.972382405920769, 35.318547559274897 ], [ 128.972294020297625, 35.319793216476 ], [ 128.973139847619592, 35.31973769732312 ], [ 128.973656671864177, 35.319616019194136 ], [ 128.973793627381355, 35.319583775582124 ], [ 128.973798906070868, 35.319583813109304 ], [ 128.974078798962296, 35.319611086409402 ], [ 128.974167795446817, 35.319627367755125 ], [ 128.974230047699763, 35.319634438988501 ], [ 128.974230179602017, 35.319635160460543 ], [ 128.97423771174806, 35.319676433864011 ], [ 128.974283543540167, 35.319681861547309 ], [ 128.974342245845151, 35.319688742500887 ], [ 128.974397941617411, 35.319693496261941 ], [ 128.974589146031434, 35.319714161180741 ], [ 128.975528151576185, 35.31981783857816 ], [ 128.975869038585017, 35.319855138211921 ], [ 128.976432807592516, 35.319916823323652 ], [ 128.97662825332614, 35.320051384158219 ], [ 128.977063181130774, 35.320350825739652 ], [ 128.977147568856651, 35.320339359561856 ], [ 128.977412482827248, 35.320303398857661 ], [ 128.977450270865575, 35.320298266769349 ], [ 128.977913924146407, 35.320235337174935 ], [ 128.978330419563406, 35.320178805007714 ], [ 128.981279367031135, 35.318906455207227 ], [ 128.982324617301543, 35.318585302038933 ], [ 128.982311886395934, 35.319265270311867 ], [ 128.982295763812488, 35.319873449983248 ], [ 128.982288416501405, 35.319884894766865 ], [ 128.982088972374441, 35.320199508530784 ], [ 128.981955129508947, 35.320405676303345 ], [ 128.981866962424732, 35.320542816875907 ], [ 128.98179478557654, 35.320920256577708 ], [ 128.981798580288711, 35.321003602236587 ], [ 128.981858619249209, 35.321633227551068 ], [ 128.982222485658525, 35.322586659346065 ], [ 128.982361384118633, 35.323015327223494 ], [ 128.98250907753976, 35.323970247215193 ], [ 128.98271448580627, 35.325021374972593 ], [ 128.983129297423858, 35.325775540804855 ], [ 128.983503833946457, 35.326456470523411 ], [ 128.983808127504062, 35.327009684822031 ], [ 128.984028846820905, 35.328716473640803 ], [ 128.984134741100206, 35.329535303108997 ], [ 128.984137780911482, 35.329824810879643 ], [ 128.984158405005815, 35.330330162488984 ], [ 128.985337810195944, 35.330858306766011 ], [ 128.987632337829922, 35.331885753754761 ], [ 128.988029721024503, 35.332330234337967 ], [ 128.988084345328673, 35.332400556896786 ], [ 128.988723996833613, 35.333224031851373 ], [ 128.989678192841382, 35.33366253089924 ], [ 128.989942962558416, 35.333784202895401 ], [ 128.990592420344171, 35.334092553334564 ], [ 128.991064937776542, 35.334314781165133 ], [ 128.991368524534124, 35.334947179332602 ], [ 128.991603675682768, 35.335426075835649 ], [ 128.992097006820302, 35.33642554305645 ], [ 128.992351601633743, 35.336941330811754 ], [ 128.992720713853259, 35.337025703915835 ], [ 128.99346109949181, 35.337194939320128 ], [ 128.994200138953005, 35.337363862212825 ], [ 128.995132877297607, 35.337710385469506 ], [ 128.995192845753763, 35.337729054879539 ], [ 128.995598708295688, 35.338230736583569 ], [ 128.996015451913081, 35.338755429587607 ], [ 128.996105955046573, 35.338806466356822 ], [ 128.996191766273398, 35.338854859071084 ], [ 128.99697020385716, 35.339293848912611 ], [ 128.99743085488663, 35.339551608926158 ], [ 128.998411558971327, 35.339937306374757 ], [ 128.998797661618823, 35.340095517437781 ], [ 128.999832226039672, 35.340363869426547 ], [ 129.000364701219411, 35.34050283293746 ], [ 129.001370323896168, 35.340905218661874 ], [ 129.001887373203203, 35.341107799260875 ], [ 129.002699911093003, 35.34133998526211 ], [ 129.003591699942291, 35.34159503946028 ], [ 129.003941409788808, 35.341728177001144 ], [ 129.004129890449406, 35.341803045338736 ], [ 129.005041312340296, 35.342154085407387 ], [ 129.005189843939462, 35.342211293339957 ], [ 129.005196760514309, 35.342637044048736 ], [ 129.005481545547553, 35.343850068785869 ], [ 129.005658997366083, 35.344605887096243 ], [ 129.006160686703822, 35.345467997342254 ], [ 129.006139261377058, 35.345752052032985 ], [ 129.006246531327321, 35.345734704693605 ], [ 129.00678868179088, 35.345647028726461 ], [ 129.007933605407885, 35.346053418599375 ], [ 129.009417419581581, 35.346578829408408 ], [ 129.009615739866121, 35.346202909007673 ], [ 129.009877925790306, 35.345614226095464 ], [ 129.010259752897781, 35.344942149969029 ], [ 129.010758372740554, 35.344597030643868 ], [ 129.011310237392394, 35.344432544730189 ], [ 129.011442472368742, 35.344393131597108 ], [ 129.011777815884415, 35.34429417124506 ], [ 129.012622278488806, 35.344044962490138 ], [ 129.012633762565912, 35.344041573035966 ], [ 129.01328522150402, 35.343734147941007 ], [ 129.013790874333836, 35.34361726799105 ], [ 129.013883987628503, 35.343588875486134 ], [ 129.015823817573164, 35.344823768234889 ], [ 129.015829696863221, 35.344890258695749 ], [ 129.015853752867201, 35.344936051523419 ], [ 129.015834345794161, 35.344942842274143 ], [ 129.015869318075033, 35.345338366391907 ], [ 129.015938365978144, 35.346119169302519 ], [ 129.015951012651584, 35.34626219895123 ], [ 129.015962568309675, 35.346259215798995 ], [ 129.016033588081228, 35.346429985303132 ], [ 129.015967604577355, 35.346449820295611 ], [ 129.015981886786562, 35.346611351623707 ], [ 129.015996252273311, 35.346602209639883 ] ] ] ] } }
]
}
